{
"type": "FeatureCollection",
"name": "J09_flood_yagoua",
"xy_coordinate_resolution": 1e-06,
"features": [
{ "type": "Feature", "properties": { "classe_profondeur": "1.00 - 2.00", "ordre_classe": 1.0, "surface_ha": 0.63440745841444846 }, "geometry": { "type": "Polygon", "coordinates": [ [ [ 15.367133, 10.228409 ], [ 15.367168, 10.230342 ], [ 15.367135, 10.230066 ], [ 15.366856, 10.230066 ], [ 15.366856, 10.22979 ], [ 15.366577, 10.22979 ], [ 15.366577, 10.229514 ], [ 15.366856, 10.229514 ], [ 15.366855, 10.228686 ], [ 15.367133, 10.228685 ], [ 15.367133, 10.228409 ] ] ] } },
{ "type": "Feature", "properties": { "classe_profondeur": "2.00 - 4.00", "ordre_classe": 2.0, "surface_ha": 1.1180457865018398 }, "geometry": { "type": "Polygon", "coordinates": [ [ [ 15.366577, 10.229514 ], [ 15.366578, 10.230066 ], [ 15.366299, 10.230067 ], [ 15.366299, 10.230343 ], [ 15.36602, 10.230343 ], [ 15.366021, 10.230619 ], [ 15.365742, 10.230619 ], [ 15.365742, 10.230895 ], [ 15.365464, 10.230896 ], [ 15.365463, 10.230344 ], [ 15.365742, 10.230343 ], [ 15.365741, 10.230067 ], [ 15.36602, 10.230067 ], [ 15.36602, 10.229515 ], [ 15.366298, 10.229514 ], [ 15.366298, 10.229238 ], [ 15.366577, 10.229238 ], [ 15.366576, 10.228962 ], [ 15.366855, 10.228962 ], [ 15.366856, 10.229514 ], [ 15.366577, 10.229514 ] ] ] } },
{ "type": "Feature", "properties": { "classe_profondeur": "2.00 - 4.00", "ordre_classe": 2.0, "surface_ha": 0.3726818809971007 }, "geometry": { "type": "Polygon", "coordinates": [ [ [ 15.365185, 10.230896 ], [ 15.365464, 10.230896 ], [ 15.365464, 10.231448 ], [ 15.365186, 10.231448 ], [ 15.365186, 10.231724 ], [ 15.364907, 10.231725 ], [ 15.364907, 10.231172 ], [ 15.365185, 10.231172 ], [ 15.365185, 10.230896 ] ] ] } },
{ "type": "Feature", "properties": { "classe_profondeur": "2.00 - 4.00", "ordre_classe": 2.0, "surface_ha": 0.18634128250587592 }, "geometry": { "type": "Polygon", "coordinates": [ [ [ 15.364629, 10.231725 ], [ 15.364907, 10.231725 ], [ 15.364908, 10.232277 ], [ 15.364629, 10.232277 ], [ 15.364629, 10.231725 ] ] ] } },
{ "type": "Feature", "properties": { "classe_profondeur": "0.50 - 1.00", "ordre_classe": 0.5, "surface_ha": 11.642009718583951 }, "geometry": { "type": "Polygon", "coordinates": [ [ [ 15.365943, 10.233331 ], [ 15.366025, 10.233932 ], [ 15.366861, 10.233931 ], [ 15.366861, 10.234207 ], [ 15.366582, 10.234207 ], [ 15.366583, 10.234483 ], [ 15.366025, 10.234484 ], [ 15.366026, 10.235312 ], [ 15.365747, 10.235312 ], [ 15.365748, 10.236141 ], [ 15.36547, 10.236141 ], [ 15.36547, 10.236693 ], [ 15.365192, 10.236693 ], [ 15.365192, 10.237246 ], [ 15.364914, 10.237246 ], [ 15.364914, 10.237522 ], [ 15.364356, 10.237523 ], [ 15.364357, 10.237799 ], [ 15.364078, 10.237799 ], [ 15.364077, 10.236971 ], [ 15.364356, 10.23697 ], [ 15.364355, 10.236142 ], [ 15.364634, 10.236142 ], [ 15.364633, 10.23559 ], [ 15.364912, 10.235589 ], [ 15.364911, 10.234761 ], [ 15.364632, 10.234762 ], [ 15.364632, 10.234485 ], [ 15.36491, 10.234485 ], [ 15.364909, 10.233657 ], [ 15.364631, 10.233657 ], [ 15.364631, 10.233933 ], [ 15.364074, 10.233934 ], [ 15.364073, 10.233106 ], [ 15.364351, 10.233105 ], [ 15.36435, 10.232277 ], [ 15.364908, 10.232277 ], [ 15.364907, 10.231725 ], [ 15.365186, 10.231724 ], [ 15.365186, 10.231448 ], [ 15.365464, 10.231448 ], [ 15.365464, 10.230896 ], [ 15.365742, 10.230895 ], [ 15.365742, 10.230619 ], [ 15.366021, 10.230619 ], [ 15.36602, 10.230343 ], [ 15.366299, 10.230343 ], [ 15.366299, 10.230067 ], [ 15.366578, 10.230066 ], [ 15.366577, 10.22979 ], [ 15.366856, 10.22979 ], [ 15.366856, 10.230066 ], [ 15.367135, 10.230066 ], [ 15.367168, 10.230894 ], [ 15.366579, 10.230894 ], [ 15.366579, 10.231171 ], [ 15.3663, 10.231171 ], [ 15.366301, 10.231974 ], [ 15.366032, 10.232064 ], [ 15.365942, 10.232517 ], [ 15.365759, 10.232698 ], [ 15.36576, 10.23306 ], [ 15.365943, 10.233331 ] ] ] } },
{ "type": "Feature", "properties": { "classe_profondeur": "2.00 - 4.00", "ordre_classe": 2.0, "surface_ha": 0.18634095103712503 }, "geometry": { "type": "Polygon", "coordinates": [ [ [ 15.364072, 10.232554 ], [ 15.364351, 10.232553 ], [ 15.364351, 10.233105 ], [ 15.364073, 10.233106 ], [ 15.364072, 10.232554 ] ] ] } },
{ "type": "Feature", "properties": { "classe_profondeur": "1.00 - 2.00", "ordre_classe": 1.0, "surface_ha": 0.46585231845638791 }, "geometry": { "type": "Polygon", "coordinates": [ [ [ 15.36491, 10.234485 ], [ 15.364353, 10.234486 ], [ 15.364352, 10.233934 ], [ 15.364631, 10.233933 ], [ 15.364631, 10.233657 ], [ 15.364909, 10.233657 ], [ 15.36491, 10.234485 ] ] ] } },
{ "type": "Feature", "properties": { "classe_profondeur": "2.00 - 4.00", "ordre_classe": 2.0, "surface_ha": 0.20787953216599489 }, "geometry": { "type": "MultiPolygon", "coordinates": [ [ [ [ 15.367132, 10.227857 ], [ 15.367133, 10.228133 ], [ 15.367132, 10.228133 ], [ 15.367132, 10.227857 ] ] ], [ [ [ 15.366855, 10.228686 ], [ 15.366854, 10.228133 ], [ 15.367132, 10.228133 ], [ 15.367133, 10.228685 ], [ 15.366855, 10.228686 ] ] ] ] } },
{ "type": "Feature", "properties": { "classe_profondeur": "2.00 - 4.00", "ordre_classe": 2.0, "surface_ha": 0.55902217403575782 }, "geometry": { "type": "Polygon", "coordinates": [ [ [ 15.353776, 10.24692 ], [ 15.353777, 10.248025 ], [ 15.35322, 10.248025 ], [ 15.353219, 10.247473 ], [ 15.353498, 10.247473 ], [ 15.353497, 10.246921 ], [ 15.353776, 10.24692 ] ] ] } },
{ "type": "Feature", "properties": { "classe_profondeur": "0.50 - 1.00", "ordre_classe": 0.5, "surface_ha": 16.537573669352849 }, "geometry": { "type": "Polygon", "coordinates": [ [ [ 15.351828, 10.250235 ], [ 15.351829, 10.251064 ], [ 15.351551, 10.251064 ], [ 15.351551, 10.25134 ], [ 15.351272, 10.25134 ], [ 15.351272, 10.251616 ], [ 15.350994, 10.251617 ], [ 15.350994, 10.251893 ], [ 15.350715, 10.251893 ], [ 15.350716, 10.252169 ], [ 15.350158, 10.25217 ], [ 15.350158, 10.252446 ], [ 15.348486, 10.252447 ], [ 15.348486, 10.252724 ], [ 15.347929, 10.252724 ], [ 15.347929, 10.252448 ], [ 15.34765, 10.252448 ], [ 15.34765, 10.252172 ], [ 15.347371, 10.252173 ], [ 15.347371, 10.251897 ], [ 15.347649, 10.251896 ], [ 15.347649, 10.25162 ], [ 15.34737, 10.25162 ], [ 15.34737, 10.251344 ], [ 15.346813, 10.251345 ], [ 15.346811, 10.250241 ], [ 15.34709, 10.25024 ], [ 15.347089, 10.249688 ], [ 15.347368, 10.249688 ], [ 15.347368, 10.249412 ], [ 15.347647, 10.249412 ], [ 15.347646, 10.249136 ], [ 15.347925, 10.249135 ], [ 15.347972, 10.248906 ], [ 15.348482, 10.248859 ], [ 15.348482, 10.248583 ], [ 15.348761, 10.248582 ], [ 15.34876, 10.248306 ], [ 15.349039, 10.248306 ], [ 15.349039, 10.24803 ], [ 15.349317, 10.24803 ], [ 15.349317, 10.247753 ], [ 15.349875, 10.247753 ], [ 15.349874, 10.247201 ], [ 15.350431, 10.2472 ], [ 15.350431, 10.246648 ], [ 15.35071, 10.246648 ], [ 15.350709, 10.246461 ], [ 15.351257, 10.24628 ], [ 15.351257, 10.246095 ], [ 15.351545, 10.246095 ], [ 15.351544, 10.245543 ], [ 15.352102, 10.245542 ], [ 15.352102, 10.245266 ], [ 15.35238, 10.245266 ], [ 15.35238, 10.24499 ], [ 15.352659, 10.244989 ], [ 15.352658, 10.244713 ], [ 15.352937, 10.244713 ], [ 15.352937, 10.244437 ], [ 15.353494, 10.244436 ], [ 15.353495, 10.244712 ], [ 15.353216, 10.244713 ], [ 15.353216, 10.245265 ], [ 15.352659, 10.245265 ], [ 15.352659, 10.245541 ], [ 15.352381, 10.245542 ], [ 15.352381, 10.245818 ], [ 15.352102, 10.245818 ], [ 15.352103, 10.246094 ], [ 15.351824, 10.246094 ], [ 15.351824, 10.24637 ], [ 15.351267, 10.246371 ], [ 15.351267, 10.246647 ], [ 15.350988, 10.246647 ], [ 15.350989, 10.247476 ], [ 15.35071, 10.247476 ], [ 15.350711, 10.247752 ], [ 15.350432, 10.247752 ], [ 15.350433, 10.248304 ], [ 15.349875, 10.248305 ], [ 15.349875, 10.248581 ], [ 15.350154, 10.248581 ], [ 15.350154, 10.248857 ], [ 15.349876, 10.248857 ], [ 15.349876, 10.249133 ], [ 15.349319, 10.249134 ], [ 15.349318, 10.248858 ], [ 15.34904, 10.248858 ], [ 15.349041, 10.249686 ], [ 15.348762, 10.249687 ], [ 15.348762, 10.249963 ], [ 15.348205, 10.249963 ], [ 15.348205, 10.250239 ], [ 15.347926, 10.25024 ], [ 15.347927, 10.250516 ], [ 15.348484, 10.250515 ], [ 15.348484, 10.250791 ], [ 15.348763, 10.250791 ], [ 15.348764, 10.251619 ], [ 15.3496, 10.251618 ], [ 15.3496, 10.251342 ], [ 15.349878, 10.251342 ], [ 15.349878, 10.251066 ], [ 15.350436, 10.251065 ], [ 15.350435, 10.250789 ], [ 15.350714, 10.250789 ], [ 15.350714, 10.250513 ], [ 15.350166, 10.250513 ], [ 15.35053, 10.250079 ], [ 15.35053, 10.249717 ], [ 15.350256, 10.249627 ], [ 15.349877, 10.249961 ], [ 15.349877, 10.249685 ], [ 15.350155, 10.249685 ], [ 15.350155, 10.249409 ], [ 15.35127, 10.249408 ], [ 15.35127, 10.249684 ], [ 15.351549, 10.249684 ], [ 15.35155, 10.250236 ], [ 15.351828, 10.250235 ] ] ] } },
{ "type": "Feature", "properties": { "classe_profondeur": "2.00 - 4.00", "ordre_classe": 2.0, "surface_ha": 4.9380358089089791 }, "geometry": { "type": "Polygon", "coordinates": [ [ [ 15.347094, 10.254105 ], [ 15.346258, 10.254106 ], [ 15.346258, 10.25383 ], [ 15.346536, 10.25383 ], [ 15.346536, 10.253554 ], [ 15.347094, 10.253553 ], [ 15.347093, 10.253277 ], [ 15.347372, 10.253277 ], [ 15.347372, 10.253001 ], [ 15.34765, 10.253001 ], [ 15.34765, 10.252724 ], [ 15.348486, 10.252724 ], [ 15.348486, 10.252447 ], [ 15.350158, 10.252446 ], [ 15.350158, 10.25217 ], [ 15.350716, 10.252169 ], [ 15.350715, 10.251893 ], [ 15.350994, 10.251893 ], [ 15.350994, 10.251617 ], [ 15.351272, 10.251616 ], [ 15.351272, 10.25134 ], [ 15.351551, 10.25134 ], [ 15.351551, 10.251064 ], [ 15.351829, 10.251064 ], [ 15.351829, 10.250511 ], [ 15.352107, 10.250511 ], [ 15.352107, 10.250235 ], [ 15.352386, 10.250235 ], [ 15.352385, 10.249959 ], [ 15.352664, 10.249958 ], [ 15.352665, 10.250511 ], [ 15.352386, 10.250511 ], [ 15.352386, 10.250787 ], [ 15.352108, 10.250787 ], [ 15.352108, 10.251339 ], [ 15.35183, 10.25134 ], [ 15.35183, 10.251892 ], [ 15.351551, 10.251892 ], [ 15.351552, 10.252444 ], [ 15.350995, 10.252445 ], [ 15.350995, 10.252721 ], [ 15.350159, 10.252722 ], [ 15.350159, 10.252998 ], [ 15.348765, 10.252999 ], [ 15.348766, 10.253275 ], [ 15.34793, 10.253276 ], [ 15.34793, 10.253552 ], [ 15.347372, 10.253553 ], [ 15.347373, 10.253829 ], [ 15.347094, 10.253829 ], [ 15.347094, 10.254105 ] ] ] } },
{ "type": "Feature", "properties": { "classe_profondeur": "0.50 - 1.00", "ordre_classe": 0.5, "surface_ha": 1.1180457568128255 }, "geometry": { "type": "Polygon", "coordinates": [ [ [ 15.344308, 10.255489 ], [ 15.344866, 10.255488 ], [ 15.344866, 10.255764 ], [ 15.344587, 10.255764 ], [ 15.344588, 10.256317 ], [ 15.344309, 10.256317 ], [ 15.34431, 10.256593 ], [ 15.344031, 10.256593 ], [ 15.344031, 10.256869 ], [ 15.343752, 10.25687 ], [ 15.343753, 10.257146 ], [ 15.343474, 10.257146 ], [ 15.343473, 10.256594 ], [ 15.343752, 10.256594 ], [ 15.343752, 10.256041 ], [ 15.34403, 10.256041 ], [ 15.34403, 10.255765 ], [ 15.344309, 10.255765 ], [ 15.344308, 10.255489 ] ] ] } },
{ "type": "Feature", "properties": { "classe_profondeur": "2.00 - 4.00", "ordre_classe": 2.0, "surface_ha": 1.8634095226380973 }, "geometry": { "type": "Polygon", "coordinates": [ [ [ 15.343473, 10.256594 ], [ 15.343474, 10.257146 ], [ 15.343195, 10.257146 ], [ 15.343196, 10.257698 ], [ 15.342917, 10.257699 ], [ 15.342917, 10.257975 ], [ 15.342639, 10.257975 ], [ 15.342638, 10.257423 ], [ 15.342917, 10.257423 ], [ 15.342916, 10.256594 ], [ 15.343195, 10.256594 ], [ 15.343194, 10.256318 ], [ 15.343473, 10.256318 ], [ 15.343473, 10.255766 ], [ 15.343751, 10.255765 ], [ 15.343751, 10.255489 ], [ 15.34403, 10.255489 ], [ 15.344029, 10.255213 ], [ 15.344587, 10.255212 ], [ 15.344587, 10.254936 ], [ 15.345144, 10.254936 ], [ 15.345144, 10.255212 ], [ 15.344866, 10.255212 ], [ 15.344866, 10.255488 ], [ 15.344308, 10.255489 ], [ 15.344309, 10.255765 ], [ 15.34403, 10.255765 ], [ 15.34403, 10.256041 ], [ 15.343752, 10.256041 ], [ 15.343752, 10.256594 ], [ 15.343473, 10.256594 ] ] ] } },
{ "type": "Feature", "properties": { "classe_profondeur": "1.00 - 2.00", "ordre_classe": 1.0, "surface_ha": 0.27951151712946593 }, "geometry": { "type": "Polygon", "coordinates": [ [ [ 15.34292, 10.260735 ], [ 15.34292, 10.259907 ], [ 15.343198, 10.259907 ], [ 15.343199, 10.260735 ], [ 15.34292, 10.260735 ] ] ] } },
{ "type": "Feature", "properties": { "classe_profondeur": "2.00 - 4.00", "ordre_classe": 2.0, "surface_ha": 4.4721825429243971 }, "geometry": { "type": "Polygon", "coordinates": [ [ [ 15.341529, 10.262393 ], [ 15.341529, 10.262945 ], [ 15.34125, 10.262946 ], [ 15.341251, 10.263222 ], [ 15.340972, 10.263222 ], [ 15.340972, 10.263498 ], [ 15.340694, 10.263498 ], [ 15.340694, 10.263774 ], [ 15.339858, 10.263775 ], [ 15.339857, 10.263499 ], [ 15.340136, 10.263499 ], [ 15.340136, 10.263223 ], [ 15.340415, 10.263223 ], [ 15.340414, 10.262947 ], [ 15.340693, 10.262946 ], [ 15.340693, 10.26267 ], [ 15.340971, 10.26267 ], [ 15.340971, 10.262394 ], [ 15.34125, 10.262394 ], [ 15.34125, 10.262117 ], [ 15.341528, 10.262117 ], [ 15.341528, 10.261841 ], [ 15.341807, 10.261841 ], [ 15.341806, 10.261289 ], [ 15.342085, 10.261288 ], [ 15.342085, 10.261012 ], [ 15.342363, 10.261012 ], [ 15.342363, 10.260736 ], [ 15.342084, 10.260736 ], [ 15.342082, 10.25908 ], [ 15.342361, 10.25908 ], [ 15.34236, 10.258251 ], [ 15.342918, 10.258251 ], [ 15.34292, 10.260735 ], [ 15.342642, 10.260736 ], [ 15.342642, 10.261288 ], [ 15.342364, 10.261288 ], [ 15.342364, 10.261564 ], [ 15.342085, 10.261564 ], [ 15.342086, 10.262117 ], [ 15.341807, 10.262117 ], [ 15.341807, 10.262393 ], [ 15.341529, 10.262393 ] ] ] } },
{ "type": "Feature", "properties": { "classe_profondeur": "0.50 - 1.00", "ordre_classe": 0.5, "surface_ha": 5.1044141969871761 }, "geometry": { "type": "Polygon", "coordinates": [ [ [ 15.340415, 10.263223 ], [ 15.340136, 10.263223 ], [ 15.340136, 10.263499 ], [ 15.339857, 10.263499 ], [ 15.339858, 10.263775 ], [ 15.339579, 10.263776 ], [ 15.339579, 10.264052 ], [ 15.3393, 10.264052 ], [ 15.339301, 10.264328 ], [ 15.339041, 10.264328 ], [ 15.339132, 10.264199 ], [ 15.339021, 10.263776 ], [ 15.3393, 10.263776 ], [ 15.3393, 10.2635 ], [ 15.339579, 10.2635 ], [ 15.339578, 10.262671 ], [ 15.339856, 10.262671 ], [ 15.339856, 10.262119 ], [ 15.340135, 10.262119 ], [ 15.340134, 10.261567 ], [ 15.34097, 10.261566 ], [ 15.340969, 10.260461 ], [ 15.341248, 10.260461 ], [ 15.341246, 10.259081 ], [ 15.341525, 10.25908 ], [ 15.341525, 10.258804 ], [ 15.341803, 10.258804 ], [ 15.341804, 10.25908 ], [ 15.342082, 10.25908 ], [ 15.342084, 10.260736 ], [ 15.342363, 10.260736 ], [ 15.342363, 10.261012 ], [ 15.342085, 10.261012 ], [ 15.342085, 10.261288 ], [ 15.341806, 10.261289 ], [ 15.341807, 10.261841 ], [ 15.341528, 10.261841 ], [ 15.341528, 10.262117 ], [ 15.34125, 10.262117 ], [ 15.34125, 10.262394 ], [ 15.340971, 10.262394 ], [ 15.340971, 10.26267 ], [ 15.340693, 10.26267 ], [ 15.340693, 10.262946 ], [ 15.340414, 10.262947 ], [ 15.340415, 10.263223 ] ], [ [ 15.341686, 10.261664 ], [ 15.341776, 10.261031 ], [ 15.341229, 10.261122 ], [ 15.340865, 10.262208 ], [ 15.340408, 10.26257 ], [ 15.340409, 10.262751 ], [ 15.340226, 10.262751 ], [ 15.340044, 10.263113 ], [ 15.340226, 10.263113 ], [ 15.340317, 10.262842 ], [ 15.340591, 10.262841 ], [ 15.340682, 10.26266 ], [ 15.340865, 10.26257 ], [ 15.340865, 10.262479 ], [ 15.340956, 10.262479 ], [ 15.340956, 10.262389 ], [ 15.341047, 10.262389 ], [ 15.341047, 10.262208 ], [ 15.34123, 10.262117 ], [ 15.34123, 10.261936 ], [ 15.341686, 10.261664 ] ] ] } },
{ "type": "Feature", "properties": { "classe_profondeur": "0.50 - 1.00", "ordre_classe": 0.5, "surface_ha": 0.11898986724821604 }, "geometry": { "type": "Polygon", "coordinates": [ [ [ 15.338949, 10.26438 ], [ 15.339022, 10.264604 ], [ 15.338744, 10.264605 ], [ 15.338744, 10.264881 ], [ 15.338465, 10.264881 ], [ 15.338493, 10.264743 ], [ 15.338949, 10.26438 ] ] ] } },
{ "type": "Feature", "properties": { "classe_profondeur": "0.50 - 1.00", "ordre_classe": 0.5, "surface_ha": 0.007525257483983026 }, "geometry": { "type": "Polygon", "coordinates": [ [ [ 15.338584, 10.264329 ], [ 15.338584, 10.264381 ], [ 15.338465, 10.264381 ], [ 15.338584, 10.264329 ] ] ] } },
{ "type": "Feature", "properties": { "classe_profondeur": "0.50 - 1.00", "ordre_classe": 0.5, "surface_ha": 0.2795113959973678 }, "geometry": { "type": "Polygon", "coordinates": [ [ [ 15.346257, 10.253002 ], [ 15.346257, 10.253554 ], [ 15.3457, 10.253555 ], [ 15.3457, 10.253279 ], [ 15.345978, 10.253278 ], [ 15.345978, 10.253002 ], [ 15.346257, 10.253002 ] ] ] } },
{ "type": "Feature", "properties": { "classe_profondeur": "0.50 - 1.00", "ordre_classe": 0.5, "surface_ha": 0.1863405454160916 }, "geometry": { "type": "Polygon", "coordinates": [ [ [ 15.34793, 10.253276 ], [ 15.348487, 10.253276 ], [ 15.348487, 10.253552 ], [ 15.34793, 10.253552 ], [ 15.34793, 10.253276 ] ] ] } },
{ "type": "Feature", "properties": { "classe_profondeur": "1.00 - 2.00", "ordre_classe": 1.0, "surface_ha": 0.65219317874864613 }, "geometry": { "type": "Polygon", "coordinates": [ [ [ 15.346258, 10.254106 ], [ 15.346816, 10.254106 ], [ 15.346816, 10.254382 ], [ 15.346537, 10.254382 ], [ 15.346537, 10.254658 ], [ 15.34598, 10.254659 ], [ 15.34598, 10.254935 ], [ 15.345423, 10.254935 ], [ 15.345422, 10.254659 ], [ 15.345701, 10.254659 ], [ 15.345701, 10.254383 ], [ 15.346258, 10.254382 ], [ 15.346258, 10.254106 ] ] ] } },
{ "type": "Feature", "properties": { "classe_profondeur": "1.00 - 2.00", "ordre_classe": 1.0, "surface_ha": 4.4509243861148828 }, "geometry": { "type": "Polygon", "coordinates": [ [ [ 15.339407, 10.265375 ], [ 15.339023, 10.265433 ], [ 15.339024, 10.265985 ], [ 15.338745, 10.265985 ], [ 15.338745, 10.266261 ], [ 15.338467, 10.266261 ], [ 15.338467, 10.266537 ], [ 15.337909, 10.266538 ], [ 15.337909, 10.266262 ], [ 15.338188, 10.266262 ], [ 15.338187, 10.26571 ], [ 15.338466, 10.265709 ], [ 15.338466, 10.265433 ], [ 15.338744, 10.265433 ], [ 15.338744, 10.265157 ], [ 15.339023, 10.265157 ], [ 15.339023, 10.26488 ], [ 15.339301, 10.26488 ], [ 15.339301, 10.264604 ], [ 15.33958, 10.264604 ], [ 15.339579, 10.264328 ], [ 15.339858, 10.264327 ], [ 15.339858, 10.263775 ], [ 15.340694, 10.263774 ], [ 15.340694, 10.263498 ], [ 15.340972, 10.263498 ], [ 15.340972, 10.263222 ], [ 15.341251, 10.263222 ], [ 15.34125, 10.262946 ], [ 15.341529, 10.262945 ], [ 15.341529, 10.263221 ], [ 15.341808, 10.263221 ], [ 15.341808, 10.263497 ], [ 15.34153, 10.263498 ], [ 15.34153, 10.263774 ], [ 15.341251, 10.263774 ], [ 15.341252, 10.264602 ], [ 15.340973, 10.264602 ], [ 15.340974, 10.264878 ], [ 15.340695, 10.264879 ], [ 15.340695, 10.265155 ], [ 15.340138, 10.265155 ], [ 15.340138, 10.265431 ], [ 15.339864, 10.265374 ], [ 15.339681, 10.265103 ], [ 15.339407, 10.265375 ] ] ] } },
{ "type": "Feature", "properties": { "classe_profondeur": "0.50 - 1.00", "ordre_classe": 0.5, "surface_ha": 16.594642610302568 }, "geometry": { "type": "Polygon", "coordinates": [ [ [ 15.34292, 10.259907 ], [ 15.342918, 10.258527 ], [ 15.343197, 10.258527 ], [ 15.343197, 10.258803 ], [ 15.344033, 10.258802 ], [ 15.344034, 10.259354 ], [ 15.344313, 10.259354 ], [ 15.344315, 10.261286 ], [ 15.344036, 10.261286 ], [ 15.344036, 10.261562 ], [ 15.343758, 10.261563 ], [ 15.343758, 10.261839 ], [ 15.343479, 10.261839 ], [ 15.343479, 10.262115 ], [ 15.343201, 10.262115 ], [ 15.343201, 10.262391 ], [ 15.342922, 10.262392 ], [ 15.342923, 10.262668 ], [ 15.342644, 10.262668 ], [ 15.342644, 10.262944 ], [ 15.342365, 10.262945 ], [ 15.342367, 10.264601 ], [ 15.342646, 10.264601 ], [ 15.342646, 10.264877 ], [ 15.342367, 10.264877 ], [ 15.342368, 10.265705 ], [ 15.34209, 10.265705 ], [ 15.34209, 10.265982 ], [ 15.341811, 10.265982 ], [ 15.341811, 10.266258 ], [ 15.340418, 10.266259 ], [ 15.340418, 10.266535 ], [ 15.339861, 10.266536 ], [ 15.339861, 10.266812 ], [ 15.339582, 10.266812 ], [ 15.339583, 10.267364 ], [ 15.339304, 10.267365 ], [ 15.339304, 10.267641 ], [ 15.339026, 10.267641 ], [ 15.339026, 10.267844 ], [ 15.33819, 10.267845 ], [ 15.338313, 10.267546 ], [ 15.338131, 10.267275 ], [ 15.337765, 10.267366 ], [ 15.337632, 10.267728 ], [ 15.337631, 10.266538 ], [ 15.338467, 10.266537 ], [ 15.338467, 10.266261 ], [ 15.338745, 10.266261 ], [ 15.338745, 10.265985 ], [ 15.339024, 10.265985 ], [ 15.339023, 10.265433 ], [ 15.339407, 10.265432 ], [ 15.339133, 10.265556 ], [ 15.339042, 10.265827 ], [ 15.339316, 10.265827 ], [ 15.339682, 10.266098 ], [ 15.339772, 10.265646 ], [ 15.340138, 10.265555 ], [ 15.340046, 10.265432 ], [ 15.340138, 10.265155 ], [ 15.340695, 10.265155 ], [ 15.340695, 10.264879 ], [ 15.340974, 10.264878 ], [ 15.340973, 10.264602 ], [ 15.341252, 10.264602 ], [ 15.341251, 10.263774 ], [ 15.34153, 10.263774 ], [ 15.34153, 10.263498 ], [ 15.341808, 10.263497 ], [ 15.341808, 10.263221 ], [ 15.341529, 10.263221 ], [ 15.341529, 10.262393 ], [ 15.341807, 10.262393 ], [ 15.341807, 10.262117 ], [ 15.342086, 10.262117 ], [ 15.342085, 10.261564 ], [ 15.342364, 10.261564 ], [ 15.342364, 10.261288 ], [ 15.342642, 10.261288 ], [ 15.342642, 10.260736 ], [ 15.343199, 10.260735 ], [ 15.343198, 10.259907 ], [ 15.34292, 10.259907 ] ] ] } },
{ "type": "Feature", "properties": { "classe_profondeur": "2.00 - 4.00", "ordre_classe": 2.0, "surface_ha": 2.7071191502090541 }, "geometry": { "type": "Polygon", "coordinates": [ [ [ 15.337583, 10.267846 ], [ 15.336796, 10.267847 ], [ 15.336795, 10.267458 ], [ 15.337074, 10.267367 ], [ 15.337073, 10.266815 ], [ 15.337352, 10.266815 ], [ 15.337352, 10.266263 ], [ 15.33763, 10.266262 ], [ 15.33763, 10.26571 ], [ 15.337909, 10.26571 ], [ 15.337908, 10.265434 ], [ 15.338187, 10.265433 ], [ 15.338187, 10.265157 ], [ 15.338465, 10.265157 ], [ 15.338465, 10.264881 ], [ 15.338744, 10.264881 ], [ 15.338744, 10.264605 ], [ 15.339022, 10.264604 ], [ 15.339041, 10.264328 ], [ 15.339301, 10.264328 ], [ 15.3393, 10.264052 ], [ 15.339579, 10.264052 ], [ 15.339579, 10.263776 ], [ 15.339858, 10.263775 ], [ 15.339858, 10.264327 ], [ 15.339579, 10.264328 ], [ 15.33958, 10.264604 ], [ 15.339301, 10.264604 ], [ 15.339301, 10.26488 ], [ 15.339023, 10.26488 ], [ 15.339023, 10.265157 ], [ 15.338744, 10.265157 ], [ 15.338744, 10.265433 ], [ 15.338466, 10.265433 ], [ 15.338466, 10.265709 ], [ 15.338187, 10.26571 ], [ 15.338188, 10.266262 ], [ 15.337909, 10.266262 ], [ 15.337909, 10.266538 ], [ 15.337631, 10.266538 ], [ 15.337583, 10.267846 ] ] ] } },
{ "type": "Feature", "properties": { "classe_profondeur": "2.00 - 4.00", "ordre_classe": 2.0, "surface_ha": 1.7702387473579817 }, "geometry": { "type": "Polygon", "coordinates": [ [ [ 15.364353, 10.234486 ], [ 15.364632, 10.234485 ], [ 15.364632, 10.234762 ], [ 15.364911, 10.234761 ], [ 15.364912, 10.235589 ], [ 15.364633, 10.23559 ], [ 15.364634, 10.236142 ], [ 15.364355, 10.236142 ], [ 15.364353, 10.234762 ], [ 15.364075, 10.234762 ], [ 15.364074, 10.234486 ], [ 15.363796, 10.234486 ], [ 15.363795, 10.23421 ], [ 15.363517, 10.234211 ], [ 15.363516, 10.233659 ], [ 15.363795, 10.233658 ], [ 15.363794, 10.233106 ], [ 15.364073, 10.233106 ], [ 15.364074, 10.233934 ], [ 15.364352, 10.233934 ], [ 15.364353, 10.234486 ] ] ] } },
{ "type": "Feature", "properties": { "classe_profondeur": "0.50 - 1.00", "ordre_classe": 0.5, "surface_ha": 1.3975573584266008 }, "geometry": { "type": "Polygon", "coordinates": [ [ [ 15.364353, 10.234762 ], [ 15.364355, 10.236142 ], [ 15.364076, 10.236143 ], [ 15.364077, 10.236695 ], [ 15.363798, 10.236695 ], [ 15.363797, 10.236143 ], [ 15.363519, 10.236143 ], [ 15.363518, 10.235591 ], [ 15.363797, 10.235591 ], [ 15.363796, 10.234486 ], [ 15.364074, 10.234486 ], [ 15.364075, 10.234762 ], [ 15.364353, 10.234762 ] ] ] } },
{ "type": "Feature", "properties": { "classe_profondeur": "2.00 - 4.00", "ordre_classe": 2.0, "surface_ha": 1.118046362188831 }, "geometry": { "type": "Polygon", "coordinates": [ [ [ 15.364077, 10.236971 ], [ 15.364078, 10.237799 ], [ 15.363799, 10.237799 ], [ 15.3638, 10.238351 ], [ 15.363521, 10.238352 ], [ 15.363522, 10.238628 ], [ 15.363243, 10.238628 ], [ 15.363242, 10.238076 ], [ 15.363521, 10.238076 ], [ 15.36352, 10.237523 ], [ 15.363799, 10.237523 ], [ 15.363798, 10.236695 ], [ 15.364077, 10.236695 ], [ 15.364076, 10.236143 ], [ 15.364355, 10.236142 ], [ 15.364356, 10.23697 ], [ 15.364077, 10.236971 ] ] ] } },
{ "type": "Feature", "properties": { "classe_profondeur": "0.50 - 1.00", "ordre_classe": 0.5, "surface_ha": 1.6353326348170871 }, "geometry": { "type": "Polygon", "coordinates": [ [ [ 15.359898, 10.238356 ], [ 15.359898, 10.238632 ], [ 15.360177, 10.238631 ], [ 15.360177, 10.238908 ], [ 15.35962, 10.238908 ], [ 15.35962, 10.239184 ], [ 15.359341, 10.239185 ], [ 15.359342, 10.239461 ], [ 15.359063, 10.239461 ], [ 15.359063, 10.239737 ], [ 15.358506, 10.239738 ], [ 15.358506, 10.239461 ], [ 15.358227, 10.239462 ], [ 15.358227, 10.239186 ], [ 15.358505, 10.239185 ], [ 15.358505, 10.238909 ], [ 15.358784, 10.238909 ], [ 15.358783, 10.238633 ], [ 15.359062, 10.238633 ], [ 15.359062, 10.238493 ], [ 15.359898, 10.238356 ] ] ] } },
{ "type": "Feature", "properties": { "classe_profondeur": "2.00 - 4.00", "ordre_classe": 2.0, "surface_ha": 0.65219370445944369 }, "geometry": { "type": "Polygon", "coordinates": [ [ [ 15.362965, 10.239457 ], [ 15.362966, 10.240285 ], [ 15.362687, 10.240285 ], [ 15.362686, 10.239181 ], [ 15.362965, 10.23918 ], [ 15.362964, 10.238628 ], [ 15.363243, 10.238628 ], [ 15.363244, 10.239456 ], [ 15.362965, 10.239457 ] ] ] } },
{ "type": "Feature", "properties": { "classe_profondeur": "2.00 - 4.00", "ordre_classe": 2.0, "surface_ha": 0.37268176559883281 }, "geometry": { "type": "Polygon", "coordinates": [ [ [ 15.36213, 10.240562 ], [ 15.362409, 10.240561 ], [ 15.36241, 10.241114 ], [ 15.362131, 10.241114 ], [ 15.362131, 10.24139 ], [ 15.361852, 10.24139 ], [ 15.361852, 10.240838 ], [ 15.36213, 10.240838 ], [ 15.36213, 10.240562 ] ] ] } },
{ "type": "Feature", "properties": { "classe_profondeur": "Below 0.50", "ordre_classe": null, "surface_ha": 0.27951107405572073 }, "geometry": { "type": "Polygon", "coordinates": [ [ [ 15.360459, 10.241944 ], [ 15.360738, 10.241944 ], [ 15.360739, 10.242496 ], [ 15.360181, 10.242496 ], [ 15.360181, 10.24222 ], [ 15.36046, 10.24222 ], [ 15.360459, 10.241944 ] ] ] } },
{ "type": "Feature", "properties": { "classe_profondeur": "0.50 - 1.00", "ordre_classe": 0.5, "surface_ha": 54.774889787294562 }, "geometry": { "type": "Polygon", "coordinates": [ [ [ 15.352388, 10.251891 ], [ 15.35236, 10.252719 ], [ 15.35211, 10.25272 ], [ 15.35211, 10.252996 ], [ 15.351831, 10.252996 ], [ 15.351832, 10.253272 ], [ 15.351274, 10.253273 ], [ 15.351275, 10.253549 ], [ 15.350996, 10.253549 ], [ 15.350996, 10.253273 ], [ 15.350159, 10.253274 ], [ 15.35016, 10.25355 ], [ 15.349602, 10.253551 ], [ 15.349602, 10.253274 ], [ 15.348766, 10.253275 ], [ 15.348765, 10.252999 ], [ 15.350159, 10.252998 ], [ 15.350159, 10.252722 ], [ 15.350995, 10.252721 ], [ 15.350995, 10.252445 ], [ 15.351552, 10.252444 ], [ 15.351551, 10.251892 ], [ 15.35183, 10.251892 ], [ 15.35183, 10.25134 ], [ 15.352108, 10.251339 ], [ 15.352108, 10.250787 ], [ 15.352386, 10.250787 ], [ 15.352386, 10.250511 ], [ 15.352944, 10.25051 ], [ 15.352943, 10.250234 ], [ 15.353779, 10.250233 ], [ 15.353779, 10.249957 ], [ 15.354058, 10.249957 ], [ 15.354058, 10.249681 ], [ 15.354336, 10.249681 ], [ 15.354336, 10.249128 ], [ 15.354614, 10.249128 ], [ 15.354614, 10.248852 ], [ 15.354893, 10.248852 ], [ 15.354892, 10.2483 ], [ 15.355171, 10.248299 ], [ 15.355171, 10.248023 ], [ 15.355449, 10.248023 ], [ 15.355449, 10.247747 ], [ 15.356285, 10.247746 ], [ 15.356285, 10.24747 ], [ 15.356564, 10.24747 ], [ 15.356563, 10.247193 ], [ 15.357399, 10.247193 ], [ 15.357399, 10.246916 ], [ 15.357678, 10.246916 ], [ 15.357678, 10.24664 ], [ 15.357956, 10.24664 ], [ 15.357956, 10.246364 ], [ 15.358235, 10.246363 ], [ 15.358234, 10.246087 ], [ 15.358513, 10.246087 ], [ 15.358512, 10.245535 ], [ 15.358234, 10.245535 ], [ 15.358234, 10.245811 ], [ 15.357955, 10.245812 ], [ 15.357955, 10.245536 ], [ 15.357676, 10.245536 ], [ 15.357676, 10.24526 ], [ 15.357397, 10.24526 ], [ 15.357397, 10.244708 ], [ 15.357118, 10.244708 ], [ 15.357118, 10.244432 ], [ 15.357396, 10.244432 ], [ 15.357396, 10.244156 ], [ 15.357117, 10.244156 ], [ 15.357117, 10.24388 ], [ 15.357396, 10.24388 ], [ 15.357395, 10.243604 ], [ 15.357953, 10.243603 ], [ 15.357953, 10.243327 ], [ 15.35851, 10.243326 ], [ 15.358509, 10.242774 ], [ 15.357952, 10.242775 ], [ 15.357952, 10.242499 ], [ 15.357673, 10.242499 ], [ 15.357673, 10.242775 ], [ 15.357394, 10.242776 ], [ 15.357395, 10.243052 ], [ 15.357116, 10.243052 ], [ 15.357117, 10.243604 ], [ 15.356838, 10.243604 ], [ 15.356837, 10.243052 ], [ 15.356559, 10.243052 ], [ 15.356558, 10.2425 ], [ 15.356279, 10.242501 ], [ 15.35628, 10.242777 ], [ 15.355443, 10.242778 ], [ 15.355444, 10.243054 ], [ 15.355165, 10.243054 ], [ 15.355165, 10.24333 ], [ 15.354887, 10.24333 ], [ 15.354887, 10.243606 ], [ 15.354608, 10.243607 ], [ 15.354609, 10.243883 ], [ 15.354051, 10.243883 ], [ 15.354051, 10.244159 ], [ 15.353773, 10.24416 ], [ 15.353773, 10.244436 ], [ 15.353494, 10.244436 ], [ 15.353494, 10.243884 ], [ 15.353772, 10.243884 ], [ 15.353772, 10.243608 ], [ 15.35433, 10.243607 ], [ 15.354329, 10.243331 ], [ 15.354608, 10.243331 ], [ 15.354608, 10.243055 ], [ 15.354886, 10.243054 ], [ 15.354886, 10.242778 ], [ 15.355165, 10.242778 ], [ 15.355164, 10.242502 ], [ 15.355443, 10.242502 ], [ 15.355443, 10.242226 ], [ 15.355722, 10.242225 ], [ 15.355721, 10.241397 ], [ 15.356278, 10.241396 ], [ 15.356278, 10.24112 ], [ 15.356556, 10.24112 ], [ 15.356556, 10.240844 ], [ 15.357114, 10.240843 ], [ 15.357113, 10.240567 ], [ 15.357671, 10.240567 ], [ 15.357671, 10.240843 ], [ 15.358228, 10.240842 ], [ 15.358228, 10.240566 ], [ 15.358507, 10.240566 ], [ 15.358507, 10.24029 ], [ 15.358785, 10.240289 ], [ 15.358786, 10.240565 ], [ 15.359343, 10.240565 ], [ 15.359343, 10.240841 ], [ 15.359622, 10.240841 ], [ 15.359622, 10.240565 ], [ 15.360179, 10.240564 ], [ 15.360179, 10.24084 ], [ 15.360737, 10.240839 ], [ 15.360738, 10.241944 ], [ 15.361017, 10.241943 ], [ 15.361017, 10.241667 ], [ 15.361574, 10.241667 ], [ 15.361574, 10.241391 ], [ 15.362131, 10.24139 ], [ 15.362131, 10.241114 ], [ 15.36241, 10.241114 ], [ 15.362409, 10.240561 ], [ 15.362688, 10.240561 ], [ 15.362687, 10.240285 ], [ 15.363245, 10.240284 ], [ 15.363245, 10.24056 ], [ 15.363524, 10.240659 ], [ 15.363526, 10.242217 ], [ 15.363247, 10.242217 ], [ 15.363248, 10.242769 ], [ 15.362969, 10.242769 ], [ 15.362969, 10.243045 ], [ 15.36269, 10.243046 ], [ 15.362691, 10.243322 ], [ 15.362412, 10.243322 ], [ 15.362412, 10.243598 ], [ 15.361576, 10.243599 ], [ 15.361576, 10.243875 ], [ 15.361298, 10.243875 ], [ 15.361298, 10.244152 ], [ 15.361019, 10.244152 ], [ 15.36102, 10.244428 ], [ 15.360741, 10.244428 ], [ 15.360742, 10.245256 ], [ 15.360463, 10.245257 ], [ 15.360463, 10.245533 ], [ 15.360185, 10.245533 ], [ 15.360185, 10.245809 ], [ 15.359906, 10.245809 ], [ 15.359907, 10.246362 ], [ 15.359628, 10.246362 ], [ 15.359629, 10.246638 ], [ 15.35935, 10.246638 ], [ 15.35935, 10.246914 ], [ 15.359071, 10.246915 ], [ 15.359072, 10.247467 ], [ 15.358793, 10.247467 ], [ 15.358794, 10.247743 ], [ 15.358515, 10.247743 ], [ 15.358515, 10.24802 ], [ 15.358237, 10.24802 ], [ 15.358237, 10.248572 ], [ 15.357958, 10.248572 ], [ 15.357959, 10.248848 ], [ 15.35768, 10.248849 ], [ 15.35768, 10.249125 ], [ 15.357402, 10.249125 ], [ 15.357402, 10.249677 ], [ 15.357123, 10.249677 ], [ 15.357124, 10.249954 ], [ 15.356845, 10.249954 ], [ 15.356845, 10.25023 ], [ 15.356567, 10.25023 ], [ 15.356567, 10.250506 ], [ 15.355731, 10.250507 ], [ 15.355731, 10.250783 ], [ 15.355452, 10.250784 ], [ 15.355453, 10.25106 ], [ 15.354895, 10.25106 ], [ 15.354896, 10.251336 ], [ 15.354059, 10.251337 ], [ 15.35406, 10.251613 ], [ 15.353502, 10.251614 ], [ 15.353503, 10.25189 ], [ 15.352388, 10.251891 ] ], [ [ 15.360739, 10.242496 ], [ 15.360738, 10.241944 ], [ 15.360459, 10.241944 ], [ 15.36046, 10.24222 ], [ 15.360181, 10.24222 ], [ 15.360181, 10.242496 ], [ 15.360739, 10.242496 ] ] ] } },
{ "type": "Feature", "properties": { "classe_profondeur": "1.00 - 2.00", "ordre_classe": 1.0, "surface_ha": 43.872628875934133 }, "geometry": { "type": "Polygon", "coordinates": [ [ [ 15.349892, 10.250984 ], [ 15.350166, 10.250513 ], [ 15.350714, 10.250513 ], [ 15.350714, 10.250789 ], [ 15.350435, 10.250789 ], [ 15.350436, 10.251065 ], [ 15.349878, 10.251066 ], [ 15.349878, 10.251342 ], [ 15.3496, 10.251342 ], [ 15.3496, 10.251618 ], [ 15.348764, 10.251619 ], [ 15.348763, 10.250791 ], [ 15.348484, 10.250791 ], [ 15.348484, 10.250515 ], [ 15.347927, 10.250516 ], [ 15.347926, 10.25024 ], [ 15.348205, 10.250239 ], [ 15.348205, 10.249963 ], [ 15.348762, 10.249963 ], [ 15.348762, 10.249687 ], [ 15.349041, 10.249686 ], [ 15.34904, 10.248858 ], [ 15.349318, 10.248858 ], [ 15.349319, 10.249134 ], [ 15.349876, 10.249133 ], [ 15.349876, 10.248857 ], [ 15.350154, 10.248857 ], [ 15.350154, 10.248581 ], [ 15.349875, 10.248581 ], [ 15.349875, 10.248305 ], [ 15.350433, 10.248304 ], [ 15.350432, 10.247752 ], [ 15.350711, 10.247752 ], [ 15.35071, 10.247476 ], [ 15.350989, 10.247476 ], [ 15.350988, 10.246647 ], [ 15.351267, 10.246647 ], [ 15.351267, 10.246371 ], [ 15.351824, 10.24637 ], [ 15.351824, 10.246094 ], [ 15.352103, 10.246094 ], [ 15.352102, 10.245818 ], [ 15.352381, 10.245818 ], [ 15.352381, 10.245542 ], [ 15.352659, 10.245541 ], [ 15.352659, 10.245265 ], [ 15.353216, 10.245265 ], [ 15.353216, 10.244713 ], [ 15.353495, 10.244712 ], [ 15.353494, 10.244436 ], [ 15.353773, 10.244436 ], [ 15.353773, 10.24416 ], [ 15.354051, 10.244159 ], [ 15.354051, 10.243883 ], [ 15.354609, 10.243883 ], [ 15.354608, 10.243607 ], [ 15.354887, 10.243606 ], [ 15.354887, 10.24333 ], [ 15.355165, 10.24333 ], [ 15.355165, 10.243054 ], [ 15.355444, 10.243054 ], [ 15.355443, 10.242778 ], [ 15.35628, 10.242777 ], [ 15.356279, 10.242501 ], [ 15.356558, 10.2425 ], [ 15.356559, 10.243052 ], [ 15.356837, 10.243052 ], [ 15.356838, 10.243604 ], [ 15.357117, 10.243604 ], [ 15.357116, 10.243052 ], [ 15.357395, 10.243052 ], [ 15.357394, 10.242776 ], [ 15.357673, 10.242775 ], [ 15.357673, 10.242499 ], [ 15.357952, 10.242499 ], [ 15.357952, 10.242775 ], [ 15.358509, 10.242774 ], [ 15.35851, 10.243326 ], [ 15.357953, 10.243327 ], [ 15.357953, 10.243603 ], [ 15.357395, 10.243604 ], [ 15.357396, 10.24388 ], [ 15.357117, 10.24388 ], [ 15.357117, 10.244156 ], [ 15.357396, 10.244156 ], [ 15.357396, 10.244432 ], [ 15.357118, 10.244432 ], [ 15.357118, 10.244708 ], [ 15.357397, 10.244708 ], [ 15.357397, 10.24526 ], [ 15.357676, 10.24526 ], [ 15.357676, 10.245536 ], [ 15.357955, 10.245536 ], [ 15.357955, 10.245812 ], [ 15.358234, 10.245811 ], [ 15.358234, 10.245535 ], [ 15.358512, 10.245535 ], [ 15.358513, 10.246087 ], [ 15.358234, 10.246087 ], [ 15.358235, 10.246363 ], [ 15.357956, 10.246364 ], [ 15.357956, 10.24664 ], [ 15.357678, 10.24664 ], [ 15.357678, 10.246916 ], [ 15.357399, 10.246916 ], [ 15.357399, 10.247193 ], [ 15.356563, 10.247193 ], [ 15.356564, 10.24747 ], [ 15.356285, 10.24747 ], [ 15.356285, 10.247746 ], [ 15.355449, 10.247747 ], [ 15.355449, 10.248023 ], [ 15.355171, 10.248023 ], [ 15.355171, 10.248299 ], [ 15.354892, 10.2483 ], [ 15.354893, 10.248852 ], [ 15.354614, 10.248852 ], [ 15.354614, 10.249128 ], [ 15.354336, 10.249128 ], [ 15.354336, 10.249681 ], [ 15.354058, 10.249681 ], [ 15.354058, 10.249957 ], [ 15.353779, 10.249957 ], [ 15.353779, 10.250233 ], [ 15.352943, 10.250234 ], [ 15.352944, 10.25051 ], [ 15.352665, 10.250511 ], [ 15.352664, 10.249958 ], [ 15.352385, 10.249959 ], [ 15.352386, 10.250235 ], [ 15.352107, 10.250235 ], [ 15.352107, 10.250511 ], [ 15.351829, 10.250511 ], [ 15.351828, 10.250235 ], [ 15.35155, 10.250236 ], [ 15.351549, 10.249684 ], [ 15.35127, 10.249684 ], [ 15.35127, 10.249408 ], [ 15.350155, 10.249409 ], [ 15.350155, 10.249685 ], [ 15.349877, 10.249685 ], [ 15.349891, 10.25008 ], [ 15.349435, 10.250532 ], [ 15.349344, 10.250984 ], [ 15.349892, 10.250984 ] ], [ [ 15.353497, 10.246921 ], [ 15.353498, 10.247473 ], [ 15.353219, 10.247473 ], [ 15.35322, 10.248025 ], [ 15.353777, 10.248025 ], [ 15.353776, 10.24692 ], [ 15.353497, 10.246921 ] ] ] } },
{ "type": "Feature", "properties": { "classe_profondeur": "Below 0.50", "ordre_classe": null, "surface_ha": 0.038190710366284478 }, "geometry": { "type": "Polygon", "coordinates": [ [ [ 15.344249, 10.267839 ], [ 15.343701, 10.26784 ], [ 15.343975, 10.267721 ], [ 15.344249, 10.267839 ] ] ] } },
{ "type": "Feature", "properties": { "classe_profondeur": "Below 0.50", "ordre_classe": null, "surface_ha": 423.86798581056109 }, "geometry": { "type": "MultiPolygon", "coordinates": [ [ [ [ 15.366671, 10.231612 ], [ 15.366301, 10.231974 ], [ 15.3663, 10.231171 ], [ 15.366579, 10.231171 ], [ 15.366579, 10.230894 ], [ 15.367168, 10.230894 ], [ 15.367169, 10.231611 ], [ 15.366671, 10.231612 ] ] ], [ [ [ 15.366667, 10.227813 ], [ 15.36694, 10.227722 ], [ 15.367123, 10.22736 ], [ 15.367031, 10.22727 ], [ 15.367164, 10.226908 ], [ 15.367133, 10.228133 ], [ 15.366854, 10.228133 ], [ 15.366855, 10.228962 ], [ 15.366576, 10.228962 ], [ 15.366577, 10.229238 ], [ 15.366298, 10.229238 ], [ 15.366298, 10.229514 ], [ 15.36602, 10.229515 ], [ 15.36602, 10.230067 ], [ 15.365741, 10.230067 ], [ 15.365742, 10.230343 ], [ 15.365463, 10.230344 ], [ 15.365464, 10.230896 ], [ 15.365185, 10.230896 ], [ 15.365185, 10.231172 ], [ 15.364907, 10.231172 ], [ 15.364907, 10.231725 ], [ 15.364629, 10.231725 ], [ 15.364629, 10.232277 ], [ 15.36435, 10.232277 ], [ 15.364351, 10.232553 ], [ 15.364072, 10.232554 ], [ 15.364073, 10.233106 ], [ 15.363794, 10.233106 ], [ 15.363795, 10.233658 ], [ 15.363516, 10.233659 ], [ 15.363517, 10.234211 ], [ 15.363795, 10.23421 ], [ 15.363797, 10.235591 ], [ 15.363518, 10.235591 ], [ 15.363519, 10.236143 ], [ 15.363797, 10.236143 ], [ 15.363799, 10.237523 ], [ 15.36352, 10.237523 ], [ 15.363521, 10.238076 ], [ 15.363242, 10.238076 ], [ 15.363243, 10.238628 ], [ 15.362964, 10.238628 ], [ 15.362965, 10.23918 ], [ 15.362686, 10.239181 ], [ 15.362688, 10.240561 ], [ 15.36213, 10.240562 ], [ 15.36213, 10.240838 ], [ 15.361852, 10.240838 ], [ 15.361852, 10.24139 ], [ 15.361574, 10.241391 ], [ 15.361574, 10.241667 ], [ 15.361017, 10.241667 ], [ 15.361017, 10.241943 ], [ 15.360738, 10.241944 ], [ 15.360737, 10.240839 ], [ 15.360179, 10.24084 ], [ 15.360179, 10.240564 ], [ 15.359622, 10.240565 ], [ 15.359622, 10.240841 ], [ 15.359343, 10.240841 ], [ 15.359343, 10.240565 ], [ 15.358786, 10.240565 ], [ 15.358785, 10.240289 ], [ 15.358507, 10.24029 ], [ 15.358507, 10.240566 ], [ 15.358228, 10.240566 ], [ 15.358228, 10.240842 ], [ 15.357671, 10.240843 ], [ 15.357671, 10.240567 ], [ 15.357113, 10.240567 ], [ 15.357114, 10.240843 ], [ 15.356556, 10.240844 ], [ 15.356556, 10.24112 ], [ 15.356278, 10.24112 ], [ 15.356278, 10.241396 ], [ 15.355721, 10.241397 ], [ 15.355722, 10.242225 ], [ 15.355443, 10.242226 ], [ 15.355443, 10.242502 ], [ 15.355164, 10.242502 ], [ 15.355165, 10.242778 ], [ 15.354886, 10.242778 ], [ 15.354886, 10.243054 ], [ 15.354608, 10.243055 ], [ 15.354608, 10.243331 ], [ 15.354329, 10.243331 ], [ 15.35433, 10.243607 ], [ 15.353772, 10.243608 ], [ 15.353772, 10.243884 ], [ 15.353494, 10.243884 ], [ 15.353494, 10.244436 ], [ 15.352937, 10.244437 ], [ 15.352937, 10.244713 ], [ 15.352658, 10.244713 ], [ 15.352659, 10.244989 ], [ 15.35238, 10.24499 ], [ 15.35238, 10.245266 ], [ 15.352102, 10.245266 ], [ 15.352102, 10.245542 ], [ 15.351544, 10.245543 ], [ 15.351545, 10.246095 ], [ 15.351257, 10.246095 ], [ 15.351074, 10.245918 ], [ 15.351256, 10.245466 ], [ 15.351621, 10.245375 ], [ 15.351894, 10.244832 ], [ 15.352351, 10.244831 ], [ 15.352716, 10.244379 ], [ 15.353081, 10.244198 ], [ 15.35308, 10.244017 ], [ 15.353719, 10.243654 ], [ 15.354174, 10.242568 ], [ 15.354722, 10.242477 ], [ 15.354904, 10.241844 ], [ 15.355087, 10.242025 ], [ 15.355269, 10.241934 ], [ 15.355087, 10.241754 ], [ 15.355269, 10.241392 ], [ 15.355451, 10.241391 ], [ 15.355451, 10.24121 ], [ 15.355816, 10.240939 ], [ 15.355816, 10.240487 ], [ 15.356181, 10.240215 ], [ 15.356363, 10.240305 ], [ 15.356454, 10.239853 ], [ 15.356637, 10.239853 ], [ 15.356728, 10.239672 ], [ 15.357276, 10.239671 ], [ 15.357275, 10.239309 ], [ 15.357732, 10.239128 ], [ 15.35764, 10.238766 ], [ 15.357914, 10.238495 ], [ 15.35837, 10.238585 ], [ 15.358187, 10.238223 ], [ 15.358552, 10.238132 ], [ 15.358643, 10.23777 ], [ 15.358826, 10.23777 ], [ 15.358826, 10.238041 ], [ 15.3591, 10.238222 ], [ 15.359062, 10.238633 ], [ 15.358783, 10.238633 ], [ 15.358784, 10.238909 ], [ 15.358505, 10.238909 ], [ 15.358505, 10.239185 ], [ 15.358227, 10.239186 ], [ 15.358227, 10.239462 ], [ 15.358506, 10.239461 ], [ 15.358506, 10.239738 ], [ 15.359063, 10.239737 ], [ 15.359063, 10.239461 ], [ 15.359342, 10.239461 ], [ 15.359341, 10.239185 ], [ 15.35962, 10.239184 ], [ 15.35962, 10.238908 ], [ 15.360177, 10.238908 ], [ 15.360177, 10.238631 ], [ 15.359898, 10.238632 ], [ 15.359898, 10.238356 ], [ 15.359374, 10.238356 ], [ 15.359374, 10.238131 ], [ 15.359648, 10.23795 ], [ 15.35983, 10.237407 ], [ 15.360012, 10.237317 ], [ 15.359829, 10.237136 ], [ 15.359647, 10.237317 ], [ 15.359556, 10.237136 ], [ 15.359829, 10.236955 ], [ 15.35992, 10.236593 ], [ 15.360285, 10.236502 ], [ 15.360467, 10.23596 ], [ 15.360832, 10.235778 ], [ 15.360741, 10.235417 ], [ 15.361014, 10.235235 ], [ 15.361105, 10.234964 ], [ 15.361288, 10.235054 ], [ 15.361105, 10.234693 ], [ 15.361379, 10.234692 ], [ 15.361561, 10.234602 ], [ 15.361561, 10.234421 ], [ 15.362656, 10.233967 ], [ 15.363112, 10.233243 ], [ 15.363203, 10.232791 ], [ 15.363385, 10.232791 ], [ 15.363476, 10.232429 ], [ 15.363659, 10.232519 ], [ 15.364024, 10.232157 ], [ 15.364114, 10.231343 ], [ 15.363931, 10.231162 ], [ 15.363748, 10.23053 ], [ 15.364479, 10.23089 ], [ 15.36457, 10.230529 ], [ 15.364843, 10.230257 ], [ 15.365026, 10.230257 ], [ 15.365117, 10.229985 ], [ 15.365756, 10.229713 ], [ 15.366029, 10.22899 ], [ 15.366303, 10.228808 ], [ 15.366302, 10.228447 ], [ 15.366485, 10.228356 ], [ 15.366667, 10.227813 ] ], [ [ 15.361933, 10.239937 ], [ 15.362389, 10.239846 ], [ 15.362298, 10.239665 ], [ 15.362844, 10.238851 ], [ 15.362844, 10.238489 ], [ 15.363117, 10.237946 ], [ 15.36257, 10.238128 ], [ 15.36257, 10.23867 ], [ 15.362114, 10.239033 ], [ 15.362115, 10.239394 ], [ 15.361841, 10.239485 ], [ 15.361933, 10.239937 ] ] ], [ [ [ 15.332195, 10.267553 ], [ 15.332013, 10.267734 ], [ 15.332104, 10.267852 ], [ 15.321551, 10.267862 ], [ 15.321551, 10.267202 ], [ 15.321877, 10.267382 ], [ 15.321877, 10.267654 ], [ 15.32206, 10.267653 ], [ 15.322242, 10.267292 ], [ 15.322516, 10.267291 ], [ 15.322242, 10.267201 ], [ 15.322242, 10.26702 ], [ 15.322607, 10.26702 ], [ 15.322058, 10.266478 ], [ 15.321876, 10.266659 ], [ 15.321876, 10.26693 ], [ 15.321602, 10.26693 ], [ 15.32155, 10.26675 ], [ 15.321549, 10.265483 ], [ 15.321692, 10.265483 ], [ 15.321783, 10.265121 ], [ 15.321966, 10.265121 ], [ 15.322056, 10.264579 ], [ 15.321874, 10.264307 ], [ 15.322147, 10.264217 ], [ 15.322238, 10.263674 ], [ 15.322056, 10.263765 ], [ 15.322056, 10.264036 ], [ 15.321691, 10.264127 ], [ 15.32169, 10.263584 ], [ 15.321547, 10.263584 ], [ 15.321546, 10.262589 ], [ 15.32178, 10.262589 ], [ 15.321963, 10.26277 ], [ 15.322237, 10.26277 ], [ 15.32242, 10.262589 ], [ 15.322328, 10.262408 ], [ 15.321689, 10.262227 ], [ 15.321689, 10.261956 ], [ 15.321962, 10.261865 ], [ 15.321962, 10.261323 ], [ 15.322144, 10.261142 ], [ 15.322327, 10.261232 ], [ 15.322327, 10.261413 ], [ 15.322692, 10.261232 ], [ 15.322966, 10.261322 ], [ 15.323148, 10.260779 ], [ 15.323788, 10.260869 ], [ 15.323878, 10.260055 ], [ 15.323604, 10.259965 ], [ 15.323604, 10.259784 ], [ 15.323969, 10.259874 ], [ 15.324334, 10.259693 ], [ 15.324425, 10.258969 ], [ 15.324699, 10.259059 ], [ 15.324791, 10.25933 ], [ 15.325247, 10.25942 ], [ 15.325065, 10.259601 ], [ 15.325156, 10.260053 ], [ 15.325704, 10.260053 ], [ 15.325796, 10.260324 ], [ 15.32607, 10.260324 ], [ 15.32607, 10.260776 ], [ 15.326253, 10.260957 ], [ 15.326071, 10.261138 ], [ 15.326162, 10.261409 ], [ 15.326801, 10.260956 ], [ 15.326709, 10.260685 ], [ 15.326253, 10.260685 ], [ 15.326253, 10.260324 ], [ 15.326527, 10.260595 ], [ 15.327074, 10.260413 ], [ 15.327075, 10.260594 ], [ 15.327257, 10.260684 ], [ 15.327988, 10.260412 ], [ 15.327987, 10.260232 ], [ 15.32817, 10.260141 ], [ 15.328626, 10.26005 ], [ 15.3289, 10.259688 ], [ 15.329265, 10.259688 ], [ 15.329356, 10.259416 ], [ 15.329904, 10.259506 ], [ 15.330087, 10.259325 ], [ 15.330086, 10.259054 ], [ 15.329904, 10.258963 ], [ 15.329994, 10.258421 ], [ 15.330451, 10.258601 ], [ 15.330542, 10.25833 ], [ 15.330816, 10.258329 ], [ 15.330634, 10.258872 ], [ 15.330999, 10.258872 ], [ 15.331182, 10.259143 ], [ 15.331365, 10.259143 ], [ 15.331365, 10.259324 ], [ 15.331548, 10.259324 ], [ 15.331639, 10.259052 ], [ 15.331821, 10.259052 ], [ 15.331913, 10.259414 ], [ 15.332096, 10.259413 ], [ 15.332369, 10.259232 ], [ 15.332369, 10.259051 ], [ 15.3331, 10.259051 ], [ 15.333282, 10.25887 ], [ 15.333008, 10.258599 ], [ 15.333007, 10.258237 ], [ 15.33319, 10.258417 ], [ 15.333464, 10.258417 ], [ 15.333556, 10.258688 ], [ 15.33383, 10.258688 ], [ 15.333829, 10.258326 ], [ 15.333646, 10.258055 ], [ 15.33392, 10.258055 ], [ 15.334103, 10.257693 ], [ 15.334285, 10.257693 ], [ 15.334287, 10.258959 ], [ 15.334013, 10.25914 ], [ 15.334013, 10.259321 ], [ 15.33447, 10.25923 ], [ 15.335383, 10.25941 ], [ 15.335565, 10.259229 ], [ 15.335657, 10.25941 ], [ 15.335383, 10.2595 ], [ 15.335201, 10.259772 ], [ 15.335931, 10.259771 ], [ 15.335839, 10.25941 ], [ 15.336113, 10.259319 ], [ 15.336113, 10.259138 ], [ 15.335839, 10.259048 ], [ 15.336022, 10.258957 ], [ 15.336021, 10.258686 ], [ 15.335656, 10.258596 ], [ 15.3352, 10.258958 ], [ 15.335108, 10.258235 ], [ 15.335382, 10.258234 ], [ 15.335746, 10.257872 ], [ 15.335563, 10.25742 ], [ 15.336019, 10.256968 ], [ 15.336293, 10.257058 ], [ 15.336294, 10.257239 ], [ 15.336568, 10.257238 ], [ 15.336659, 10.256967 ], [ 15.337024, 10.257147 ], [ 15.337298, 10.256876 ], [ 15.337389, 10.257237 ], [ 15.337755, 10.257147 ], [ 15.337755, 10.257327 ], [ 15.337481, 10.257418 ], [ 15.337573, 10.257689 ], [ 15.337755, 10.257599 ], [ 15.337755, 10.257418 ], [ 15.338303, 10.257508 ], [ 15.338211, 10.257146 ], [ 15.338485, 10.256875 ], [ 15.338302, 10.256423 ], [ 15.338576, 10.256332 ], [ 15.338575, 10.25588 ], [ 15.338849, 10.25597 ], [ 15.33885, 10.256422 ], [ 15.338667, 10.256513 ], [ 15.338759, 10.256693 ], [ 15.339032, 10.256331 ], [ 15.33894, 10.255246 ], [ 15.338665, 10.254794 ], [ 15.338391, 10.254704 ], [ 15.338756, 10.254523 ], [ 15.338847, 10.254161 ], [ 15.339121, 10.254161 ], [ 15.339212, 10.25398 ], [ 15.339669, 10.253979 ], [ 15.339578, 10.254341 ], [ 15.339304, 10.254251 ], [ 15.338939, 10.254432 ], [ 15.338939, 10.254884 ], [ 15.339122, 10.254794 ], [ 15.339122, 10.254613 ], [ 15.33967, 10.254703 ], [ 15.339761, 10.254522 ], [ 15.3404, 10.254431 ], [ 15.3404, 10.25425 ], [ 15.340947, 10.25434 ], [ 15.340948, 10.254521 ], [ 15.34113, 10.254611 ], [ 15.341861, 10.25452 ], [ 15.341861, 10.254339 ], [ 15.341587, 10.254249 ], [ 15.341768, 10.252801 ], [ 15.341311, 10.252711 ], [ 15.341402, 10.25253 ], [ 15.341585, 10.25253 ], [ 15.341676, 10.252168 ], [ 15.341858, 10.252168 ], [ 15.341767, 10.25253 ], [ 15.34195, 10.25253 ], [ 15.34195, 10.252801 ], [ 15.342133, 10.252801 ], [ 15.342133, 10.25262 ], [ 15.342407, 10.252529 ], [ 15.342406, 10.252348 ], [ 15.342132, 10.252168 ], [ 15.342132, 10.251625 ], [ 15.341766, 10.251716 ], [ 15.341675, 10.251354 ], [ 15.341401, 10.251445 ], [ 15.341309, 10.250993 ], [ 15.341583, 10.250812 ], [ 15.341948, 10.250902 ], [ 15.341949, 10.251173 ], [ 15.342496, 10.250992 ], [ 15.342679, 10.251172 ], [ 15.343136, 10.251262 ], [ 15.3435, 10.2509 ], [ 15.344048, 10.25099 ], [ 15.344139, 10.250447 ], [ 15.344413, 10.250357 ], [ 15.344596, 10.250809 ], [ 15.344415, 10.251804 ], [ 15.344597, 10.251984 ], [ 15.344323, 10.251985 ], [ 15.344232, 10.252256 ], [ 15.34478, 10.252436 ], [ 15.344871, 10.252165 ], [ 15.345054, 10.252165 ], [ 15.345146, 10.252346 ], [ 15.345875, 10.25144 ], [ 15.345875, 10.251169 ], [ 15.345601, 10.250808 ], [ 15.345691, 10.249994 ], [ 15.345326, 10.249813 ], [ 15.345325, 10.249632 ], [ 15.345599, 10.249541 ], [ 15.345599, 10.249089 ], [ 15.345781, 10.249089 ], [ 15.345964, 10.24927 ], [ 15.345873, 10.249451 ], [ 15.346056, 10.249541 ], [ 15.346147, 10.249903 ], [ 15.346421, 10.249993 ], [ 15.346513, 10.249812 ], [ 15.34633, 10.24945 ], [ 15.346603, 10.249088 ], [ 15.346877, 10.248997 ], [ 15.346877, 10.248726 ], [ 15.347242, 10.248907 ], [ 15.347334, 10.249178 ], [ 15.347925, 10.248996 ], [ 15.347925, 10.249135 ], [ 15.347646, 10.249136 ], [ 15.347647, 10.249412 ], [ 15.347368, 10.249412 ], [ 15.347368, 10.249688 ], [ 15.347089, 10.249688 ], [ 15.34709, 10.25024 ], [ 15.346811, 10.250241 ], [ 15.346813, 10.251345 ], [ 15.34737, 10.251344 ], [ 15.34737, 10.25162 ], [ 15.347649, 10.25162 ], [ 15.347649, 10.251896 ], [ 15.347371, 10.251897 ], [ 15.347371, 10.252173 ], [ 15.34765, 10.252172 ], [ 15.34765, 10.252448 ], [ 15.347929, 10.252448 ], [ 15.347929, 10.252724 ], [ 15.34765, 10.252724 ], [ 15.34765, 10.253001 ], [ 15.347372, 10.253001 ], [ 15.347372, 10.253277 ], [ 15.347093, 10.253277 ], [ 15.347094, 10.253553 ], [ 15.346536, 10.253554 ], [ 15.346536, 10.25383 ], [ 15.346258, 10.25383 ], [ 15.346258, 10.254382 ], [ 15.345701, 10.254383 ], [ 15.345701, 10.254659 ], [ 15.345422, 10.254659 ], [ 15.345423, 10.254935 ], [ 15.34598, 10.254935 ], [ 15.34598, 10.254659 ], [ 15.346537, 10.254658 ], [ 15.346537, 10.254382 ], [ 15.346816, 10.254382 ], [ 15.346816, 10.254106 ], [ 15.347094, 10.254105 ], [ 15.347094, 10.253829 ], [ 15.347373, 10.253829 ], [ 15.347372, 10.253553 ], [ 15.348487, 10.253552 ], [ 15.348487, 10.253276 ], [ 15.349602, 10.253274 ], [ 15.349602, 10.253551 ], [ 15.35016, 10.25355 ], [ 15.350159, 10.253274 ], [ 15.350996, 10.253273 ], [ 15.350996, 10.253549 ], [ 15.351275, 10.253549 ], [ 15.351274, 10.253273 ], [ 15.351832, 10.253272 ], [ 15.351831, 10.252996 ], [ 15.35211, 10.252996 ], [ 15.35211, 10.25272 ], [ 15.35236, 10.252719 ], [ 15.352269, 10.253061 ], [ 15.352543, 10.253152 ], [ 15.352633, 10.252699 ], [ 15.353181, 10.252246 ], [ 15.353363, 10.252246 ], [ 15.353363, 10.252065 ], [ 15.353089, 10.252066 ], [ 15.352907, 10.252337 ], [ 15.352542, 10.252157 ], [ 15.352388, 10.252609 ], [ 15.352388, 10.251891 ], [ 15.353503, 10.25189 ], [ 15.353502, 10.251614 ], [ 15.35406, 10.251613 ], [ 15.354059, 10.251337 ], [ 15.354896, 10.251336 ], [ 15.354895, 10.25106 ], [ 15.355453, 10.25106 ], [ 15.355452, 10.250784 ], [ 15.355731, 10.250783 ], [ 15.355731, 10.250507 ], [ 15.356567, 10.250506 ], [ 15.356567, 10.25023 ], [ 15.356845, 10.25023 ], [ 15.356845, 10.249954 ], [ 15.357124, 10.249954 ], [ 15.357123, 10.249677 ], [ 15.357402, 10.249677 ], [ 15.357402, 10.249125 ], [ 15.35768, 10.249125 ], [ 15.35768, 10.248849 ], [ 15.357959, 10.248848 ], [ 15.357958, 10.248572 ], [ 15.358237, 10.248572 ], [ 15.358237, 10.24802 ], [ 15.358515, 10.24802 ], [ 15.358515, 10.247743 ], [ 15.358794, 10.247743 ], [ 15.358793, 10.247467 ], [ 15.359072, 10.247467 ], [ 15.359071, 10.246915 ], [ 15.35935, 10.246914 ], [ 15.35935, 10.246638 ], [ 15.359629, 10.246638 ], [ 15.359628, 10.246362 ], [ 15.359907, 10.246362 ], [ 15.359906, 10.245809 ], [ 15.360185, 10.245809 ], [ 15.360185, 10.245533 ], [ 15.360463, 10.245533 ], [ 15.360463, 10.245257 ], [ 15.360742, 10.245256 ], [ 15.360741, 10.244428 ], [ 15.36102, 10.244428 ], [ 15.361019, 10.244152 ], [ 15.361298, 10.244152 ], [ 15.361298, 10.243875 ], [ 15.361576, 10.243875 ], [ 15.361576, 10.243599 ], [ 15.362412, 10.243598 ], [ 15.362412, 10.243322 ], [ 15.362691, 10.243322 ], [ 15.36269, 10.243046 ], [ 15.362969, 10.243045 ], [ 15.362969, 10.242769 ], [ 15.363248, 10.242769 ], [ 15.363247, 10.242217 ], [ 15.363526, 10.242217 ], [ 15.363524, 10.240659 ], [ 15.364033, 10.240297 ], [ 15.364124, 10.239935 ], [ 15.364489, 10.239663 ], [ 15.364489, 10.239482 ], [ 15.363758, 10.239393 ], [ 15.363394, 10.240116 ], [ 15.363394, 10.24056 ], [ 15.363245, 10.24056 ], [ 15.363245, 10.240284 ], [ 15.362966, 10.240285 ], [ 15.362965, 10.239457 ], [ 15.363244, 10.239456 ], [ 15.363243, 10.238628 ], [ 15.363522, 10.238628 ], [ 15.363521, 10.238352 ], [ 15.3638, 10.238351 ], [ 15.363799, 10.237799 ], [ 15.364357, 10.237799 ], [ 15.364356, 10.237523 ], [ 15.364914, 10.237522 ], [ 15.364914, 10.237246 ], [ 15.365192, 10.237246 ], [ 15.365192, 10.236693 ], [ 15.36547, 10.236693 ], [ 15.36547, 10.236141 ], [ 15.365748, 10.236141 ], [ 15.365747, 10.235312 ], [ 15.366026, 10.235312 ], [ 15.366025, 10.234484 ], [ 15.366583, 10.234483 ], [ 15.366582, 10.234207 ], [ 15.366861, 10.234207 ], [ 15.366861, 10.233931 ], [ 15.366025, 10.233932 ], [ 15.366024, 10.233331 ], [ 15.366308, 10.23333 ], [ 15.366855, 10.232787 ], [ 15.36717, 10.232154 ], [ 15.367174, 10.236314 ], [ 15.36695, 10.236314 ], [ 15.366951, 10.236495 ], [ 15.367175, 10.236585 ], [ 15.367176, 10.238123 ], [ 15.366952, 10.238123 ], [ 15.366588, 10.238395 ], [ 15.366588, 10.238847 ], [ 15.366223, 10.239028 ], [ 15.365949, 10.2393 ], [ 15.36595, 10.239481 ], [ 15.365767, 10.239481 ], [ 15.365493, 10.239843 ], [ 15.365311, 10.239843 ], [ 15.36522, 10.240205 ], [ 15.365037, 10.240295 ], [ 15.364946, 10.240567 ], [ 15.365585, 10.240385 ], [ 15.365494, 10.240657 ], [ 15.365677, 10.240928 ], [ 15.364948, 10.241833 ], [ 15.364948, 10.242014 ], [ 15.365131, 10.242104 ], [ 15.36504, 10.242737 ], [ 15.36431, 10.2431 ], [ 15.364311, 10.243371 ], [ 15.364585, 10.243461 ], [ 15.364584, 10.2431 ], [ 15.365041, 10.243009 ], [ 15.36495, 10.24328 ], [ 15.365315, 10.243732 ], [ 15.365225, 10.244184 ], [ 15.364768, 10.244366 ], [ 15.364221, 10.244999 ], [ 15.363856, 10.24509 ], [ 15.363947, 10.244819 ], [ 15.364312, 10.244728 ], [ 15.364677, 10.244275 ], [ 15.364677, 10.244094 ], [ 15.364403, 10.244095 ], [ 15.364494, 10.243733 ], [ 15.364311, 10.243552 ], [ 15.364037, 10.243552 ], [ 15.363854, 10.243643 ], [ 15.363763, 10.244005 ], [ 15.363489, 10.244005 ], [ 15.363581, 10.244367 ], [ 15.363308, 10.244638 ], [ 15.363034, 10.244639 ], [ 15.362943, 10.24482 ], [ 15.362486, 10.24473 ], [ 15.362395, 10.244911 ], [ 15.36276, 10.245001 ], [ 15.36276, 10.245182 ], [ 15.362578, 10.245182 ], [ 15.362487, 10.245363 ], [ 15.362487, 10.245906 ], [ 15.363035, 10.245905 ], [ 15.363126, 10.245724 ], [ 15.3634, 10.245724 ], [ 15.363583, 10.245543 ], [ 15.363948, 10.245723 ], [ 15.3634, 10.245905 ], [ 15.363309, 10.246085 ], [ 15.363035, 10.246086 ], [ 15.363036, 10.246267 ], [ 15.362853, 10.246267 ], [ 15.362671, 10.246538 ], [ 15.362397, 10.246539 ], [ 15.362214, 10.246901 ], [ 15.362032, 10.246901 ], [ 15.361941, 10.247353 ], [ 15.361667, 10.247353 ], [ 15.361484, 10.247173 ], [ 15.361849, 10.24672 ], [ 15.362032, 10.24672 ], [ 15.362214, 10.246358 ], [ 15.362396, 10.246358 ], [ 15.362305, 10.245996 ], [ 15.361483, 10.246449 ], [ 15.361484, 10.24663 ], [ 15.361301, 10.246721 ], [ 15.361118, 10.246631 ], [ 15.361118, 10.246359 ], [ 15.360936, 10.246359 ], [ 15.360571, 10.246902 ], [ 15.360206, 10.246903 ], [ 15.360206, 10.247174 ], [ 15.360389, 10.247174 ], [ 15.36048, 10.247445 ], [ 15.360846, 10.247716 ], [ 15.361393, 10.247535 ], [ 15.361941, 10.247715 ], [ 15.362579, 10.246719 ], [ 15.362762, 10.246719 ], [ 15.362944, 10.246448 ], [ 15.363218, 10.246538 ], [ 15.363219, 10.2469 ], [ 15.362945, 10.247171 ], [ 15.362946, 10.247714 ], [ 15.362763, 10.247895 ], [ 15.362398, 10.247895 ], [ 15.362126, 10.249252 ], [ 15.361852, 10.249433 ], [ 15.361488, 10.250067 ], [ 15.361216, 10.251785 ], [ 15.360942, 10.251786 ], [ 15.360851, 10.251967 ], [ 15.360485, 10.252058 ], [ 15.360486, 10.252238 ], [ 15.360029, 10.25242 ], [ 15.359847, 10.252691 ], [ 15.359299, 10.252511 ], [ 15.359299, 10.252692 ], [ 15.359482, 10.252692 ], [ 15.359573, 10.252873 ], [ 15.359117, 10.253235 ], [ 15.358843, 10.253145 ], [ 15.358752, 10.253507 ], [ 15.358387, 10.253869 ], [ 15.358479, 10.254049 ], [ 15.358753, 10.254049 ], [ 15.358753, 10.25423 ], [ 15.358479, 10.254321 ], [ 15.358297, 10.254683 ], [ 15.35921, 10.25432 ], [ 15.359027, 10.25423 ], [ 15.359026, 10.253597 ], [ 15.359939, 10.253505 ], [ 15.360031, 10.253867 ], [ 15.35994, 10.254048 ], [ 15.359666, 10.253958 ], [ 15.359575, 10.25432 ], [ 15.360397, 10.2545 ], [ 15.360123, 10.254771 ], [ 15.359758, 10.254862 ], [ 15.359759, 10.255224 ], [ 15.359485, 10.255314 ], [ 15.359302, 10.254953 ], [ 15.35848, 10.255044 ], [ 15.358298, 10.255316 ], [ 15.35775, 10.255136 ], [ 15.357567, 10.254864 ], [ 15.358114, 10.254231 ], [ 15.357657, 10.254322 ], [ 15.357202, 10.255407 ], [ 15.35638, 10.255589 ], [ 15.356472, 10.255951 ], [ 15.356929, 10.256312 ], [ 15.356838, 10.256764 ], [ 15.356473, 10.256494 ], [ 15.356381, 10.256222 ], [ 15.356199, 10.256222 ], [ 15.356016, 10.256494 ], [ 15.355651, 10.256675 ], [ 15.35556, 10.256947 ], [ 15.355286, 10.256947 ], [ 15.355286, 10.256766 ], [ 15.355103, 10.256676 ], [ 15.354738, 10.256857 ], [ 15.354739, 10.257309 ], [ 15.35547, 10.258123 ], [ 15.354648, 10.258033 ], [ 15.354557, 10.257671 ], [ 15.354282, 10.257581 ], [ 15.354192, 10.258033 ], [ 15.354009, 10.258215 ], [ 15.353279, 10.258396 ], [ 15.353005, 10.258668 ], [ 15.352457, 10.258668 ], [ 15.352092, 10.25894 ], [ 15.351636, 10.259031 ], [ 15.351362, 10.259303 ], [ 15.351637, 10.259483 ], [ 15.351454, 10.259755 ], [ 15.35118, 10.259665 ], [ 15.351271, 10.259393 ], [ 15.351089, 10.259393 ], [ 15.350724, 10.259756 ], [ 15.350633, 10.260208 ], [ 15.350816, 10.260389 ], [ 15.351637, 10.260297 ], [ 15.351729, 10.260568 ], [ 15.351547, 10.260659 ], [ 15.351364, 10.260478 ], [ 15.35109, 10.260479 ], [ 15.350907, 10.260569 ], [ 15.350816, 10.260931 ], [ 15.35036, 10.260932 ], [ 15.349995, 10.261565 ], [ 15.349356, 10.261656 ], [ 15.349174, 10.262199 ], [ 15.348809, 10.262471 ], [ 15.348354, 10.263376 ], [ 15.34808, 10.263647 ], [ 15.347715, 10.263648 ], [ 15.347623, 10.263286 ], [ 15.347896, 10.2622 ], [ 15.348534, 10.261115 ], [ 15.348624, 10.260391 ], [ 15.348989, 10.259757 ], [ 15.349263, 10.259576 ], [ 15.349262, 10.259395 ], [ 15.349992, 10.259033 ], [ 15.350357, 10.25858 ], [ 15.35054, 10.25858 ], [ 15.350813, 10.258037 ], [ 15.350905, 10.258489 ], [ 15.351361, 10.258398 ], [ 15.351544, 10.258217 ], [ 15.351727, 10.258307 ], [ 15.351909, 10.258036 ], [ 15.352274, 10.257855 ], [ 15.352365, 10.257402 ], [ 15.352547, 10.257402 ], [ 15.352821, 10.257131 ], [ 15.353095, 10.25713 ], [ 15.353186, 10.256859 ], [ 15.353003, 10.256769 ], [ 15.352456, 10.25695 ], [ 15.352546, 10.256588 ], [ 15.352181, 10.256498 ], [ 15.35209, 10.25677 ], [ 15.351907, 10.25677 ], [ 15.351908, 10.256951 ], [ 15.351542, 10.256951 ], [ 15.351725, 10.257313 ], [ 15.351269, 10.257404 ], [ 15.351087, 10.257766 ], [ 15.350813, 10.257766 ], [ 15.350812, 10.257404 ], [ 15.351178, 10.257404 ], [ 15.351177, 10.257042 ], [ 15.350721, 10.256952 ], [ 15.349808, 10.257767 ], [ 15.3499, 10.257948 ], [ 15.349626, 10.25831 ], [ 15.349261, 10.258401 ], [ 15.34917, 10.258582 ], [ 15.348622, 10.258311 ], [ 15.34844, 10.258492 ], [ 15.34844, 10.258673 ], [ 15.348622, 10.258673 ], [ 15.348531, 10.259034 ], [ 15.348988, 10.259034 ], [ 15.34917, 10.258853 ], [ 15.349353, 10.258853 ], [ 15.349353, 10.259034 ], [ 15.348988, 10.259305 ], [ 15.348714, 10.259306 ], [ 15.348806, 10.259667 ], [ 15.348259, 10.260572 ], [ 15.348259, 10.260843 ], [ 15.348077, 10.261025 ], [ 15.348169, 10.261205 ], [ 15.347895, 10.261477 ], [ 15.347164, 10.261297 ], [ 15.346983, 10.262201 ], [ 15.346618, 10.262473 ], [ 15.346709, 10.262835 ], [ 15.346435, 10.262926 ], [ 15.346436, 10.263197 ], [ 15.346162, 10.263468 ], [ 15.346345, 10.264101 ], [ 15.346619, 10.264191 ], [ 15.346985, 10.264734 ], [ 15.347168, 10.264734 ], [ 15.347077, 10.265005 ], [ 15.346894, 10.265005 ], [ 15.346803, 10.265186 ], [ 15.346255, 10.265096 ], [ 15.346073, 10.265277 ], [ 15.345799, 10.265278 ], [ 15.345981, 10.264735 ], [ 15.345616, 10.264735 ], [ 15.345616, 10.265097 ], [ 15.345342, 10.265188 ], [ 15.345252, 10.265821 ], [ 15.344978, 10.266092 ], [ 15.344795, 10.266002 ], [ 15.344795, 10.26546 ], [ 15.344338, 10.26546 ], [ 15.343973, 10.265913 ], [ 15.343608, 10.266094 ], [ 15.343517, 10.266365 ], [ 15.343974, 10.266546 ], [ 15.344522, 10.266455 ], [ 15.344705, 10.266635 ], [ 15.344978, 10.266635 ], [ 15.344796, 10.266726 ], [ 15.344796, 10.266907 ], [ 15.344614, 10.266907 ], [ 15.344614, 10.267088 ], [ 15.344157, 10.267179 ], [ 15.343884, 10.26745 ], [ 15.343244, 10.26736 ], [ 15.343153, 10.267632 ], [ 15.34288, 10.26784 ], [ 15.340688, 10.267843 ], [ 15.340688, 10.267454 ], [ 15.340414, 10.267363 ], [ 15.340323, 10.267816 ], [ 15.339026, 10.267844 ], [ 15.339026, 10.267641 ], [ 15.339304, 10.267641 ], [ 15.339304, 10.267365 ], [ 15.339583, 10.267364 ], [ 15.339582, 10.266812 ], [ 15.339861, 10.266812 ], [ 15.339861, 10.266536 ], [ 15.340418, 10.266535 ], [ 15.340418, 10.266259 ], [ 15.341811, 10.266258 ], [ 15.341811, 10.265982 ], [ 15.34209, 10.265982 ], [ 15.34209, 10.265705 ], [ 15.342368, 10.265705 ], [ 15.342367, 10.264877 ], [ 15.342646, 10.264877 ], [ 15.342646, 10.264601 ], [ 15.342367, 10.264601 ], [ 15.342365, 10.262945 ], [ 15.342644, 10.262944 ], [ 15.342644, 10.262668 ], [ 15.342923, 10.262668 ], [ 15.342922, 10.262392 ], [ 15.343201, 10.262391 ], [ 15.343201, 10.262115 ], [ 15.343479, 10.262115 ], [ 15.343479, 10.261839 ], [ 15.343758, 10.261839 ], [ 15.343758, 10.261563 ], [ 15.344036, 10.261562 ], [ 15.344036, 10.261286 ], [ 15.344315, 10.261286 ], [ 15.344313, 10.259354 ], [ 15.344034, 10.259354 ], [ 15.344033, 10.258802 ], [ 15.343197, 10.258803 ], [ 15.343197, 10.258527 ], [ 15.342918, 10.258527 ], [ 15.342918, 10.258251 ], [ 15.34236, 10.258251 ], [ 15.342361, 10.25908 ], [ 15.341804, 10.25908 ], [ 15.341803, 10.258804 ], [ 15.341525, 10.258804 ], [ 15.341525, 10.25908 ], [ 15.341246, 10.259081 ], [ 15.341248, 10.260461 ], [ 15.340969, 10.260461 ], [ 15.34097, 10.261566 ], [ 15.340134, 10.261567 ], [ 15.340135, 10.262119 ], [ 15.339856, 10.262119 ], [ 15.339856, 10.262671 ], [ 15.339578, 10.262671 ], [ 15.339579, 10.2635 ], [ 15.3393, 10.2635 ], [ 15.3393, 10.263776 ], [ 15.339021, 10.263776 ], [ 15.338949, 10.2642 ], [ 15.338465, 10.264329 ], [ 15.338037, 10.264834 ], [ 15.337763, 10.264834 ], [ 15.33758, 10.264563 ], [ 15.337123, 10.264563 ], [ 15.337213, 10.262754 ], [ 15.33703, 10.262755 ], [ 15.336939, 10.263297 ], [ 15.336757, 10.263388 ], [ 15.336757, 10.263569 ], [ 15.33694, 10.263569 ], [ 15.33694, 10.264292 ], [ 15.335845, 10.264384 ], [ 15.335389, 10.264836 ], [ 15.335115, 10.264837 ], [ 15.335114, 10.264656 ], [ 15.334658, 10.264656 ], [ 15.334384, 10.264928 ], [ 15.334385, 10.26529 ], [ 15.334567, 10.26547 ], [ 15.33475, 10.265289 ], [ 15.335207, 10.265379 ], [ 15.334933, 10.26556 ], [ 15.334933, 10.265741 ], [ 15.33475, 10.265561 ], [ 15.334568, 10.265651 ], [ 15.334751, 10.266013 ], [ 15.334385, 10.265742 ], [ 15.334111, 10.265832 ], [ 15.334386, 10.266737 ], [ 15.334569, 10.266646 ], [ 15.334568, 10.266375 ], [ 15.335025, 10.266374 ], [ 15.335117, 10.266826 ], [ 15.33466, 10.266736 ], [ 15.334569, 10.266917 ], [ 15.334843, 10.267007 ], [ 15.334843, 10.267279 ], [ 15.334387, 10.26737 ], [ 15.334387, 10.267189 ], [ 15.334204, 10.267099 ], [ 15.334022, 10.26737 ], [ 15.333839, 10.26737 ], [ 15.333748, 10.267823 ], [ 15.333565, 10.267823 ], [ 15.333474, 10.267642 ], [ 15.333474, 10.26785 ], [ 15.332926, 10.267851 ], [ 15.332926, 10.267462 ], [ 15.333474, 10.267461 ], [ 15.333473, 10.267099 ], [ 15.333747, 10.266828 ], [ 15.333655, 10.266104 ], [ 15.333381, 10.266105 ], [ 15.333381, 10.266285 ], [ 15.333107, 10.266286 ], [ 15.332925, 10.266648 ], [ 15.332742, 10.266648 ], [ 15.332743, 10.266829 ], [ 15.332468, 10.266739 ], [ 15.332378, 10.2671 ], [ 15.332012, 10.267191 ], [ 15.332013, 10.267553 ], [ 15.332195, 10.267553 ] ], [ [ 15.364947, 10.240748 ], [ 15.364946, 10.240567 ], [ 15.364399, 10.240748 ], [ 15.364125, 10.24111 ], [ 15.363943, 10.241111 ], [ 15.363943, 10.241382 ], [ 15.364399, 10.241201 ], [ 15.364673, 10.240839 ], [ 15.364947, 10.240748 ] ], [ [ 15.336021, 10.258415 ], [ 15.336021, 10.258686 ], [ 15.336295, 10.258686 ], [ 15.336295, 10.258414 ], [ 15.336569, 10.258414 ], [ 15.336386, 10.258052 ], [ 15.33666, 10.257871 ], [ 15.336934, 10.257961 ], [ 15.336751, 10.258323 ], [ 15.337391, 10.258413 ], [ 15.33739, 10.25778 ], [ 15.337207, 10.257599 ], [ 15.336111, 10.2576 ], [ 15.335747, 10.258143 ], [ 15.336021, 10.258415 ] ], [ [ 15.342772, 10.253072 ], [ 15.342498, 10.25271 ], [ 15.342224, 10.252801 ], [ 15.342042, 10.253615 ], [ 15.342225, 10.253615 ], [ 15.342225, 10.253253 ], [ 15.34259, 10.253253 ], [ 15.342772, 10.253072 ] ], [ [ 15.339213, 10.254975 ], [ 15.339214, 10.255336 ], [ 15.339396, 10.255517 ], [ 15.339579, 10.255517 ], [ 15.339853, 10.255245 ], [ 15.339761, 10.254703 ], [ 15.339487, 10.254974 ], [ 15.339213, 10.254975 ] ], [ [ 15.339672, 10.257325 ], [ 15.339764, 10.257597 ], [ 15.340129, 10.257506 ], [ 15.340403, 10.257234 ], [ 15.34022, 10.256873 ], [ 15.339398, 10.257054 ], [ 15.339307, 10.257326 ], [ 15.339672, 10.257325 ] ], [ [ 15.340496, 10.258681 ], [ 15.340678, 10.258591 ], [ 15.340678, 10.258138 ], [ 15.340495, 10.257867 ], [ 15.339673, 10.257778 ], [ 15.3394, 10.258411 ], [ 15.339948, 10.258772 ], [ 15.339491, 10.258863 ], [ 15.339583, 10.259225 ], [ 15.340131, 10.258953 ], [ 15.340221, 10.258229 ], [ 15.340495, 10.258319 ], [ 15.340496, 10.258681 ] ], [ [ 15.330543, 10.259234 ], [ 15.330361, 10.259325 ], [ 15.33027, 10.259687 ], [ 15.329996, 10.259777 ], [ 15.329996, 10.259958 ], [ 15.330544, 10.259867 ], [ 15.330635, 10.259686 ], [ 15.330543, 10.259234 ] ], [ [ 15.338215, 10.260854 ], [ 15.338489, 10.260492 ], [ 15.338671, 10.260492 ], [ 15.338671, 10.260311 ], [ 15.339036, 10.26022 ], [ 15.339036, 10.259949 ], [ 15.339218, 10.259768 ], [ 15.339127, 10.259406 ], [ 15.339309, 10.259225 ], [ 15.339309, 10.258954 ], [ 15.339035, 10.258864 ], [ 15.338761, 10.259045 ], [ 15.338761, 10.259316 ], [ 15.338487, 10.259316 ], [ 15.338669, 10.258683 ], [ 15.338395, 10.258412 ], [ 15.337939, 10.258593 ], [ 15.337756, 10.258955 ], [ 15.337483, 10.258956 ], [ 15.337392, 10.259589 ], [ 15.338396, 10.259497 ], [ 15.33867, 10.259678 ], [ 15.338123, 10.260221 ], [ 15.337575, 10.260222 ], [ 15.337301, 10.260403 ], [ 15.337484, 10.260493 ], [ 15.337484, 10.260764 ], [ 15.337302, 10.260855 ], [ 15.337302, 10.261036 ], [ 15.33712, 10.261036 ], [ 15.33712, 10.261307 ], [ 15.33785, 10.261216 ], [ 15.337758, 10.260764 ], [ 15.338215, 10.260854 ] ], [ [ 15.339583, 10.259587 ], [ 15.339219, 10.259949 ], [ 15.33931, 10.26022 ], [ 15.339767, 10.26031 ], [ 15.33995, 10.260581 ], [ 15.340406, 10.2604 ], [ 15.340131, 10.259767 ], [ 15.339766, 10.259767 ], [ 15.339583, 10.259587 ] ], [ [ 15.334927, 10.260496 ], [ 15.334745, 10.260767 ], [ 15.335476, 10.260947 ], [ 15.335202, 10.261219 ], [ 15.334928, 10.261219 ], [ 15.334928, 10.2614 ], [ 15.334746, 10.261491 ], [ 15.334654, 10.261039 ], [ 15.334472, 10.261129 ], [ 15.334562, 10.260767 ], [ 15.334288, 10.260677 ], [ 15.334197, 10.260406 ], [ 15.333923, 10.260678 ], [ 15.333923, 10.260406 ], [ 15.334288, 10.260225 ], [ 15.334196, 10.259773 ], [ 15.334014, 10.259864 ], [ 15.334014, 10.260135 ], [ 15.33374, 10.260407 ], [ 15.333741, 10.260949 ], [ 15.333924, 10.26113 ], [ 15.33365, 10.26104 ], [ 15.333467, 10.260678 ], [ 15.333284, 10.260769 ], [ 15.333284, 10.26095 ], [ 15.333467, 10.26104 ], [ 15.333376, 10.261221 ], [ 15.33301, 10.26095 ], [ 15.333011, 10.261493 ], [ 15.333285, 10.261673 ], [ 15.333285, 10.261944 ], [ 15.33292, 10.262216 ], [ 15.332738, 10.26294 ], [ 15.332556, 10.26285 ], [ 15.332372, 10.262217 ], [ 15.332646, 10.261583 ], [ 15.332463, 10.261312 ], [ 15.33228, 10.261312 ], [ 15.332189, 10.261584 ], [ 15.332007, 10.261584 ], [ 15.331733, 10.261856 ], [ 15.331916, 10.262036 ], [ 15.331826, 10.263122 ], [ 15.332191, 10.263121 ], [ 15.332191, 10.263302 ], [ 15.332739, 10.263482 ], [ 15.332739, 10.263302 ], [ 15.332556, 10.263211 ], [ 15.334382, 10.262757 ], [ 15.334474, 10.263029 ], [ 15.334291, 10.263029 ], [ 15.334291, 10.2633 ], [ 15.334474, 10.263119 ], [ 15.334656, 10.263119 ], [ 15.334748, 10.2633 ], [ 15.335296, 10.263209 ], [ 15.335296, 10.263389 ], [ 15.335661, 10.26357 ], [ 15.335752, 10.263298 ], [ 15.335478, 10.263027 ], [ 15.335295, 10.263118 ], [ 15.335112, 10.262757 ], [ 15.33493, 10.262757 ], [ 15.334929, 10.262305 ], [ 15.334473, 10.262486 ], [ 15.334655, 10.262033 ], [ 15.335203, 10.262033 ], [ 15.335386, 10.261942 ], [ 15.335385, 10.261761 ], [ 15.335659, 10.261761 ], [ 15.335568, 10.261942 ], [ 15.335842, 10.261942 ], [ 15.33575, 10.261309 ], [ 15.335476, 10.261309 ], [ 15.335567, 10.261038 ], [ 15.33575, 10.261038 ], [ 15.335841, 10.260857 ], [ 15.335841, 10.260585 ], [ 15.335384, 10.260495 ], [ 15.335201, 10.259862 ], [ 15.33511, 10.260496 ], [ 15.334927, 10.260496 ] ], [ [ 15.33712, 10.26176 ], [ 15.336846, 10.261489 ], [ 15.336389, 10.261489 ], [ 15.336298, 10.261037 ], [ 15.336115, 10.261399 ], [ 15.336207, 10.261941 ], [ 15.336025, 10.262123 ], [ 15.335203, 10.262214 ], [ 15.335112, 10.262485 ], [ 15.335386, 10.262666 ], [ 15.336208, 10.262665 ], [ 15.336481, 10.262122 ], [ 15.337577, 10.26203 ], [ 15.337668, 10.261849 ], [ 15.33712, 10.26176 ] ], [ [ 15.338217, 10.262482 ], [ 15.337943, 10.262301 ], [ 15.337486, 10.262302 ], [ 15.337395, 10.262573 ], [ 15.337943, 10.262754 ], [ 15.338126, 10.262573 ], [ 15.338491, 10.262572 ], [ 15.338582, 10.262391 ], [ 15.338399, 10.26221 ], [ 15.338217, 10.262482 ] ], [ [ 15.330913, 10.263575 ], [ 15.331187, 10.263665 ], [ 15.331187, 10.263394 ], [ 15.331461, 10.263393 ], [ 15.331369, 10.263122 ], [ 15.330547, 10.263213 ], [ 15.33073, 10.263756 ], [ 15.330913, 10.263575 ] ], [ [ 15.339131, 10.263566 ], [ 15.338583, 10.263115 ], [ 15.338309, 10.263115 ], [ 15.338127, 10.263748 ], [ 15.33831, 10.263929 ], [ 15.339131, 10.263566 ] ], [ [ 15.333652, 10.26321 ], [ 15.333561, 10.263572 ], [ 15.333196, 10.263844 ], [ 15.33347, 10.263934 ], [ 15.334018, 10.263662 ], [ 15.334108, 10.26321 ], [ 15.333652, 10.26321 ] ], [ [ 15.337488, 10.264472 ], [ 15.337671, 10.264382 ], [ 15.337945, 10.264562 ], [ 15.33831, 10.264381 ], [ 15.338036, 10.264201 ], [ 15.338036, 10.263929 ], [ 15.337853, 10.263749 ], [ 15.337396, 10.263749 ], [ 15.337305, 10.264201 ], [ 15.337488, 10.264292 ], [ 15.337488, 10.264472 ] ], [ [ 15.32726, 10.263307 ], [ 15.326712, 10.263308 ], [ 15.326165, 10.26367 ], [ 15.326074, 10.264032 ], [ 15.325617, 10.264032 ], [ 15.325891, 10.264303 ], [ 15.3258, 10.264575 ], [ 15.325983, 10.264755 ], [ 15.326348, 10.264665 ], [ 15.326349, 10.265026 ], [ 15.326988, 10.264935 ], [ 15.326896, 10.264483 ], [ 15.32717, 10.264393 ], [ 15.32717, 10.264212 ], [ 15.327443, 10.26403 ], [ 15.32726, 10.263307 ] ], [ [ 15.325893, 10.265931 ], [ 15.32571, 10.265931 ], [ 15.325619, 10.266203 ], [ 15.325893, 10.266293 ], [ 15.326258, 10.265931 ], [ 15.326349, 10.265388 ], [ 15.325892, 10.265208 ], [ 15.325893, 10.265931 ] ], [ [ 15.324798, 10.266565 ], [ 15.32425, 10.266385 ], [ 15.324159, 10.266747 ], [ 15.324342, 10.266928 ], [ 15.324707, 10.266927 ], [ 15.324798, 10.266746 ], [ 15.325163, 10.266746 ], [ 15.325163, 10.266565 ], [ 15.325346, 10.266474 ], [ 15.325345, 10.266294 ], [ 15.324798, 10.266565 ] ], [ [ 15.362577, 10.244368 ], [ 15.363216, 10.244367 ], [ 15.363398, 10.244005 ], [ 15.362759, 10.243916 ], [ 15.362485, 10.244187 ], [ 15.362029, 10.244278 ], [ 15.361847, 10.244821 ], [ 15.362577, 10.244368 ] ], [ [ 15.360207, 10.248259 ], [ 15.359934, 10.248531 ], [ 15.359751, 10.248531 ], [ 15.359569, 10.249165 ], [ 15.359843, 10.249074 ], [ 15.360025, 10.248712 ], [ 15.360299, 10.248531 ], [ 15.360207, 10.248259 ] ], [ [ 15.361487, 10.249705 ], [ 15.361761, 10.249433 ], [ 15.361669, 10.249072 ], [ 15.361395, 10.249072 ], [ 15.360939, 10.249706 ], [ 15.360665, 10.249796 ], [ 15.360574, 10.250068 ], [ 15.361031, 10.250067 ], [ 15.361213, 10.249615 ], [ 15.361396, 10.249524 ], [ 15.361487, 10.249705 ] ], [ [ 15.345978, 10.253278 ], [ 15.3457, 10.253279 ], [ 15.3457, 10.253555 ], [ 15.346257, 10.253554 ], [ 15.346257, 10.253002 ], [ 15.345978, 10.253002 ], [ 15.345978, 10.253278 ] ], [ [ 15.351083, 10.254058 ], [ 15.351084, 10.255052 ], [ 15.351266, 10.255052 ], [ 15.351358, 10.254871 ], [ 15.351357, 10.254329 ], [ 15.351539, 10.254147 ], [ 15.351356, 10.253605 ], [ 15.351356, 10.253786 ], [ 15.351083, 10.254058 ] ], [ [ 15.352819, 10.255412 ], [ 15.353276, 10.255502 ], [ 15.35291, 10.25505 ], [ 15.35291, 10.254779 ], [ 15.352545, 10.255141 ], [ 15.352545, 10.255503 ], [ 15.352272, 10.256046 ], [ 15.352819, 10.255412 ] ], [ [ 15.345788, 10.25551 ], [ 15.345423, 10.255691 ], [ 15.345423, 10.255963 ], [ 15.345606, 10.256053 ], [ 15.345697, 10.255872 ], [ 15.346062, 10.255781 ], [ 15.346336, 10.254967 ], [ 15.346062, 10.254967 ], [ 15.345879, 10.255148 ], [ 15.345788, 10.25551 ] ], [ [ 15.342136, 10.255966 ], [ 15.342684, 10.256056 ], [ 15.342775, 10.255604 ], [ 15.342044, 10.255514 ], [ 15.342136, 10.255966 ] ], [ [ 15.348528, 10.255598 ], [ 15.348528, 10.255779 ], [ 15.348345, 10.255869 ], [ 15.348255, 10.256322 ], [ 15.348437, 10.256321 ], [ 15.348711, 10.25605 ], [ 15.348893, 10.255688 ], [ 15.348801, 10.255507 ], [ 15.348528, 10.255598 ] ], [ [ 15.354464, 10.256496 ], [ 15.354738, 10.256405 ], [ 15.354736, 10.255139 ], [ 15.354462, 10.25523 ], [ 15.35428, 10.255592 ], [ 15.354281, 10.256134 ], [ 15.354098, 10.256134 ], [ 15.353734, 10.257039 ], [ 15.354282, 10.256858 ], [ 15.354464, 10.256496 ] ], [ [ 15.343751, 10.255765 ], [ 15.343473, 10.255766 ], [ 15.343473, 10.256318 ], [ 15.343194, 10.256318 ], [ 15.343195, 10.256594 ], [ 15.342916, 10.256594 ], [ 15.342917, 10.257423 ], [ 15.342638, 10.257423 ], [ 15.342639, 10.257975 ], [ 15.342917, 10.257975 ], [ 15.342917, 10.257699 ], [ 15.343196, 10.257698 ], [ 15.343195, 10.257146 ], [ 15.343753, 10.257146 ], [ 15.343752, 10.25687 ], [ 15.344031, 10.256869 ], [ 15.344031, 10.256593 ], [ 15.34431, 10.256593 ], [ 15.344309, 10.256317 ], [ 15.344588, 10.256317 ], [ 15.344587, 10.255764 ], [ 15.344866, 10.255764 ], [ 15.344866, 10.255212 ], [ 15.345144, 10.255212 ], [ 15.345144, 10.254936 ], [ 15.344587, 10.254936 ], [ 15.344587, 10.255212 ], [ 15.344029, 10.255213 ], [ 15.34403, 10.255489 ], [ 15.343751, 10.255489 ], [ 15.343751, 10.255765 ] ], [ [ 15.350173, 10.256862 ], [ 15.350172, 10.256681 ], [ 15.350994, 10.256499 ], [ 15.351268, 10.256228 ], [ 15.351267, 10.256047 ], [ 15.351632, 10.255775 ], [ 15.351906, 10.255865 ], [ 15.352089, 10.255684 ], [ 15.35218, 10.255142 ], [ 15.351906, 10.255232 ], [ 15.351815, 10.255594 ], [ 15.35145, 10.255595 ], [ 15.35145, 10.255775 ], [ 15.351085, 10.256138 ], [ 15.350811, 10.256138 ], [ 15.350355, 10.256591 ], [ 15.34999, 10.256591 ], [ 15.349625, 10.256953 ], [ 15.348986, 10.257225 ], [ 15.348348, 10.257859 ], [ 15.348257, 10.258221 ], [ 15.348804, 10.258039 ], [ 15.34999, 10.256862 ], [ 15.350173, 10.256862 ] ], [ [ 15.348073, 10.257769 ], [ 15.348164, 10.256774 ], [ 15.347981, 10.256864 ], [ 15.347981, 10.257136 ], [ 15.347708, 10.257407 ], [ 15.347708, 10.25786 ], [ 15.348073, 10.257769 ] ], [ [ 15.344057, 10.258587 ], [ 15.344421, 10.257863 ], [ 15.344968, 10.25741 ], [ 15.344877, 10.25723 ], [ 15.344421, 10.257411 ], [ 15.344147, 10.257773 ], [ 15.343599, 10.257683 ], [ 15.343325, 10.257864 ], [ 15.343235, 10.258769 ], [ 15.343418, 10.258769 ], [ 15.343509, 10.258588 ], [ 15.343783, 10.258768 ], [ 15.343874, 10.258587 ], [ 15.344057, 10.258587 ] ], [ [ 15.344244, 10.263018 ], [ 15.344244, 10.26329 ], [ 15.344609, 10.263108 ], [ 15.344609, 10.262927 ], [ 15.344883, 10.262837 ], [ 15.345065, 10.262475 ], [ 15.345339, 10.262294 ], [ 15.34543, 10.261841 ], [ 15.345704, 10.261751 ], [ 15.345612, 10.261389 ], [ 15.345338, 10.26157 ], [ 15.345247, 10.261842 ], [ 15.3447, 10.262294 ], [ 15.344609, 10.262656 ], [ 15.344244, 10.263018 ] ], [ [ 15.344793, 10.263922 ], [ 15.344885, 10.264374 ], [ 15.345159, 10.264374 ], [ 15.34525, 10.264555 ], [ 15.345616, 10.264645 ], [ 15.345889, 10.264373 ], [ 15.345889, 10.26383 ], [ 15.345614, 10.26365 ], [ 15.345614, 10.263469 ], [ 15.345797, 10.263288 ], [ 15.345979, 10.262564 ], [ 15.345796, 10.262474 ], [ 15.345705, 10.262745 ], [ 15.34534, 10.262836 ], [ 15.345249, 10.263108 ], [ 15.344884, 10.263289 ], [ 15.34461, 10.263741 ], [ 15.344793, 10.263922 ] ] ], [ [ [ 15.336214, 10.267847 ], [ 15.336305, 10.267729 ], [ 15.33667, 10.267729 ], [ 15.336795, 10.267458 ], [ 15.336796, 10.267847 ], [ 15.336214, 10.267847 ] ] ], [ [ [ 15.338131, 10.267845 ], [ 15.338131, 10.267818 ], [ 15.33819, 10.267818 ], [ 15.338131, 10.267845 ] ] ] ] } },
{ "type": "Feature", "properties": { "classe_profondeur": "Below 0.50", "ordre_classe": null, "surface_ha": 0.97818442027252173 }, "geometry": { "type": "Polygon", "coordinates": [ [ [ 15.338465, 10.264833 ], [ 15.338465, 10.265157 ], [ 15.338187, 10.265157 ], [ 15.338187, 10.265433 ], [ 15.337908, 10.265434 ], [ 15.337909, 10.26571 ], [ 15.33763, 10.26571 ], [ 15.33763, 10.266262 ], [ 15.337352, 10.266263 ], [ 15.337352, 10.266815 ], [ 15.337073, 10.266815 ], [ 15.337074, 10.267367 ], [ 15.336852, 10.267367 ], [ 15.336943, 10.266824 ], [ 15.33676, 10.266734 ], [ 15.336761, 10.267005 ], [ 15.336578, 10.267096 ], [ 15.336577, 10.266553 ], [ 15.336943, 10.266553 ], [ 15.337034, 10.266372 ], [ 15.337216, 10.266372 ], [ 15.33749, 10.26601 ], [ 15.33749, 10.265558 ], [ 15.337763, 10.265467 ], [ 15.337854, 10.265105 ], [ 15.338465, 10.264833 ] ] ] } },
{ "type": "Feature", "properties": { "classe_profondeur": "Below 0.50", "ordre_classe": null, "surface_ha": 0.00011664033030102887 }, "geometry": { "type": "Polygon", "coordinates": [ [ [ 15.350988, 10.24637 ], [ 15.350988, 10.246371 ], [ 15.350892, 10.246371 ], [ 15.350988, 10.24637 ] ] ] } },
{ "type": "Feature", "properties": { "classe_profondeur": "Below 0.50", "ordre_classe": null, "surface_ha": 1.882689202578248 }, "geometry": { "type": "Polygon", "coordinates": [ [ [ 15.350709, 10.246461 ], [ 15.35071, 10.246648 ], [ 15.350431, 10.246648 ], [ 15.350431, 10.2472 ], [ 15.349874, 10.247201 ], [ 15.349875, 10.247753 ], [ 15.349317, 10.247753 ], [ 15.349317, 10.24803 ], [ 15.349039, 10.24803 ], [ 15.349039, 10.248306 ], [ 15.34876, 10.248306 ], [ 15.348761, 10.248582 ], [ 15.348482, 10.248583 ], [ 15.348482, 10.248859 ], [ 15.348064, 10.248859 ], [ 15.348155, 10.248725 ], [ 15.347881, 10.248725 ], [ 15.347972, 10.248454 ], [ 15.348611, 10.248363 ], [ 15.348246, 10.248273 ], [ 15.348245, 10.248001 ], [ 15.348793, 10.248001 ], [ 15.348793, 10.248181 ], [ 15.348976, 10.248181 ], [ 15.348976, 10.247639 ], [ 15.349249, 10.247638 ], [ 15.349158, 10.247367 ], [ 15.349523, 10.247276 ], [ 15.349614, 10.246824 ], [ 15.349979, 10.247004 ], [ 15.350253, 10.246914 ], [ 15.349979, 10.246371 ], [ 15.350344, 10.246281 ], [ 15.350435, 10.245919 ], [ 15.350709, 10.246099 ], [ 15.350526, 10.246461 ], [ 15.350709, 10.246461 ] ] ] } },
{ "type": "Feature", "properties": { "classe_profondeur": "Below 0.50", "ordre_classe": null, "surface_ha": 32.765056349978067 }, "geometry": { "type": "Polygon", "coordinates": [ [ [ 15.322138, 10.254449 ], [ 15.321537, 10.254088 ], [ 15.321536, 10.253003 ], [ 15.321862, 10.252912 ], [ 15.322044, 10.25246 ], [ 15.321536, 10.25246 ], [ 15.321534, 10.250742 ], [ 15.321677, 10.250832 ], [ 15.321534, 10.250561 ], [ 15.321584, 10.249204 ], [ 15.321858, 10.249204 ], [ 15.321858, 10.249385 ], [ 15.321676, 10.249385 ], [ 15.321767, 10.249656 ], [ 15.322133, 10.249656 ], [ 15.322224, 10.250018 ], [ 15.322498, 10.250017 ], [ 15.322681, 10.250198 ], [ 15.323229, 10.250288 ], [ 15.32332, 10.249926 ], [ 15.323776, 10.249835 ], [ 15.323686, 10.250378 ], [ 15.323868, 10.250559 ], [ 15.324325, 10.250468 ], [ 15.324508, 10.250648 ], [ 15.324964, 10.250648 ], [ 15.324964, 10.250286 ], [ 15.325146, 10.250105 ], [ 15.325512, 10.250286 ], [ 15.325786, 10.250195 ], [ 15.326242, 10.250466 ], [ 15.326425, 10.250285 ], [ 15.326881, 10.250284 ], [ 15.327064, 10.250375 ], [ 15.327064, 10.250555 ], [ 15.327247, 10.250555 ], [ 15.327247, 10.251007 ], [ 15.327065, 10.251279 ], [ 15.327157, 10.25155 ], [ 15.327522, 10.25164 ], [ 15.327613, 10.251369 ], [ 15.327796, 10.251369 ], [ 15.327796, 10.25164 ], [ 15.327248, 10.251912 ], [ 15.32734, 10.252093 ], [ 15.327796, 10.252002 ], [ 15.327979, 10.251821 ], [ 15.32807, 10.251368 ], [ 15.328252, 10.251368 ], [ 15.328526, 10.251639 ], [ 15.329257, 10.251639 ], [ 15.329166, 10.252453 ], [ 15.329532, 10.252362 ], [ 15.329714, 10.252542 ], [ 15.329715, 10.252904 ], [ 15.329258, 10.252905 ], [ 15.328345, 10.252363 ], [ 15.328162, 10.252363 ], [ 15.328071, 10.252635 ], [ 15.32734, 10.252545 ], [ 15.327249, 10.252816 ], [ 15.326884, 10.252455 ], [ 15.3267, 10.251732 ], [ 15.326335, 10.251551 ], [ 15.326153, 10.251823 ], [ 15.326062, 10.252456 ], [ 15.32661, 10.252907 ], [ 15.32661, 10.253088 ], [ 15.326336, 10.253088 ], [ 15.326245, 10.253269 ], [ 15.326885, 10.253359 ], [ 15.326885, 10.253811 ], [ 15.326611, 10.253902 ], [ 15.32652, 10.253721 ], [ 15.325972, 10.253812 ], [ 15.32588, 10.253541 ], [ 15.325789, 10.253722 ], [ 15.325515, 10.253722 ], [ 15.325332, 10.253361 ], [ 15.324967, 10.253361 ], [ 15.324967, 10.252999 ], [ 15.324693, 10.252909 ], [ 15.324601, 10.252638 ], [ 15.324418, 10.252638 ], [ 15.324327, 10.252457 ], [ 15.324144, 10.252458 ], [ 15.323687, 10.251915 ], [ 15.323688, 10.252277 ], [ 15.322774, 10.252278 ], [ 15.322866, 10.252459 ], [ 15.323414, 10.252458 ], [ 15.323779, 10.25282 ], [ 15.324784, 10.253 ], [ 15.324693, 10.253361 ], [ 15.325059, 10.253542 ], [ 15.324968, 10.253904 ], [ 15.325151, 10.254175 ], [ 15.325151, 10.254718 ], [ 15.325334, 10.255079 ], [ 15.325517, 10.255079 ], [ 15.325426, 10.255441 ], [ 15.325791, 10.255531 ], [ 15.325791, 10.255893 ], [ 15.325974, 10.255892 ], [ 15.326065, 10.255531 ], [ 15.326704, 10.25553 ], [ 15.327252, 10.25571 ], [ 15.327344, 10.255982 ], [ 15.32707, 10.256163 ], [ 15.326431, 10.255892 ], [ 15.326248, 10.255983 ], [ 15.32634, 10.256706 ], [ 15.326614, 10.256887 ], [ 15.326705, 10.256706 ], [ 15.326888, 10.256706 ], [ 15.326888, 10.256886 ], [ 15.326706, 10.256887 ], [ 15.326432, 10.257339 ], [ 15.326067, 10.257249 ], [ 15.326158, 10.256797 ], [ 15.325975, 10.256616 ], [ 15.325518, 10.256616 ], [ 15.325518, 10.256255 ], [ 15.325153, 10.256255 ], [ 15.324787, 10.255984 ], [ 15.324604, 10.255623 ], [ 15.324695, 10.255351 ], [ 15.324512, 10.25517 ], [ 15.324603, 10.254899 ], [ 15.324421, 10.254718 ], [ 15.324147, 10.254719 ], [ 15.324147, 10.25499 ], [ 15.323964, 10.255171 ], [ 15.32369, 10.255081 ], [ 15.3236, 10.255533 ], [ 15.32287, 10.256167 ], [ 15.322687, 10.256529 ], [ 15.322322, 10.256529 ], [ 15.322323, 10.256801 ], [ 15.321683, 10.256801 ], [ 15.321775, 10.256982 ], [ 15.32154, 10.257073 ], [ 15.321539, 10.255445 ], [ 15.321773, 10.255444 ], [ 15.321865, 10.255716 ], [ 15.322321, 10.255625 ], [ 15.322321, 10.255444 ], [ 15.322138, 10.255354 ], [ 15.322138, 10.254992 ], [ 15.322321, 10.254811 ], [ 15.322138, 10.254449 ] ], [ [ 15.325605, 10.252185 ], [ 15.325605, 10.251733 ], [ 15.325239, 10.251371 ], [ 15.324874, 10.251372 ], [ 15.324874, 10.251824 ], [ 15.325605, 10.252185 ] ], [ [ 15.325606, 10.252908 ], [ 15.325515, 10.25318 ], [ 15.325697, 10.25318 ], [ 15.326062, 10.252908 ], [ 15.326062, 10.252727 ], [ 15.325697, 10.252637 ], [ 15.325422, 10.252275 ], [ 15.325057, 10.252276 ], [ 15.324875, 10.252366 ], [ 15.324875, 10.252638 ], [ 15.325058, 10.252818 ], [ 15.324967, 10.252909 ], [ 15.325606, 10.252908 ] ], [ [ 15.323507, 10.254267 ], [ 15.32369, 10.254357 ], [ 15.323507, 10.254719 ], [ 15.323781, 10.254719 ], [ 15.324055, 10.254447 ], [ 15.324694, 10.254356 ], [ 15.324694, 10.254175 ], [ 15.324146, 10.254266 ], [ 15.323963, 10.253905 ], [ 15.323781, 10.253905 ], [ 15.323689, 10.253724 ], [ 15.323324, 10.253905 ], [ 15.323507, 10.254267 ] ] ] } },
{ "type": "Feature", "properties": { "classe_profondeur": "Below 0.50", "ordre_classe": null, "surface_ha": 0.98991324307834727 }, "geometry": { "type": "Polygon", "coordinates": [ [ [ 15.33711, 10.252173 ], [ 15.33638, 10.252174 ], [ 15.336197, 10.252264 ], [ 15.336197, 10.252445 ], [ 15.335832, 10.252446 ], [ 15.335831, 10.251813 ], [ 15.336105, 10.251451 ], [ 15.33647, 10.251541 ], [ 15.336835, 10.251359 ], [ 15.336836, 10.251631 ], [ 15.336379, 10.251812 ], [ 15.336379, 10.251993 ], [ 15.337019, 10.251902 ], [ 15.337018, 10.251721 ], [ 15.337201, 10.251721 ], [ 15.33711, 10.252173 ] ] ] } },
{ "type": "Feature", "properties": { "classe_profondeur": "Below 0.50", "ordre_classe": null, "surface_ha": 0.45995924700135365 }, "geometry": { "type": "Polygon", "coordinates": [ [ [ 15.328255, 10.253901 ], [ 15.32789, 10.253991 ], [ 15.327889, 10.25372 ], [ 15.327615, 10.253359 ], [ 15.327432, 10.253359 ], [ 15.327432, 10.253087 ], [ 15.327798, 10.253358 ], [ 15.32798, 10.253358 ], [ 15.328071, 10.253177 ], [ 15.328437, 10.253177 ], [ 15.328437, 10.253448 ], [ 15.328072, 10.253358 ], [ 15.328255, 10.253901 ] ] ] } },
{ "type": "Feature", "properties": { "classe_profondeur": "Below 0.50", "ordre_classe": null, "surface_ha": 10.449076477773488 }, "geometry": { "type": "Polygon", "coordinates": [ [ [ 15.333004, 10.255252 ], [ 15.332731, 10.255343 ], [ 15.332822, 10.255072 ], [ 15.332273, 10.254801 ], [ 15.332455, 10.254258 ], [ 15.332912, 10.254348 ], [ 15.332912, 10.253805 ], [ 15.332729, 10.253715 ], [ 15.332546, 10.253806 ], [ 15.332363, 10.253625 ], [ 15.331816, 10.253626 ], [ 15.331815, 10.253445 ], [ 15.331359, 10.253355 ], [ 15.331359, 10.253897 ], [ 15.330903, 10.253988 ], [ 15.330994, 10.253717 ], [ 15.330902, 10.253536 ], [ 15.33072, 10.253536 ], [ 15.330902, 10.253446 ], [ 15.330902, 10.253265 ], [ 15.330628, 10.253265 ], [ 15.33081, 10.252541 ], [ 15.330353, 10.252451 ], [ 15.330171, 10.252632 ], [ 15.330079, 10.251909 ], [ 15.330444, 10.251999 ], [ 15.330536, 10.25227 ], [ 15.330718, 10.252089 ], [ 15.331084, 10.252179 ], [ 15.330993, 10.252632 ], [ 15.331175, 10.252451 ], [ 15.331541, 10.252631 ], [ 15.331632, 10.252179 ], [ 15.331905, 10.252178 ], [ 15.332088, 10.252359 ], [ 15.332271, 10.252269 ], [ 15.332363, 10.252811 ], [ 15.332637, 10.252811 ], [ 15.332362, 10.25254 ], [ 15.332362, 10.252359 ], [ 15.332727, 10.252359 ], [ 15.332728, 10.252539 ], [ 15.33291, 10.25272 ], [ 15.333184, 10.25272 ], [ 15.333276, 10.252991 ], [ 15.333641, 10.252991 ], [ 15.333733, 10.253352 ], [ 15.334007, 10.253352 ], [ 15.334098, 10.253171 ], [ 15.334006, 10.252719 ], [ 15.334554, 10.252718 ], [ 15.334554, 10.252538 ], [ 15.334919, 10.252175 ], [ 15.335193, 10.252537 ], [ 15.335467, 10.252537 ], [ 15.335558, 10.252717 ], [ 15.335102, 10.252718 ], [ 15.335102, 10.252989 ], [ 15.334829, 10.253442 ], [ 15.335194, 10.25326 ], [ 15.335193, 10.252989 ], [ 15.335376, 10.25326 ], [ 15.335559, 10.25326 ], [ 15.335833, 10.252898 ], [ 15.336106, 10.252898 ], [ 15.336016, 10.25326 ], [ 15.33629, 10.25335 ], [ 15.336381, 10.253621 ], [ 15.336838, 10.25353 ], [ 15.337112, 10.253801 ], [ 15.337021, 10.254072 ], [ 15.336473, 10.253892 ], [ 15.335103, 10.253894 ], [ 15.335103, 10.254255 ], [ 15.33483, 10.254436 ], [ 15.334647, 10.254437 ], [ 15.334647, 10.254256 ], [ 15.334464, 10.254166 ], [ 15.334373, 10.254437 ], [ 15.334647, 10.254527 ], [ 15.334556, 10.254708 ], [ 15.334373, 10.254527 ], [ 15.333917, 10.254528 ], [ 15.333552, 10.2548 ], [ 15.333095, 10.25471 ], [ 15.333004, 10.255252 ] ] ] } },
{ "type": "Feature", "properties": { "classe_profondeur": "Below 0.50", "ordre_classe": null, "surface_ha": 0.75993393644075846 }, "geometry": { "type": "Polygon", "coordinates": [ [ [ 15.334743, 10.258597 ], [ 15.33456, 10.258597 ], [ 15.33456, 10.258868 ], [ 15.334378, 10.258868 ], [ 15.334377, 10.258507 ], [ 15.33456, 10.258416 ], [ 15.334468, 10.257964 ], [ 15.334833, 10.257783 ], [ 15.334833, 10.257511 ], [ 15.33465, 10.257331 ], [ 15.335015, 10.25724 ], [ 15.335015, 10.256878 ], [ 15.335289, 10.256878 ], [ 15.335107, 10.257692 ], [ 15.33529, 10.257963 ], [ 15.335016, 10.258054 ], [ 15.335016, 10.257873 ], [ 15.334833, 10.257873 ], [ 15.334743, 10.258597 ] ] ] } },
{ "type": "Feature", "properties": { "classe_profondeur": "Below 0.50", "ordre_classe": null, "surface_ha": 0.30997239837236701 }, "geometry": { "type": "Polygon", "coordinates": [ [ [ 15.331364, 10.258419 ], [ 15.33109, 10.258058 ], [ 15.331363, 10.257786 ], [ 15.331363, 10.257605 ], [ 15.331728, 10.257424 ], [ 15.331728, 10.257605 ], [ 15.331546, 10.257605 ], [ 15.331364, 10.258419 ] ] ] } },
{ "type": "Feature", "properties": { "classe_profondeur": "Below 0.50", "ordre_classe": null, "surface_ha": 0.39996505378377623 }, "geometry": { "type": "Polygon", "coordinates": [ [ [ 15.324242, 10.258879 ], [ 15.32415, 10.258427 ], [ 15.324606, 10.257883 ], [ 15.324789, 10.258336 ], [ 15.324516, 10.258426 ], [ 15.324699, 10.258697 ], [ 15.324242, 10.258879 ] ] ] } },
{ "type": "Feature", "properties": { "classe_profondeur": "Below 0.50", "ordre_classe": null, "surface_ha": 0.80992907340070242 }, "geometry": { "type": "Polygon", "coordinates": [ [ [ 15.322874, 10.260327 ], [ 15.322874, 10.260146 ], [ 15.322691, 10.260056 ], [ 15.322691, 10.259694 ], [ 15.322052, 10.259695 ], [ 15.322051, 10.259152 ], [ 15.322416, 10.259333 ], [ 15.322873, 10.259332 ], [ 15.323147, 10.259694 ], [ 15.323056, 10.260056 ], [ 15.32333, 10.260146 ], [ 15.323331, 10.260327 ], [ 15.322874, 10.260327 ] ] ] } },
{ "type": "Feature", "properties": { "classe_profondeur": "Below 0.50", "ordre_classe": null, "surface_ha": 0.63994354067873205 }, "geometry": { "type": "Polygon", "coordinates": [ [ [ 15.335572, 10.265469 ], [ 15.335298, 10.265198 ], [ 15.335571, 10.264836 ], [ 15.335936, 10.264836 ], [ 15.336119, 10.264564 ], [ 15.336576, 10.264745 ], [ 15.336302, 10.264926 ], [ 15.33612, 10.265378 ], [ 15.335846, 10.265198 ], [ 15.335572, 10.265469 ] ] ] } },
{ "type": "Feature", "properties": { "classe_profondeur": "Below 0.50", "ordre_classe": null, "surface_ha": 0.58994712614873424 }, "geometry": { "type": "Polygon", "coordinates": [ [ [ 15.366685, 10.244002 ], [ 15.366686, 10.244273 ], [ 15.366503, 10.244454 ], [ 15.366229, 10.244454 ], [ 15.365226, 10.245089 ], [ 15.365225, 10.244908 ], [ 15.365408, 10.244907 ], [ 15.365408, 10.244727 ], [ 15.365864, 10.244274 ], [ 15.366685, 10.244002 ] ] ] } },
{ "type": "Feature", "properties": { "classe_profondeur": "Below 0.50", "ordre_classe": null, "surface_ha": 0.2699761336479336 }, "geometry": { "type": "Polygon", "coordinates": [ [ [ 15.340579, 10.251536 ], [ 15.340214, 10.251718 ], [ 15.340214, 10.251537 ], [ 15.340031, 10.251537 ], [ 15.340031, 10.251175 ], [ 15.340488, 10.251175 ], [ 15.340579, 10.251536 ] ] ] } },
{ "type": "Feature", "properties": { "classe_profondeur": "Below 0.50", "ordre_classe": null, "surface_ha": 1.1398993940566666 }, "geometry": { "type": "Polygon", "coordinates": [ [ [ 15.338389, 10.252714 ], [ 15.338115, 10.252715 ], [ 15.337933, 10.252986 ], [ 15.33775, 10.252986 ], [ 15.337659, 10.253258 ], [ 15.337477, 10.253258 ], [ 15.337567, 10.252625 ], [ 15.337293, 10.252625 ], [ 15.337384, 10.251992 ], [ 15.338388, 10.251991 ], [ 15.338389, 10.252714 ] ] ] } },
{ "type": "Feature", "properties": { "classe_profondeur": "Below 0.50", "ordre_classe": null, "surface_ha": 0.76993141014073041 }, "geometry": { "type": "Polygon", "coordinates": [ [ [ 15.361955, 10.259834 ], [ 15.360951, 10.260016 ], [ 15.360951, 10.259654 ], [ 15.360585, 10.259473 ], [ 15.360585, 10.259202 ], [ 15.360767, 10.259202 ], [ 15.36095, 10.259473 ], [ 15.361133, 10.259292 ], [ 15.361498, 10.259292 ], [ 15.36159, 10.259563 ], [ 15.361955, 10.259472 ], [ 15.361955, 10.259834 ] ] ] } },
{ "type": "Feature", "properties": { "classe_profondeur": "Below 0.50", "ordre_classe": null, "surface_ha": 0.64994250501627104 }, "geometry": { "type": "Polygon", "coordinates": [ [ [ 15.363328, 10.262545 ], [ 15.363328, 10.262726 ], [ 15.363054, 10.262636 ], [ 15.363145, 10.262184 ], [ 15.363327, 10.262003 ], [ 15.363235, 10.261098 ], [ 15.363418, 10.261098 ], [ 15.363692, 10.261731 ], [ 15.363966, 10.261731 ], [ 15.363328, 10.262545 ] ] ] } },
{ "type": "Feature", "properties": { "classe_profondeur": "Below 0.50", "ordre_classe": null, "surface_ha": 0.31997168940268456 }, "geometry": { "type": "Polygon", "coordinates": [ [ [ 15.349358, 10.263465 ], [ 15.349359, 10.264008 ], [ 15.349176, 10.264189 ], [ 15.34872, 10.264189 ], [ 15.348811, 10.263827 ], [ 15.349176, 10.263917 ], [ 15.349084, 10.263465 ], [ 15.349358, 10.263465 ] ] ] } },
{ "type": "Feature", "properties": { "classe_profondeur": "Below 0.50", "ordre_classe": null, "surface_ha": 0.56994911806997839 }, "geometry": { "type": "Polygon", "coordinates": [ [ [ 15.34863, 10.265727 ], [ 15.348539, 10.265998 ], [ 15.347991, 10.266089 ], [ 15.347809, 10.266542 ], [ 15.347535, 10.266542 ], [ 15.347535, 10.26618 ], [ 15.3479, 10.265728 ], [ 15.348082, 10.265727 ], [ 15.348173, 10.265546 ], [ 15.348447, 10.265546 ], [ 15.348447, 10.265727 ], [ 15.34863, 10.265727 ] ] ] } },
{ "type": "Feature", "properties": { "classe_profondeur": "Below 0.50", "ordre_classe": null, "surface_ha": 1.4698712424334139 }, "geometry": { "type": "Polygon", "coordinates": [ [ [ 15.349819, 10.267263 ], [ 15.349819, 10.267082 ], [ 15.350275, 10.267082 ], [ 15.350458, 10.266901 ], [ 15.350457, 10.26672 ], [ 15.350092, 10.266358 ], [ 15.350183, 10.265906 ], [ 15.350456, 10.265815 ], [ 15.350091, 10.265544 ], [ 15.350273, 10.265363 ], [ 15.350547, 10.265363 ], [ 15.350639, 10.265544 ], [ 15.350913, 10.265543 ], [ 15.350913, 10.265815 ], [ 15.350639, 10.265905 ], [ 15.350639, 10.266086 ], [ 15.350914, 10.266267 ], [ 15.351279, 10.266176 ], [ 15.351279, 10.266357 ], [ 15.351644, 10.266537 ], [ 15.350731, 10.266719 ], [ 15.350549, 10.267172 ], [ 15.349819, 10.267263 ] ] ] } },
{ "type": "Feature", "properties": { "classe_profondeur": "Below 0.50", "ordre_classe": null, "surface_ha": 0.4999556120757479 }, "geometry": { "type": "Polygon", "coordinates": [ [ [ 15.349636, 10.266721 ], [ 15.349544, 10.26654 ], [ 15.34927, 10.26654 ], [ 15.349087, 10.266359 ], [ 15.348631, 10.26636 ], [ 15.348174, 10.266632 ], [ 15.348083, 10.266451 ], [ 15.348448, 10.266179 ], [ 15.348996, 10.266179 ], [ 15.349909, 10.266358 ], [ 15.349909, 10.266539 ], [ 15.349636, 10.266721 ] ] ] } },
{ "type": "Feature", "properties": { "classe_profondeur": "Below 0.50", "ordre_classe": null, "surface_ha": 0.18604743168745189 }, "geometry": { "type": "Polygon", "coordinates": [ [ [ 15.362969, 10.267819 ], [ 15.362786, 10.267819 ], [ 15.362785, 10.266977 ], [ 15.362602, 10.266616 ], [ 15.362785, 10.266616 ], [ 15.362876, 10.266796 ], [ 15.362969, 10.267819 ] ] ] } }
]
}
