{
"type": "FeatureCollection",
"name": "J09_routes_yagoua",
"xy_coordinate_resolution": 1e-06,
"features": [
{ "type": "Feature", "properties": { "highway": "track", "longueur_m": 2161.9, "inonde": true }, "geometry": { "type": "LineString", "coordinates": [ [ 15.321544, 10.260182 ], [ 15.32213, 10.260169 ], [ 15.322387, 10.260243 ], [ 15.323066, 10.260171 ], [ 15.323296, 10.260134 ], [ 15.323575, 10.259947 ], [ 15.324077, 10.259757 ], [ 15.324742, 10.259691 ], [ 15.325118, 10.259541 ], [ 15.325174, 10.259329 ], [ 15.325826, 10.258677 ], [ 15.326397, 10.258274 ], [ 15.328288, 10.257682 ], [ 15.328655, 10.257645 ], [ 15.329104, 10.257342 ], [ 15.328833, 10.256661 ], [ 15.328532, 10.256653 ], [ 15.328452, 10.256158 ], [ 15.328527, 10.255912 ], [ 15.328772, 10.255582 ], [ 15.32822, 10.254905 ], [ 15.326176, 10.253937 ], [ 15.325338, 10.253116 ], [ 15.324091, 10.252298 ], [ 15.322453, 10.251027 ], [ 15.322162, 10.251001 ], [ 15.321534, 10.25046 ] ] } },
{ "type": "Feature", "properties": { "highway": "track", "longueur_m": 88.8, "inonde": true }, "geometry": { "type": "LineString", "coordinates": [ [ 15.36367, 10.230756 ], [ 15.364468, 10.230858 ] ] } },
{ "type": "Feature", "properties": { "highway": "tertiary", "longueur_m": 3048.7, "inonde": true }, "geometry": { "type": "LineString", "coordinates": [ [ 15.367164, 10.227099 ], [ 15.364946, 10.230251 ], [ 15.363744, 10.231727 ], [ 15.363573, 10.232398 ], [ 15.3628, 10.233827 ], [ 15.361429, 10.234975 ], [ 15.360552, 10.23611 ], [ 15.359941, 10.2366 ], [ 15.359634, 10.237036 ], [ 15.358869, 10.237786 ], [ 15.3582, 10.238308 ], [ 15.356801, 10.239672 ], [ 15.356032, 10.240293 ], [ 15.355869, 10.24047 ], [ 15.355054, 10.241883 ], [ 15.353101, 10.244153 ], [ 15.351768, 10.245458 ], [ 15.350227, 10.246441 ], [ 15.349209, 10.247665 ] ] } },
{ "type": "Feature", "properties": { "highway": "track", "longueur_m": 355.1, "inonde": true }, "geometry": { "type": "LineString", "coordinates": [ [ 15.335317, 10.262799 ], [ 15.336879, 10.264253 ], [ 15.337872, 10.264702 ] ] } },
{ "type": "Feature", "properties": { "highway": "track", "longueur_m": 413.5, "inonde": true }, "geometry": { "type": "LineString", "coordinates": [ [ 15.334958, 10.266225 ], [ 15.334856, 10.265876 ], [ 15.33492, 10.265713 ], [ 15.334808, 10.265095 ], [ 15.334985, 10.264177 ], [ 15.33528, 10.263427 ], [ 15.335317, 10.262799 ], [ 15.33543, 10.262641 ] ] } },
{ "type": "Feature", "properties": { "highway": "track", "longueur_m": 647.6, "inonde": true }, "geometry": { "type": "LineString", "coordinates": [ [ 15.333461, 10.258872 ], [ 15.333756, 10.259094 ], [ 15.334276, 10.259299 ], [ 15.335972, 10.260223 ], [ 15.336906, 10.260834 ], [ 15.337608, 10.261427 ], [ 15.338209, 10.261712 ], [ 15.338446, 10.26194 ] ] } },
{ "type": "Feature", "properties": { "highway": "tertiary", "longueur_m": 767.5, "inonde": false }, "geometry": { "type": "LineString", "coordinates": [ [ 15.321531, 10.247643 ], [ 15.323921, 10.247921 ], [ 15.327473, 10.247858 ], [ 15.328503, 10.248027 ] ] } },
{ "type": "Feature", "properties": { "highway": "track", "longueur_m": 1130.4, "inonde": true }, "geometry": { "type": "LineString", "coordinates": [ [ 15.330387, 10.255678 ], [ 15.330945, 10.2558 ], [ 15.331975, 10.256317 ], [ 15.332404, 10.256222 ], [ 15.332855, 10.255958 ], [ 15.333027, 10.255747 ], [ 15.333166, 10.254058 ], [ 15.333123, 10.253393 ], [ 15.332855, 10.251746 ], [ 15.332597, 10.250795 ], [ 15.332437, 10.250447 ], [ 15.332059, 10.249752 ], [ 15.331567, 10.249254 ], [ 15.331401, 10.24889 ] ] } },
{ "type": "Feature", "properties": { "highway": "track", "longueur_m": 1594.6, "inonde": true }, "geometry": { "type": "LineString", "coordinates": [ [ 15.32822, 10.254905 ], [ 15.328724, 10.25495 ], [ 15.329797, 10.255245 ], [ 15.330387, 10.255678 ], [ 15.330688, 10.255984 ], [ 15.330913, 10.256364 ], [ 15.3319, 10.25722 ], [ 15.33219, 10.25779 ], [ 15.333461, 10.258872 ], [ 15.334094, 10.260191 ], [ 15.33447, 10.260598 ], [ 15.334824, 10.260846 ], [ 15.335473, 10.261664 ], [ 15.335784, 10.261754 ], [ 15.336969, 10.261617 ], [ 15.337747, 10.261733 ], [ 15.339099, 10.262134 ], [ 15.339399, 10.262444 ] ] } },
{ "type": "Feature", "properties": { "highway": "track", "longueur_m": 1277.8, "inonde": true }, "geometry": { "type": "LineString", "coordinates": [ [ 15.335985, 10.267662 ], [ 15.334958, 10.266225 ], [ 15.334271, 10.265697 ], [ 15.33403, 10.265153 ], [ 15.332919, 10.264129 ], [ 15.332533, 10.263464 ], [ 15.332517, 10.263274 ], [ 15.332592, 10.263121 ], [ 15.332469, 10.262762 ], [ 15.332404, 10.26224 ], [ 15.332517, 10.261691 ], [ 15.332394, 10.260857 ], [ 15.332458, 10.259352 ], [ 15.332152, 10.258502 ], [ 15.332067, 10.257549 ] ] } },
{ "type": "Feature", "properties": { "highway": "unclassified", "longueur_m": 3140.3, "inonde": false }, "geometry": { "type": "LineString", "coordinates": [ [ 15.331401, 10.24889 ], [ 15.330468, 10.245369 ], [ 15.330248, 10.244991 ], [ 15.330069, 10.244918 ], [ 15.330194, 10.244693 ], [ 15.330082, 10.243722 ], [ 15.329642, 10.24321 ], [ 15.329475, 10.242808 ], [ 15.329411, 10.241832 ], [ 15.329314, 10.241621 ], [ 15.329347, 10.240602 ], [ 15.329218, 10.240259 ], [ 15.329309, 10.239662 ], [ 15.32918, 10.238089 ], [ 15.329073, 10.237857 ], [ 15.328944, 10.237028 ], [ 15.328987, 10.23574 ], [ 15.328858, 10.235386 ], [ 15.328934, 10.235112 ], [ 15.32874, 10.233813 ], [ 15.328787, 10.233246 ], [ 15.328456, 10.231981 ], [ 15.328, 10.231332 ], [ 15.327743, 10.230112 ], [ 15.327056, 10.229521 ], [ 15.326831, 10.228877 ], [ 15.326364, 10.228328 ], [ 15.326047, 10.228112 ], [ 15.324454, 10.225894 ], [ 15.324122, 10.225715 ], [ 15.323338, 10.225863 ], [ 15.322421, 10.225805 ], [ 15.321772, 10.22516 ], [ 15.321508, 10.225054 ] ] } },
{ "type": "Feature", "properties": { "highway": "track", "longueur_m": 2378.9, "inonde": true }, "geometry": { "type": "LineString", "coordinates": [ [ 15.347278, 10.249594 ], [ 15.346903, 10.250213 ], [ 15.345531, 10.251897 ], [ 15.344112, 10.254028 ], [ 15.342358, 10.256903 ], [ 15.340933, 10.25944 ], [ 15.339653, 10.262069 ], [ 15.335856, 10.267848 ] ] } },
{ "type": "Feature", "properties": { "highway": "tertiary", "longueur_m": 305.5, "inonde": true }, "geometry": { "type": "LineString", "coordinates": [ [ 15.349209, 10.247665 ], [ 15.347942, 10.249195 ], [ 15.347278, 10.249594 ] ] } },
{ "type": "Feature", "properties": { "highway": "tertiary", "longueur_m": 2170.1, "inonde": true }, "geometry": { "type": "LineString", "coordinates": [ [ 15.328503, 10.248027 ], [ 15.329796, 10.248076 ], [ 15.331411, 10.247899 ], [ 15.331904, 10.247725 ], [ 15.33225, 10.247762 ], [ 15.333025, 10.247625 ], [ 15.334431, 10.247862 ], [ 15.334769, 10.248089 ], [ 15.334978, 10.248337 ], [ 15.336115, 10.24887 ], [ 15.337076, 10.24847 ], [ 15.337368, 10.248446 ], [ 15.338418, 10.248672 ], [ 15.339789, 10.249239 ], [ 15.341845, 10.248846 ], [ 15.342336, 10.248824 ], [ 15.34301, 10.249068 ], [ 15.343634, 10.249034 ], [ 15.343828, 10.24909 ], [ 15.344563, 10.24968 ], [ 15.344963, 10.249832 ], [ 15.345218, 10.249833 ], [ 15.346719, 10.249494 ], [ 15.347278, 10.249594 ] ] } },
{ "type": "Feature", "properties": { "highway": "track", "longueur_m": 336.9, "inonde": false }, "geometry": { "type": "LineString", "coordinates": [ [ 15.328503, 10.248027 ], [ 15.328912, 10.248193 ], [ 15.329613, 10.248303 ], [ 15.329824, 10.248419 ], [ 15.330618, 10.248541 ], [ 15.331106, 10.248847 ], [ 15.331401, 10.24889 ] ] } },
{ "type": "Feature", "properties": { "highway": "unclassified", "longueur_m": 166.0, "inonde": false }, "geometry": { "type": "LineString", "coordinates": [ [ 15.36716, 10.223398 ], [ 15.36588, 10.222594 ] ] } },
{ "type": "Feature", "properties": { "highway": "track", "longueur_m": 3046.0, "inonde": false }, "geometry": { "type": "LineString", "coordinates": [ [ 15.351899, 10.222609 ], [ 15.350068, 10.223876 ], [ 15.349606, 10.224409 ], [ 15.348587, 10.225011 ], [ 15.346189, 10.225724 ], [ 15.345057, 10.226283 ], [ 15.343802, 10.2265 ], [ 15.34149, 10.227529 ], [ 15.340455, 10.227677 ], [ 15.339875, 10.227635 ], [ 15.337488, 10.228173 ], [ 15.335678, 10.228332 ], [ 15.331496, 10.228406 ], [ 15.329935, 10.227952 ], [ 15.329243, 10.227856 ], [ 15.3289, 10.227925 ], [ 15.328385, 10.227841 ], [ 15.327859, 10.227936 ], [ 15.326925, 10.227957 ], [ 15.325668, 10.228353 ] ] } },
{ "type": "Feature", "properties": { "highway": "track", "longueur_m": 603.4, "inonde": false }, "geometry": { "type": "LineString", "coordinates": [ [ 15.344794, 10.226357 ], [ 15.344698, 10.226024 ], [ 15.34363, 10.225064 ], [ 15.342643, 10.22434 ], [ 15.341839, 10.223496 ], [ 15.341249, 10.223094 ], [ 15.341034, 10.222894 ], [ 15.34091, 10.222621 ] ] } },
{ "type": "Feature", "properties": { "highway": "track", "longueur_m": 597.8, "inonde": false }, "geometry": { "type": "LineString", "coordinates": [ [ 15.348995, 10.231425 ], [ 15.34833, 10.230855 ], [ 15.347659, 10.230501 ], [ 15.347198, 10.230163 ], [ 15.34664, 10.229657 ], [ 15.346237, 10.22886 ], [ 15.34569, 10.227397 ] ] } },
{ "type": "Feature", "properties": { "highway": "track", "longueur_m": 376.5, "inonde": false }, "geometry": { "type": "LineString", "coordinates": [ [ 15.348362, 10.225106 ], [ 15.348507, 10.225665 ], [ 15.348807, 10.226362 ], [ 15.348871, 10.226727 ], [ 15.34944, 10.227656 ], [ 15.349622, 10.228242 ] ] } },
{ "type": "Feature", "properties": { "highway": "track", "longueur_m": 1027.6, "inonde": false }, "geometry": { "type": "LineString", "coordinates": [ [ 15.353415, 10.229018 ], [ 15.352433, 10.228981 ], [ 15.351586, 10.228585 ], [ 15.350121, 10.228374 ], [ 15.348147, 10.227783 ], [ 15.34569, 10.227397 ], [ 15.344918, 10.22669 ], [ 15.344794, 10.226357 ] ] } },
{ "type": "Feature", "properties": { "highway": "track", "longueur_m": 1016.7, "inonde": false }, "geometry": { "type": "LineString", "coordinates": [ [ 15.349622, 10.228242 ], [ 15.350051, 10.22887 ], [ 15.35033, 10.229498 ], [ 15.350556, 10.231024 ], [ 15.350878, 10.231905 ], [ 15.351296, 10.232534 ], [ 15.351645, 10.233426 ], [ 15.351988, 10.233991 ], [ 15.352192, 10.234154 ], [ 15.352423, 10.234703 ], [ 15.352642, 10.234957 ], [ 15.352857, 10.235527 ], [ 15.353324, 10.236092 ], [ 15.353619, 10.236308 ] ] } },
{ "type": "Feature", "properties": { "highway": "track", "longueur_m": 27.3, "inonde": false }, "geometry": { "type": "LineString", "coordinates": [ [ 15.349978, 10.228324 ], [ 15.34973, 10.228353 ] ] } },
{ "type": "Feature", "properties": { "highway": "unclassified", "longueur_m": 1020.8, "inonde": false }, "geometry": { "type": "LineString", "coordinates": [ [ 15.321526, 10.242901 ], [ 15.322859, 10.243229 ], [ 15.324811, 10.244593 ], [ 15.326046, 10.245267 ], [ 15.326647, 10.245393 ], [ 15.32795, 10.245193 ], [ 15.329275, 10.245293 ], [ 15.330069, 10.244918 ] ] } },
{ "type": "Feature", "properties": { "highway": "track", "longueur_m": 207.0, "inonde": false }, "geometry": { "type": "LineString", "coordinates": [ [ 15.351092, 10.22555 ], [ 15.350701, 10.22537 ], [ 15.349773, 10.224261 ] ] } },
{ "type": "Feature", "properties": { "highway": "pedestrian", "longueur_m": 927.5, "inonde": true }, "geometry": { "type": "LineString", "coordinates": [ [ 15.352423, 10.234703 ], [ 15.353222, 10.234482 ], [ 15.353667, 10.234545 ], [ 15.354166, 10.234719 ], [ 15.354499, 10.234941 ], [ 15.356736, 10.235522 ], [ 15.35717, 10.235802 ], [ 15.357476, 10.236171 ], [ 15.357916, 10.236277 ], [ 15.359029, 10.236997 ], [ 15.359925, 10.23729 ], [ 15.360102, 10.237406 ] ] } },
{ "type": "Feature", "properties": { "highway": "path", "longueur_m": 3725.7, "inonde": true }, "geometry": { "type": "LineString", "coordinates": [ [ 15.35261, 10.248951 ], [ 15.351259, 10.249289 ], [ 15.348426, 10.250609 ], [ 15.347246, 10.250683 ], [ 15.346903, 10.250213 ], [ 15.346094, 10.249606 ], [ 15.345916, 10.248777 ], [ 15.34591, 10.248186 ], [ 15.345744, 10.247648 ], [ 15.344982, 10.246602 ], [ 15.344827, 10.246175 ], [ 15.344896, 10.245626 ], [ 15.345867, 10.245267 ], [ 15.346393, 10.244433 ], [ 15.346436, 10.243736 ], [ 15.346307, 10.243198 ], [ 15.346157, 10.241746 ], [ 15.345867, 10.241582 ], [ 15.345556, 10.241017 ], [ 15.345599, 10.240621 ], [ 15.344891, 10.239903 ], [ 15.344564, 10.239856 ], [ 15.344156, 10.239212 ], [ 15.344183, 10.238642 ], [ 15.343721, 10.237707 ], [ 15.343003, 10.23729 ], [ 15.343351, 10.233716 ], [ 15.342343, 10.23247 ], [ 15.34157, 10.231288 ], [ 15.338888, 10.230021 ], [ 15.337032, 10.22926 ] ] } },
{ "type": "Feature", "properties": { "highway": "path", "longueur_m": 3277.4, "inonde": true }, "geometry": { "type": "LineString", "coordinates": [ [ 15.367195, 10.253973 ], [ 15.366912, 10.253766 ], [ 15.365099, 10.251918 ], [ 15.363919, 10.251 ], [ 15.362803, 10.249975 ], [ 15.361687, 10.248614 ], [ 15.360335, 10.248265 ], [ 15.358307, 10.248476 ], [ 15.356537, 10.248392 ], [ 15.355003, 10.248561 ], [ 15.354209, 10.248719 ], [ 15.355775, 10.246766 ], [ 15.358522, 10.245393 ], [ 15.361805, 10.244253 ], [ 15.364466, 10.243556 ], [ 15.365968, 10.243472 ], [ 15.367182, 10.243046 ] ] } },
{ "type": "Feature", "properties": { "highway": "path", "longueur_m": 1892.0, "inonde": true }, "geometry": { "type": "LineString", "coordinates": [ [ 15.348941, 10.226859 ], [ 15.349655, 10.22651 ], [ 15.350137, 10.226093 ], [ 15.351092, 10.22555 ], [ 15.351929, 10.226278 ], [ 15.352535, 10.226658 ], [ 15.353876, 10.227249 ], [ 15.354681, 10.227492 ], [ 15.357186, 10.228918 ], [ 15.357277, 10.229292 ], [ 15.357755, 10.229509 ], [ 15.358667, 10.230459 ], [ 15.358999, 10.230607 ], [ 15.359343, 10.230984 ], [ 15.359954, 10.231357 ], [ 15.36034, 10.231832 ], [ 15.361282, 10.231988 ], [ 15.361437, 10.23213 ], [ 15.36217, 10.23227 ], [ 15.363095, 10.232837 ], [ 15.363185, 10.233054 ] ] } },
{ "type": "Feature", "properties": { "highway": "track", "longueur_m": 1956.6, "inonde": false }, "geometry": { "type": "MultiLineString", "coordinates": [ [ [ 15.328534, 10.230318 ], [ 15.328189, 10.229878 ], [ 15.328127, 10.229451 ], [ 15.3285, 10.22802 ], [ 15.328385, 10.227841 ], [ 15.329275, 10.226046 ], [ 15.329645, 10.225729 ], [ 15.330225, 10.225507 ], [ 15.330852, 10.225117 ], [ 15.332285, 10.224631 ], [ 15.332918, 10.224494 ], [ 15.334082, 10.223834 ], [ 15.334693, 10.223828 ], [ 15.335514, 10.223691 ], [ 15.336024, 10.223723 ], [ 15.336657, 10.223528 ], [ 15.337252, 10.223221 ], [ 15.338379, 10.223063 ], [ 15.338888, 10.22273 ], [ 15.339386, 10.222623 ] ], [ [ 15.33965, 10.222622 ], [ 15.340074, 10.222667 ], [ 15.340267, 10.222884 ], [ 15.34098, 10.223295 ], [ 15.341656, 10.223353 ] ] ] } },
{ "type": "Feature", "properties": { "highway": "track", "longueur_m": 249.2, "inonde": false }, "geometry": { "type": "LineString", "coordinates": [ [ 15.33088, 10.238312 ], [ 15.330563, 10.239158 ], [ 15.330384, 10.239354 ], [ 15.329304, 10.239446 ] ] } },
{ "type": "Feature", "properties": { "highway": "track", "longueur_m": 20.9, "inonde": false }, "geometry": { "type": "LineString", "coordinates": [ [ 15.323366, 10.239188 ], [ 15.323557, 10.239191 ] ] } },
{ "type": "Feature", "properties": { "highway": "track", "longueur_m": 257.6, "inonde": false }, "geometry": { "type": "LineString", "coordinates": [ [ 15.321523, 10.240294 ], [ 15.32166, 10.240078 ], [ 15.322411, 10.239785 ], [ 15.32309, 10.239404 ], [ 15.323441, 10.239064 ] ] } },
{ "type": "Feature", "properties": { "highway": "track", "longueur_m": 380.8, "inonde": false }, "geometry": { "type": "LineString", "coordinates": [ [ 15.321527, 10.244086 ], [ 15.321757, 10.244108 ], [ 15.322266, 10.244419 ], [ 15.322503, 10.244362 ], [ 15.322701, 10.244412 ], [ 15.323447, 10.244259 ], [ 15.323814, 10.244295 ], [ 15.324811, 10.244593 ] ] } },
{ "type": "Feature", "properties": { "highway": "residential", "longueur_m": 553.0, "inonde": false }, "geometry": { "type": "LineString", "coordinates": [ [ 15.321531, 10.247381 ], [ 15.321781, 10.247083 ], [ 15.322049, 10.246918 ], [ 15.322378, 10.246796 ], [ 15.322688, 10.246811 ], [ 15.323157, 10.246553 ], [ 15.322959, 10.247392 ], [ 15.322941, 10.247892 ], [ 15.323034, 10.248146 ], [ 15.322863, 10.248476 ], [ 15.322698, 10.248463 ], [ 15.322623, 10.248599 ], [ 15.322674, 10.248664 ], [ 15.32263, 10.24879 ], [ 15.322487, 10.248802 ], [ 15.322505, 10.248987 ], [ 15.322675, 10.249093 ] ] } },
{ "type": "Feature", "properties": { "highway": "residential", "longueur_m": 211.9, "inonde": false }, "geometry": { "type": "LineString", "coordinates": [ [ 15.324766, 10.247677 ], [ 15.324504, 10.247291 ], [ 15.32404, 10.247112 ], [ 15.323921, 10.246938 ], [ 15.323573, 10.246803 ], [ 15.323275, 10.246586 ] ] } },
{ "type": "Feature", "properties": { "highway": "track", "longueur_m": 242.5, "inonde": false }, "geometry": { "type": "LineString", "coordinates": [ [ 15.325051, 10.246592 ], [ 15.32471, 10.246154 ], [ 15.324552, 10.245697 ], [ 15.324847, 10.244868 ], [ 15.324811, 10.244593 ] ] } },
{ "type": "Feature", "properties": { "highway": "track", "longueur_m": 91.3, "inonde": false }, "geometry": { "type": "LineString", "coordinates": [ [ 15.326432, 10.245085 ], [ 15.326183, 10.244773 ], [ 15.326142, 10.244356 ] ] } },
{ "type": "Feature", "properties": { "highway": "track", "longueur_m": 183.2, "inonde": false }, "geometry": { "type": "LineString", "coordinates": [ [ 15.326647, 10.245393 ], [ 15.326432, 10.245085 ], [ 15.32629, 10.243815 ] ] } },
{ "type": "Feature", "properties": { "highway": "track", "longueur_m": 1519.6, "inonde": false }, "geometry": { "type": "LineString", "coordinates": [ [ 15.325045, 10.24727 ], [ 15.325051, 10.246592 ], [ 15.325393, 10.245354 ], [ 15.326046, 10.244591 ], [ 15.326223, 10.244132 ], [ 15.326309, 10.243575 ], [ 15.325922, 10.242849 ], [ 15.32589, 10.242292 ], [ 15.325713, 10.241675 ], [ 15.325407, 10.241358 ], [ 15.325338, 10.241123 ], [ 15.325002, 10.240835 ], [ 15.324069, 10.239658 ], [ 15.322741, 10.238343 ], [ 15.322288, 10.237459 ], [ 15.322309, 10.236915 ], [ 15.322232, 10.236725 ], [ 15.321996, 10.23648 ], [ 15.321757, 10.236364 ], [ 15.321519, 10.235583 ] ] } },
{ "type": "Feature", "properties": { "highway": "residential", "longueur_m": 194.6, "inonde": false }, "geometry": { "type": "LineString", "coordinates": [ [ 15.32459, 10.247873 ], [ 15.325045, 10.24727 ], [ 15.325673, 10.246882 ], [ 15.325788, 10.246663 ] ] } },
{ "type": "Feature", "properties": { "highway": "track", "longueur_m": 1050.2, "inonde": false }, "geometry": { "type": "LineString", "coordinates": [ [ 15.32947, 10.242534 ], [ 15.328433, 10.241561 ], [ 15.328334, 10.241133 ], [ 15.328197, 10.240967 ], [ 15.327663, 10.240619 ], [ 15.327223, 10.239486 ], [ 15.327111, 10.238766 ], [ 15.32677, 10.238146 ], [ 15.326341, 10.237596 ], [ 15.325871, 10.237306 ], [ 15.325829, 10.237156 ], [ 15.325327, 10.236733 ], [ 15.325118, 10.236425 ], [ 15.324807, 10.236277 ], [ 15.324782, 10.236118 ], [ 15.323844, 10.235585 ], [ 15.323813, 10.23551 ] ] } },
{ "type": "Feature", "properties": { "highway": "track", "longueur_m": 571.1, "inonde": false }, "geometry": { "type": "LineString", "coordinates": [ [ 15.334849, 10.244796 ], [ 15.334709, 10.244677 ], [ 15.333737, 10.244552 ], [ 15.333028, 10.244328 ], [ 15.332231, 10.243958 ], [ 15.330573, 10.243522 ], [ 15.329883, 10.243437 ] ] } },
{ "type": "Feature", "properties": { "highway": "track", "longueur_m": 149.6, "inonde": false }, "geometry": { "type": "LineString", "coordinates": [ [ 15.33394, 10.246689 ], [ 15.333662, 10.247199 ], [ 15.333475, 10.24725 ], [ 15.332896, 10.247204 ] ] } },
{ "type": "Feature", "properties": { "highway": "residential", "longueur_m": 404.7, "inonde": false }, "geometry": { "type": "LineString", "coordinates": [ [ 15.33513, 10.245304 ], [ 15.3347, 10.24545 ], [ 15.333921, 10.246501 ], [ 15.333934, 10.246886 ], [ 15.334644, 10.247776 ], [ 15.334769, 10.248089 ] ] } },
{ "type": "Feature", "properties": { "highway": "track", "longueur_m": 748.2, "inonde": false }, "geometry": { "type": "LineString", "coordinates": [ [ 15.334725, 10.244269 ], [ 15.334284, 10.24407 ], [ 15.334143, 10.243923 ], [ 15.334133, 10.243042 ], [ 15.333867, 10.242482 ], [ 15.333314, 10.241801 ], [ 15.33308, 10.241217 ], [ 15.332883, 10.240493 ], [ 15.332821, 10.239844 ], [ 15.332598, 10.239304 ], [ 15.332651, 10.238697 ], [ 15.332472, 10.238691 ], [ 15.332425, 10.238433 ] ] } },
{ "type": "Feature", "properties": { "highway": "track", "longueur_m": 272.2, "inonde": false }, "geometry": { "type": "LineString", "coordinates": [ [ 15.332896, 10.247204 ], [ 15.331641, 10.246916 ], [ 15.331182, 10.246687 ], [ 15.33068, 10.24624 ] ] } },
{ "type": "Feature", "properties": { "highway": "unclassified", "longueur_m": 183.0, "inonde": false }, "geometry": { "type": "LineString", "coordinates": [ [ 15.33068, 10.24624 ], [ 15.329836, 10.247663 ] ] } },
{ "type": "Feature", "properties": { "highway": "track", "longueur_m": 127.4, "inonde": false }, "geometry": { "type": "LineString", "coordinates": [ [ 15.322675, 10.249093 ], [ 15.321532, 10.248922 ] ] } },
{ "type": "Feature", "properties": { "highway": "track", "longueur_m": 59.5, "inonde": false }, "geometry": { "type": "LineString", "coordinates": [ [ 15.323567, 10.248974 ], [ 15.323442, 10.249098 ], [ 15.323315, 10.249432 ] ] } },
{ "type": "Feature", "properties": { "highway": "track", "longueur_m": 216.3, "inonde": true }, "geometry": { "type": "LineString", "coordinates": [ [ 15.322853, 10.251324 ], [ 15.323315, 10.249432 ] ] } },
{ "type": "Feature", "properties": { "highway": "track", "longueur_m": 402.0, "inonde": true }, "geometry": { "type": "LineString", "coordinates": [ [ 15.324009, 10.25101 ], [ 15.323731, 10.250762 ], [ 15.323645, 10.250514 ], [ 15.323645, 10.249837 ], [ 15.323715, 10.24969 ], [ 15.323598, 10.249566 ], [ 15.322949, 10.249243 ], [ 15.322732, 10.24904 ], [ 15.323173, 10.248854 ], [ 15.32338, 10.248433 ] ] } },
{ "type": "Feature", "properties": { "highway": "track", "longueur_m": 176.1, "inonde": true }, "geometry": { "type": "LineString", "coordinates": [ [ 15.324461, 10.250128 ], [ 15.324309, 10.250602 ], [ 15.323773, 10.251485 ] ] } },
{ "type": "Feature", "properties": { "highway": "track", "longueur_m": 261.1, "inonde": false }, "geometry": { "type": "LineString", "coordinates": [ [ 15.323751, 10.248472 ], [ 15.323427, 10.248544 ], [ 15.323407, 10.248728 ], [ 15.323622, 10.249077 ], [ 15.323769, 10.249497 ], [ 15.32396, 10.249638 ], [ 15.324147, 10.249966 ], [ 15.324455, 10.250119 ] ] } },
{ "type": "Feature", "properties": { "highway": "track", "longueur_m": 196.4, "inonde": false }, "geometry": { "type": "LineString", "coordinates": [ [ 15.32445, 10.24999 ], [ 15.324735, 10.249799 ], [ 15.324839, 10.249601 ], [ 15.32491, 10.249153 ], [ 15.325253, 10.248595 ], [ 15.325332, 10.248594 ] ] } },
{ "type": "Feature", "properties": { "highway": "residential", "longueur_m": 78.6, "inonde": false }, "geometry": { "type": "LineString", "coordinates": [ [ 15.324178, 10.247915 ], [ 15.324093, 10.24834 ], [ 15.324302, 10.24847 ] ] } },
{ "type": "Feature", "properties": { "highway": "track", "longueur_m": 81.0, "inonde": false }, "geometry": { "type": "LineString", "coordinates": [ [ 15.32526, 10.24787 ], [ 15.325332, 10.248594 ] ] } },
{ "type": "Feature", "properties": { "highway": "track", "longueur_m": 534.0, "inonde": true }, "geometry": { "type": "LineString", "coordinates": [ [ 15.325786, 10.251863 ], [ 15.325324, 10.251266 ], [ 15.325238, 10.251039 ], [ 15.324568, 10.250414 ], [ 15.324324, 10.249507 ], [ 15.324141, 10.249268 ], [ 15.324302, 10.24847 ], [ 15.324379, 10.248483 ], [ 15.324655, 10.248187 ], [ 15.324734, 10.247869 ] ] } },
{ "type": "Feature", "properties": { "highway": "track", "longueur_m": 87.5, "inonde": true }, "geometry": { "type": "LineString", "coordinates": [ [ 15.327521, 10.251762 ], [ 15.327427, 10.251461 ], [ 15.327162, 10.251068 ] ] } },
{ "type": "Feature", "properties": { "highway": "track", "longueur_m": 263.9, "inonde": true }, "geometry": { "type": "LineString", "coordinates": [ [ 15.326869, 10.251723 ], [ 15.326802, 10.250717 ], [ 15.32705, 10.250123 ], [ 15.326794, 10.249931 ], [ 15.3266, 10.249576 ] ] } },
{ "type": "Feature", "properties": { "highway": "track", "longueur_m": 462.2, "inonde": true }, "geometry": { "type": "LineString", "coordinates": [ [ 15.326797, 10.251695 ], [ 15.326542, 10.250279 ], [ 15.3266, 10.249576 ], [ 15.326309, 10.249186 ], [ 15.326207, 10.248822 ], [ 15.325855, 10.248462 ], [ 15.325573, 10.247872 ] ] } },
{ "type": "Feature", "properties": { "highway": "track", "longueur_m": 31.3, "inonde": false }, "geometry": { "type": "LineString", "coordinates": [ [ 15.329344, 10.25176 ], [ 15.329321, 10.251483 ] ] } },
{ "type": "Feature", "properties": { "highway": "track", "longueur_m": 154.4, "inonde": true }, "geometry": { "type": "LineString", "coordinates": [ [ 15.328854, 10.251675 ], [ 15.329321, 10.251483 ], [ 15.329326, 10.25106 ], [ 15.329557, 10.251155 ], [ 15.329655, 10.250993 ] ] } },
{ "type": "Feature", "properties": { "highway": "track", "longueur_m": 1131.6, "inonde": true }, "geometry": { "type": "LineString", "coordinates": [ [ 15.32822, 10.254905 ], [ 15.327974, 10.25399 ], [ 15.328066, 10.253502 ], [ 15.327931, 10.253077 ], [ 15.327854, 10.252427 ], [ 15.327585, 10.251586 ], [ 15.327499, 10.250619 ], [ 15.327559, 10.24996 ], [ 15.327486, 10.249431 ], [ 15.327359, 10.248884 ], [ 15.32712, 10.24835 ], [ 15.327253, 10.247946 ], [ 15.327473, 10.247858 ], [ 15.327017, 10.247674 ], [ 15.326647, 10.245393 ] ] } },
{ "type": "Feature", "properties": { "highway": "track", "longueur_m": 233.9, "inonde": false }, "geometry": { "type": "LineString", "coordinates": [ [ 15.329596, 10.250554 ], [ 15.328363, 10.250276 ], [ 15.327559, 10.24996 ] ] } },
{ "type": "Feature", "properties": { "highway": "track", "longueur_m": 126.5, "inonde": false }, "geometry": { "type": "LineString", "coordinates": [ [ 15.329629, 10.250818 ], [ 15.329382, 10.250823 ], [ 15.329403, 10.250205 ], [ 15.329511, 10.249951 ] ] } },
{ "type": "Feature", "properties": { "highway": "track", "longueur_m": 334.3, "inonde": false }, "geometry": { "type": "LineString", "coordinates": [ [ 15.329806, 10.251232 ], [ 15.329655, 10.250993 ], [ 15.329584, 10.25063 ], [ 15.329606, 10.250362 ], [ 15.329459, 10.24924 ], [ 15.329613, 10.248303 ] ] } },
{ "type": "Feature", "properties": { "highway": "track", "longueur_m": 56.2, "inonde": false }, "geometry": { "type": "LineString", "coordinates": [ [ 15.329816, 10.251293 ], [ 15.330073, 10.250878 ] ] } },
{ "type": "Feature", "properties": { "highway": "track", "longueur_m": 261.1, "inonde": false }, "geometry": { "type": "LineString", "coordinates": [ [ 15.331516, 10.251673 ], [ 15.331135, 10.251634 ], [ 15.330792, 10.251429 ], [ 15.329981, 10.251233 ], [ 15.329816, 10.251293 ], [ 15.329746, 10.251824 ] ] } },
{ "type": "Feature", "properties": { "highway": "track", "longueur_m": 250.6, "inonde": false }, "geometry": { "type": "LineString", "coordinates": [ [ 15.332192, 10.250049 ], [ 15.332105, 10.250605 ], [ 15.331685, 10.251046 ], [ 15.331609, 10.251648 ], [ 15.33144, 10.251711 ], [ 15.331335, 10.251964 ] ] } },
{ "type": "Feature", "properties": { "highway": "track", "longueur_m": 72.9, "inonde": false }, "geometry": { "type": "LineString", "coordinates": [ [ 15.333969, 10.252545 ], [ 15.33396, 10.2519 ] ] } },
{ "type": "Feature", "properties": { "highway": "track", "longueur_m": 54.6, "inonde": false }, "geometry": { "type": "LineString", "coordinates": [ [ 15.334015, 10.252312 ], [ 15.334083, 10.251996 ], [ 15.334228, 10.251934 ] ] } },
{ "type": "Feature", "properties": { "highway": "track", "longueur_m": 76.4, "inonde": false }, "geometry": { "type": "LineString", "coordinates": [ [ 15.333969, 10.252545 ], [ 15.334015, 10.252312 ], [ 15.334228, 10.251934 ] ] } },
{ "type": "Feature", "properties": { "highway": "track", "longueur_m": 98.3, "inonde": true }, "geometry": { "type": "LineString", "coordinates": [ [ 15.33428, 10.25186 ], [ 15.3341, 10.252535 ], [ 15.334119, 10.252707 ] ] } },
{ "type": "Feature", "properties": { "highway": "track", "longueur_m": 110.8, "inonde": false }, "geometry": { "type": "LineString", "coordinates": [ [ 15.335238, 10.248677 ], [ 15.335188, 10.249284 ], [ 15.335124, 10.249441 ], [ 15.334963, 10.249573 ] ] } },
{ "type": "Feature", "properties": { "highway": "track", "longueur_m": 73.9, "inonde": false }, "geometry": { "type": "LineString", "coordinates": [ [ 15.334691, 10.248241 ], [ 15.334733, 10.248901 ] ] } },
{ "type": "Feature", "properties": { "highway": "residential", "longueur_m": 168.7, "inonde": false }, "geometry": { "type": "LineString", "coordinates": [ [ 15.334308, 10.249264 ], [ 15.334147, 10.248893 ], [ 15.33417, 10.248694 ], [ 15.33452, 10.248557 ], [ 15.334769, 10.248089 ] ] } },
{ "type": "Feature", "properties": { "highway": "track", "longueur_m": 17.7, "inonde": false }, "geometry": { "type": "LineString", "coordinates": [ [ 15.334835, 10.249025 ], [ 15.334733, 10.248901 ] ] } },
{ "type": "Feature", "properties": { "highway": "track", "longueur_m": 175.7, "inonde": false }, "geometry": { "type": "LineString", "coordinates": [ [ 15.334963, 10.249573 ], [ 15.33439, 10.24944 ], [ 15.334308, 10.249264 ], [ 15.334901, 10.248761 ] ] } },
{ "type": "Feature", "properties": { "highway": "track", "longueur_m": 415.8, "inonde": false }, "geometry": { "type": "LineString", "coordinates": [ [ 15.334255, 10.25163 ], [ 15.334213, 10.251506 ], [ 15.334361, 10.251279 ], [ 15.334825, 10.250978 ], [ 15.334827, 10.250617 ], [ 15.334992, 10.249915 ], [ 15.334835, 10.249025 ], [ 15.334901, 10.248761 ], [ 15.334952, 10.248665 ], [ 15.335368, 10.248619 ] ] } },
{ "type": "Feature", "properties": { "highway": "track", "longueur_m": 122.4, "inonde": true }, "geometry": { "type": "LineString", "coordinates": [ [ 15.334119, 10.252707 ], [ 15.334269, 10.252309 ], [ 15.334255, 10.25163 ] ] } },
{ "type": "Feature", "properties": { "highway": "track", "longueur_m": 169.3, "inonde": false }, "geometry": { "type": "LineString", "coordinates": [ [ 15.33556, 10.25215 ], [ 15.33523, 10.251205 ], [ 15.335334, 10.2507 ] ] } },
{ "type": "Feature", "properties": { "highway": "track", "longueur_m": 170.7, "inonde": false }, "geometry": { "type": "LineString", "coordinates": [ [ 15.335183, 10.252342 ], [ 15.33496, 10.251546 ], [ 15.334255, 10.25163 ] ] } },
{ "type": "Feature", "properties": { "highway": "track", "longueur_m": 161.4, "inonde": true }, "geometry": { "type": "LineString", "coordinates": [ [ 15.335543, 10.251797 ], [ 15.335113, 10.252079 ], [ 15.33424, 10.252433 ] ] } },
{ "type": "Feature", "properties": { "highway": "track", "longueur_m": 94.0, "inonde": true }, "geometry": { "type": "LineString", "coordinates": [ [ 15.335814, 10.251923 ], [ 15.335543, 10.251797 ], [ 15.335696, 10.25167 ], [ 15.336029, 10.251588 ] ] } },
{ "type": "Feature", "properties": { "highway": "track", "longueur_m": 99.0, "inonde": true }, "geometry": { "type": "LineString", "coordinates": [ [ 15.336107, 10.251765 ], [ 15.335956, 10.251345 ], [ 15.336364, 10.251162 ] ] } },
{ "type": "Feature", "properties": { "highway": "residential", "longueur_m": 72.3, "inonde": true }, "geometry": { "type": "LineString", "coordinates": [ [ 15.336453, 10.251558 ], [ 15.336364, 10.251162 ], [ 15.336547, 10.250993 ] ] } },
{ "type": "Feature", "properties": { "highway": "track", "longueur_m": 68.3, "inonde": false }, "geometry": { "type": "LineString", "coordinates": [ [ 15.335451, 10.248998 ], [ 15.335381, 10.249598 ] ] } },
{ "type": "Feature", "properties": { "highway": "residential", "longueur_m": 34.7, "inonde": false }, "geometry": { "type": "LineString", "coordinates": [ [ 15.335375, 10.250389 ], [ 15.335334, 10.2507 ] ] } },
{ "type": "Feature", "properties": { "highway": "track", "longueur_m": 113.7, "inonde": false }, "geometry": { "type": "LineString", "coordinates": [ [ 15.336034, 10.250538 ], [ 15.336166, 10.250341 ], [ 15.336113, 10.250175 ], [ 15.3363, 10.249591 ] ] } },
{ "type": "Feature", "properties": { "highway": "track", "longueur_m": 170.3, "inonde": false }, "geometry": { "type": "LineString", "coordinates": [ [ 15.334115, 10.250085 ], [ 15.333864, 10.250439 ], [ 15.3336, 10.250501 ], [ 15.333394, 10.250713 ], [ 15.333165, 10.251194 ] ] } },
{ "type": "Feature", "properties": { "highway": "track", "longueur_m": 507.2, "inonde": false }, "geometry": { "type": "LineString", "coordinates": [ [ 15.336543, 10.250629 ], [ 15.334519, 10.250233 ], [ 15.333797, 10.249973 ], [ 15.33279, 10.249974 ], [ 15.332059, 10.249752 ] ] } },
{ "type": "Feature", "properties": { "highway": "track", "longueur_m": 48.3, "inonde": false }, "geometry": { "type": "LineString", "coordinates": [ [ 15.335356, 10.246946 ], [ 15.335637, 10.246808 ], [ 15.335707, 10.246705 ] ] } },
{ "type": "Feature", "properties": { "highway": "track", "longueur_m": 1249.8, "inonde": false }, "geometry": { "type": "LineString", "coordinates": [ [ 15.33656, 10.250569 ], [ 15.335989, 10.250364 ], [ 15.335659, 10.24996 ], [ 15.335518, 10.249681 ], [ 15.335495, 10.249036 ], [ 15.335195, 10.248249 ], [ 15.335149, 10.247627 ], [ 15.335525, 10.246251 ], [ 15.335404, 10.246085 ], [ 15.335219, 10.245454 ], [ 15.334849, 10.244796 ], [ 15.334688, 10.244045 ], [ 15.334707, 10.243786 ], [ 15.335093, 10.242904 ], [ 15.335345, 10.242089 ], [ 15.334753, 10.24046 ], [ 15.334664, 10.240429 ] ] } },
{ "type": "Feature", "properties": { "highway": "track", "longueur_m": 692.0, "inonde": false }, "geometry": { "type": "LineString", "coordinates": [ [ 15.321519, 10.235472 ], [ 15.321829, 10.235569 ], [ 15.322352, 10.235472 ], [ 15.322969, 10.235576 ], [ 15.323813, 10.23551 ], [ 15.324214, 10.235121 ], [ 15.324368, 10.234498 ], [ 15.324876, 10.233962 ], [ 15.326622, 10.233038 ] ] } },
{ "type": "Feature", "properties": { "highway": "unclassified", "longueur_m": 477.4, "inonde": false }, "geometry": { "type": "LineString", "coordinates": [ [ 15.321519, 10.235348 ], [ 15.321631, 10.23502 ], [ 15.322181, 10.23426 ], [ 15.322476, 10.232919 ], [ 15.321862, 10.232502 ], [ 15.321685, 10.232125 ], [ 15.321692, 10.231628 ] ] } },
{ "type": "Feature", "properties": { "highway": "track", "longueur_m": 1035.4, "inonde": false }, "geometry": { "type": "LineString", "coordinates": [ [ 15.326636, 10.231425 ], [ 15.327296, 10.231915 ], [ 15.327447, 10.232159 ], [ 15.328193, 10.232914 ], [ 15.328597, 10.233066 ], [ 15.329305, 10.233959 ], [ 15.329765, 10.234286 ], [ 15.330066, 10.234775 ], [ 15.330906, 10.235506 ], [ 15.331177, 10.236179 ], [ 15.331378, 10.23649 ], [ 15.332126, 10.237076 ], [ 15.332306, 10.237509 ], [ 15.332279, 10.237707 ], [ 15.332467, 10.238312 ] ] } },
{ "type": "Feature", "properties": { "highway": "track", "longueur_m": 446.2, "inonde": false }, "geometry": { "type": "LineString", "coordinates": [ [ 15.326578, 10.234896 ], [ 15.326779, 10.234123 ], [ 15.327128, 10.233732 ], [ 15.327116, 10.233302 ], [ 15.32719, 10.233031 ], [ 15.327986, 10.231256 ] ] } },
{ "type": "Feature", "properties": { "highway": "track", "longueur_m": 279.6, "inonde": false }, "geometry": { "type": "LineString", "coordinates": [ [ 15.328885, 10.234499 ], [ 15.328784, 10.234411 ], [ 15.328567, 10.234445 ], [ 15.328352, 10.234318 ], [ 15.327693, 10.233801 ], [ 15.327631, 10.233621 ], [ 15.327481, 10.233484 ], [ 15.326853, 10.233159 ] ] } },
{ "type": "Feature", "properties": { "highway": "track", "longueur_m": 234.9, "inonde": false }, "geometry": { "type": "LineString", "coordinates": [ [ 15.328692, 10.232869 ], [ 15.328849, 10.232623 ], [ 15.328876, 10.232376 ], [ 15.329124, 10.231965 ], [ 15.32958, 10.231344 ], [ 15.329835, 10.231145 ] ] } },
{ "type": "Feature", "properties": { "highway": "residential", "longueur_m": 194.2, "inonde": false }, "geometry": { "type": "LineString", "coordinates": [ [ 15.323212, 10.231519 ], [ 15.322881, 10.231499 ], [ 15.322709, 10.231578 ], [ 15.322016, 10.231611 ], [ 15.321808, 10.231746 ], [ 15.321515, 10.231715 ] ] } },
{ "type": "Feature", "properties": { "highway": "track", "longueur_m": 889.6, "inonde": false }, "geometry": { "type": "LineString", "coordinates": [ [ 15.321516, 10.232584 ], [ 15.322906, 10.2321 ], [ 15.32313, 10.231617 ], [ 15.323467, 10.231277 ], [ 15.325009, 10.230801 ], [ 15.325289, 10.230571 ], [ 15.326478, 10.230596 ], [ 15.327588, 10.230804 ], [ 15.327683, 10.230669 ], [ 15.327711, 10.230408 ], [ 15.327228, 10.22969 ] ] } },
{ "type": "Feature", "properties": { "highway": "residential", "longueur_m": 83.5, "inonde": false }, "geometry": { "type": "LineString", "coordinates": [ [ 15.322199, 10.234184 ], [ 15.321835, 10.233955 ], [ 15.321517, 10.233863 ] ] } },
{ "type": "Feature", "properties": { "highway": "track", "longueur_m": 848.2, "inonde": false }, "geometry": { "type": "LineString", "coordinates": [ [ 15.326853, 10.233159 ], [ 15.326622, 10.233038 ], [ 15.326097, 10.233009 ], [ 15.325126, 10.233087 ], [ 15.32495, 10.232579 ], [ 15.324807, 10.231779 ], [ 15.324521, 10.231289 ], [ 15.324422, 10.23067 ], [ 15.324441, 10.230167 ], [ 15.324644, 10.229704 ], [ 15.324862, 10.229434 ], [ 15.324987, 10.228604 ], [ 15.325887, 10.227865 ] ] } },
{ "type": "Feature", "properties": { "highway": "residential", "longueur_m": 8.6, "inonde": false }, "geometry": { "type": "LineString", "coordinates": [ [ 15.321513, 10.230147 ], [ 15.321588, 10.23017 ] ] } },
{ "type": "Feature", "properties": { "highway": "residential", "longueur_m": 488.1, "inonde": false }, "geometry": { "type": "LineString", "coordinates": [ [ 15.321512, 10.229325 ], [ 15.321815, 10.229167 ], [ 15.3226, 10.229043 ], [ 15.32363, 10.229203 ], [ 15.324065, 10.229013 ], [ 15.324148, 10.228887 ], [ 15.325668, 10.228353 ] ] } },
{ "type": "Feature", "properties": { "highway": "residential", "longueur_m": 70.1, "inonde": false }, "geometry": { "type": "LineString", "coordinates": [ [ 15.321513, 10.229422 ], [ 15.322084, 10.229707 ] ] } },
{ "type": "Feature", "properties": { "highway": "track", "longueur_m": 38.2, "inonde": false }, "geometry": { "type": "LineString", "coordinates": [ [ 15.327884, 10.230629 ], [ 15.327588, 10.230804 ] ] } },
{ "type": "Feature", "properties": { "highway": "residential", "longueur_m": 100.1, "inonde": false }, "geometry": { "type": "LineString", "coordinates": [ [ 15.325668, 10.228353 ], [ 15.325151, 10.229095 ] ] } },
{ "type": "Feature", "properties": { "highway": "residential", "longueur_m": 156.5, "inonde": false }, "geometry": { "type": "LineString", "coordinates": [ [ 15.324987, 10.228604 ], [ 15.325204, 10.229315 ], [ 15.325242, 10.229973 ] ] } },
{ "type": "Feature", "properties": { "highway": "residential", "longueur_m": 47.2, "inonde": false }, "geometry": { "type": "LineString", "coordinates": [ [ 15.327701, 10.230884 ], [ 15.328086, 10.231044 ] ] } },
{ "type": "Feature", "properties": { "highway": "residential", "longueur_m": 84.1, "inonde": false }, "geometry": { "type": "LineString", "coordinates": [ [ 15.327588, 10.230804 ], [ 15.327701, 10.230884 ], [ 15.327698, 10.230974 ], [ 15.327518, 10.231468 ] ] } },
{ "type": "Feature", "properties": { "highway": "track", "longueur_m": 208.7, "inonde": false }, "geometry": { "type": "LineString", "coordinates": [ [ 15.327743, 10.230112 ], [ 15.327522, 10.229535 ], [ 15.327477, 10.228672 ], [ 15.327309, 10.228308 ] ] } },
{ "type": "Feature", "properties": { "highway": "track", "longueur_m": 152.6, "inonde": false }, "geometry": { "type": "LineString", "coordinates": [ [ 15.322181, 10.22749 ], [ 15.322436, 10.22846 ], [ 15.32267, 10.228725 ] ] } },
{ "type": "Feature", "properties": { "highway": "residential", "longueur_m": 235.5, "inonde": false }, "geometry": { "type": "LineString", "coordinates": [ [ 15.322439, 10.23146 ], [ 15.322916, 10.230628 ], [ 15.322945, 10.23014 ], [ 15.323046, 10.229843 ], [ 15.323174, 10.229736 ], [ 15.323024, 10.229618 ] ] } },
{ "type": "Feature", "properties": { "highway": "residential", "longueur_m": 80.9, "inonde": false }, "geometry": { "type": "LineString", "coordinates": [ [ 15.322983, 10.229833 ], [ 15.323172, 10.229137 ] ] } },
{ "type": "Feature", "properties": { "highway": "residential", "longueur_m": 268.8, "inonde": false }, "geometry": { "type": "LineString", "coordinates": [ [ 15.324349, 10.230327 ], [ 15.323983, 10.230349 ], [ 15.323677, 10.230278 ], [ 15.323466, 10.230049 ], [ 15.322983, 10.229833 ], [ 15.322398, 10.229753 ], [ 15.322102, 10.229821 ] ] } },
{ "type": "Feature", "properties": { "highway": "track", "longueur_m": 188.3, "inonde": false }, "geometry": { "type": "LineString", "coordinates": [ [ 15.326683, 10.228056 ], [ 15.327502, 10.228371 ], [ 15.328315, 10.228557 ] ] } },
{ "type": "Feature", "properties": { "highway": "track", "longueur_m": 83.0, "inonde": false }, "geometry": { "type": "LineString", "coordinates": [ [ 15.327387, 10.227925 ], [ 15.327529, 10.227191 ] ] } },
{ "type": "Feature", "properties": { "highway": "track", "longueur_m": 438.9, "inonde": false }, "geometry": { "type": "LineString", "coordinates": [ [ 15.326636, 10.231425 ], [ 15.326314, 10.231194 ], [ 15.325386, 10.231114 ], [ 15.325001, 10.230942 ], [ 15.324438, 10.230477 ], [ 15.32409, 10.229833 ], [ 15.323828, 10.229142 ] ] } },
{ "type": "Feature", "properties": { "highway": "track", "longueur_m": 479.0, "inonde": true }, "geometry": { "type": "LineString", "coordinates": [ [ 15.325118, 10.259541 ], [ 15.324994, 10.259894 ], [ 15.324485, 10.260243 ], [ 15.323814, 10.260881 ], [ 15.322532, 10.261525 ], [ 15.322173, 10.261636 ], [ 15.321545, 10.261568 ] ] } },
{ "type": "Feature", "properties": { "highway": "track", "longueur_m": 107.2, "inonde": false }, "geometry": { "type": "LineString", "coordinates": [ [ 15.331745, 10.227536 ], [ 15.331634, 10.227911 ], [ 15.331294, 10.22836 ] ] } },
{ "type": "Feature", "properties": { "highway": "residential", "longueur_m": 163.7, "inonde": false }, "geometry": { "type": "LineString", "coordinates": [ [ 15.330402, 10.227693 ], [ 15.329814, 10.228118 ], [ 15.329849, 10.228601 ], [ 15.329667, 10.228791 ] ] } },
{ "type": "Feature", "properties": { "highway": "track", "longueur_m": 338.3, "inonde": false }, "geometry": { "type": "LineString", "coordinates": [ [ 15.328385, 10.227841 ], [ 15.328052, 10.227672 ], [ 15.327191, 10.227455 ], [ 15.326876, 10.22752 ], [ 15.326692, 10.227794 ], [ 15.325668, 10.228353 ] ] } },
{ "type": "Feature", "properties": { "highway": "track", "longueur_m": 373.7, "inonde": false }, "geometry": { "type": "LineString", "coordinates": [ [ 15.33119, 10.228337 ], [ 15.332545, 10.229258 ], [ 15.333339, 10.229871 ], [ 15.333626, 10.23022 ], [ 15.333891, 10.230336 ] ] } },
{ "type": "Feature", "properties": { "highway": "track", "longueur_m": 258.8, "inonde": false }, "geometry": { "type": "LineString", "coordinates": [ [ 15.330311, 10.230005 ], [ 15.330532, 10.229514 ], [ 15.330828, 10.2292 ], [ 15.331259, 10.22879 ], [ 15.331937, 10.2284 ] ] } },
{ "type": "Feature", "properties": { "highway": "track", "longueur_m": 314.0, "inonde": false }, "geometry": { "type": "LineString", "coordinates": [ [ 15.329499, 10.228955 ], [ 15.330068, 10.229038 ], [ 15.330294, 10.229897 ], [ 15.330133, 10.2306 ], [ 15.329835, 10.231145 ] ] } },
{ "type": "Feature", "properties": { "highway": "residential", "longueur_m": 252.4, "inonde": false }, "geometry": { "type": "LineString", "coordinates": [ [ 15.328474, 10.230221 ], [ 15.328784, 10.229984 ], [ 15.328972, 10.228968 ], [ 15.329419, 10.228992 ], [ 15.329667, 10.228791 ], [ 15.32962, 10.228732 ] ] } },
{ "type": "Feature", "properties": { "highway": "residential", "longueur_m": 122.0, "inonde": false }, "geometry": { "type": "LineString", "coordinates": [ [ 15.328168, 10.231132 ], [ 15.328163, 10.230474 ], [ 15.328534, 10.230318 ] ] } },
{ "type": "Feature", "properties": { "highway": "track", "longueur_m": 138.6, "inonde": false }, "geometry": { "type": "LineString", "coordinates": [ [ 15.328182, 10.231604 ], [ 15.328168, 10.231132 ], [ 15.328542, 10.230701 ], [ 15.32861, 10.230503 ] ] } },
{ "type": "Feature", "properties": { "highway": "track", "longueur_m": 97.7, "inonde": false }, "geometry": { "type": "LineString", "coordinates": [ [ 15.328086, 10.231044 ], [ 15.328309, 10.231272 ], [ 15.328355, 10.231834 ] ] } },
{ "type": "Feature", "properties": { "highway": "track", "longueur_m": 112.2, "inonde": false }, "geometry": { "type": "LineString", "coordinates": [ [ 15.335678, 10.228332 ], [ 15.335089, 10.227504 ] ] } },
{ "type": "Feature", "properties": { "highway": "track", "longueur_m": 96.8, "inonde": false }, "geometry": { "type": "LineString", "coordinates": [ [ 15.3342, 10.228374 ], [ 15.334412, 10.227531 ] ] } },
{ "type": "Feature", "properties": { "highway": "track", "longueur_m": 167.7, "inonde": false }, "geometry": { "type": "LineString", "coordinates": [ [ 15.337252, 10.227638 ], [ 15.337483, 10.228084 ], [ 15.337923, 10.228609 ], [ 15.338014, 10.228915 ] ] } },
{ "type": "Feature", "properties": { "highway": "track", "longueur_m": 486.0, "inonde": false }, "geometry": { "type": "LineString", "coordinates": [ [ 15.337659, 10.229103 ], [ 15.337206, 10.228871 ], [ 15.336675, 10.228782 ], [ 15.336255, 10.228569 ], [ 15.335484, 10.228338 ], [ 15.335576, 10.229299 ], [ 15.336013, 10.230302 ] ] } },
{ "type": "Feature", "properties": { "highway": "track", "longueur_m": 233.3, "inonde": false }, "geometry": { "type": "LineString", "coordinates": [ [ 15.343593, 10.225043 ], [ 15.343689, 10.224792 ], [ 15.34361, 10.224248 ], [ 15.343805, 10.223515 ], [ 15.3433, 10.223446 ] ] } },
{ "type": "Feature", "properties": { "highway": "track", "longueur_m": 265.2, "inonde": false }, "geometry": { "type": "LineString", "coordinates": [ [ 15.342608, 10.226326 ], [ 15.342572, 10.225766 ], [ 15.342418, 10.225308 ], [ 15.342209, 10.225003 ], [ 15.342152, 10.224619 ], [ 15.341831, 10.224144 ] ] } },
{ "type": "Feature", "properties": { "highway": "track", "longueur_m": 312.6, "inonde": false }, "geometry": { "type": "LineString", "coordinates": [ [ 15.343062, 10.226696 ], [ 15.342435, 10.226192 ], [ 15.341167, 10.225582 ], [ 15.341037, 10.225633 ], [ 15.340564, 10.225601 ] ] } },
{ "type": "Feature", "properties": { "highway": "residential", "longueur_m": 103.9, "inonde": false }, "geometry": { "type": "LineString", "coordinates": [ [ 15.343805, 10.223515 ], [ 15.343832, 10.223038 ], [ 15.343976, 10.222618 ] ] } },
{ "type": "Feature", "properties": { "highway": "residential", "longueur_m": 2.5, "inonde": false }, "geometry": { "type": "LineString", "coordinates": [ [ 15.339733, 10.222631 ], [ 15.339754, 10.222622 ] ] } },
{ "type": "Feature", "properties": { "highway": "track", "longueur_m": 1.3, "inonde": false }, "geometry": { "type": "LineString", "coordinates": [ [ 15.335792, 10.222626 ], [ 15.335793, 10.222638 ] ] } },
{ "type": "Feature", "properties": { "highway": "residential", "longueur_m": 85.0, "inonde": false }, "geometry": { "type": "LineString", "coordinates": [ [ 15.336024, 10.223723 ], [ 15.336115, 10.223887 ], [ 15.335562, 10.223958 ] ] } },
{ "type": "Feature", "properties": { "highway": "unclassified", "longueur_m": 8.0, "inonde": false }, "geometry": { "type": "LineString", "coordinates": [ [ 15.339054, 10.222695 ], [ 15.339042, 10.222623 ] ] } },
{ "type": "Feature", "properties": { "highway": "residential", "longueur_m": 102.2, "inonde": false }, "geometry": { "type": "LineString", "coordinates": [ [ 15.337448, 10.223435 ], [ 15.337099, 10.222947 ], [ 15.337088, 10.222635 ] ] } },
{ "type": "Feature", "properties": { "highway": "residential", "longueur_m": 196.8, "inonde": false }, "geometry": { "type": "LineString", "coordinates": [ [ 15.334901, 10.223326 ], [ 15.334937, 10.223788 ], [ 15.334851, 10.224388 ], [ 15.334916, 10.225095 ] ] } },
{ "type": "Feature", "properties": { "highway": "residential", "longueur_m": 133.7, "inonde": false }, "geometry": { "type": "LineString", "coordinates": [ [ 15.336344, 10.223624 ], [ 15.336537, 10.223828 ], [ 15.336796, 10.224424 ], [ 15.336981, 10.224634 ] ] } },
{ "type": "Feature", "properties": { "highway": "residential", "longueur_m": 110.2, "inonde": false }, "geometry": { "type": "LineString", "coordinates": [ [ 15.335786, 10.223708 ], [ 15.335645, 10.223513 ], [ 15.335635, 10.223347 ], [ 15.335387, 10.222824 ] ] } },
{ "type": "Feature", "properties": { "highway": "track", "longueur_m": 151.2, "inonde": false }, "geometry": { "type": "LineString", "coordinates": [ [ 15.334082, 10.223834 ], [ 15.333833, 10.223507 ], [ 15.333665, 10.22281 ], [ 15.333511, 10.222629 ] ] } },
{ "type": "Feature", "properties": { "highway": "residential", "longueur_m": 45.7, "inonde": false }, "geometry": { "type": "LineString", "coordinates": [ [ 15.331488, 10.222898 ], [ 15.33117, 10.222631 ] ] } },
{ "type": "Feature", "properties": { "highway": "residential", "longueur_m": 376.7, "inonde": false }, "geometry": { "type": "LineString", "coordinates": [ [ 15.32998, 10.222632 ], [ 15.330501, 10.222918 ], [ 15.330758, 10.222976 ], [ 15.331641, 10.222926 ], [ 15.331952, 10.223295 ], [ 15.332185, 10.223807 ], [ 15.332409, 10.224088 ], [ 15.33246, 10.224346 ] ] } },
{ "type": "Feature", "properties": { "highway": "residential", "longueur_m": 207.0, "inonde": false }, "geometry": { "type": "LineString", "coordinates": [ [ 15.329479, 10.22438 ], [ 15.329315, 10.224108 ], [ 15.329264, 10.223844 ], [ 15.329444, 10.223089 ], [ 15.32967, 10.222633 ] ] } },
{ "type": "Feature", "properties": { "highway": "residential", "longueur_m": 223.9, "inonde": false }, "geometry": { "type": "LineString", "coordinates": [ [ 15.32324, 10.224378 ], [ 15.322784, 10.223575 ], [ 15.322473, 10.223195 ], [ 15.322142, 10.222941 ], [ 15.322096, 10.22275 ] ] } },
{ "type": "Feature", "properties": { "highway": "track", "longueur_m": 227.0, "inonde": false }, "geometry": { "type": "LineString", "coordinates": [ [ 15.324308, 10.224618 ], [ 15.324592, 10.223897 ], [ 15.324579, 10.222638 ] ] } },
{ "type": "Feature", "properties": { "highway": "track", "longueur_m": 13.2, "inonde": false }, "geometry": { "type": "LineString", "coordinates": [ [ 15.322096, 10.22275 ], [ 15.32205, 10.22264 ] ] } },
{ "type": "Feature", "properties": { "highway": "track", "longueur_m": 30.5, "inonde": false }, "geometry": { "type": "LineString", "coordinates": [ [ 15.321784, 10.223524 ], [ 15.321507, 10.223545 ] ] } },
{ "type": "Feature", "properties": { "highway": "track", "longueur_m": 20.7, "inonde": false }, "geometry": { "type": "LineString", "coordinates": [ [ 15.321623, 10.224428 ], [ 15.321507, 10.224279 ] ] } },
{ "type": "Feature", "properties": { "highway": "residential", "longueur_m": 125.3, "inonde": false }, "geometry": { "type": "LineString", "coordinates": [ [ 15.321507, 10.223834 ], [ 15.32191, 10.22347 ], [ 15.322142, 10.222941 ] ] } }
]
}
