{
  "type": "FeatureCollection",
  "name": "emprise_sentinel_2026-06-26",
  "crs": { "type": "name", "properties": { "name": "urn:ogc:def:crs:OGC:1.3:CRS84" } },
  "features": [
    {
      "type": "Feature",
      "properties": {
        "nom": "Emprise Sentinel-2 L2A du 26/06/2026",
        "usage": "Telecharger B03 et B04 alignees sur les B08/B11 deja presentes",
        "source": "terra::ext() de 2026-06-26..._Sentinel-2_L2A_B08_(Raw).tiff",
        "crs_attendu": "EPSG:4326",
        "largeur_px": 2500,
        "hauteur_px": 2487,
        "res_x_deg": 0.001338135,
        "res_y_deg": 0.0013348,
        "journees": "J02, J04, J06, J07"
      },
      "geometry": {
        "type": "Polygon",
        "coordinates": [
          [
            [11.530151367187502, 2.4931093785661709],
            [14.875488281250002, 2.4931093785661709],
            [14.875488281250002, 5.8127569137510084],
            [11.530151367187502, 5.8127569137510084],
            [11.530151367187502, 2.4931093785661709]
          ]
        ]
      }
    }
  ]
}
