{
"type": "FeatureCollection",
"name": "J09_adm1_bati",
"xy_coordinate_resolution": 1e-06,
"features": [
{ "type": "Feature", "properties": { "GID_1": "CMR.1_1", "NAME_1": "Adamaoua", "superficie_km2": 64013.4, "bati_2015_km2": 56.96, "bati_2025_km2": 68.44, "couverture_ghsl_pct": 100.0, "mesure_disponible": true, "part_batie_2015_pct": 0.089, "part_batie_2025_pct": 0.107, "gain_bati_km2": 11.48, "croissance_pct": 20.2, "typologie": "Peu bati, croissance lente" }, "geometry": { "type": "Polygon", "coordinates": [ [ [ 13.283844, 7.700258 ], [ 13.257615, 7.690208 ], [ 13.252614, 7.649298 ], [ 13.260502, 7.624492 ], [ 13.245875, 7.60659 ], [ 13.226792, 7.612219 ], [ 13.22449, 7.60193 ], [ 13.183172, 7.604336 ], [ 13.140588, 7.594623 ], [ 13.12707, 7.602201 ], [ 13.122622, 7.597468 ], [ 13.08085, 7.602924 ], [ 13.036689, 7.629697 ], [ 13.016868, 7.629023 ], [ 12.976998, 7.648783 ], [ 12.895114, 7.658203 ], [ 12.875678, 7.668886 ], [ 12.841054, 7.662415 ], [ 12.799829, 7.667462 ], [ 12.77769, 7.68705 ], [ 12.740129, 7.6955 ], [ 12.731251, 7.731499 ], [ 12.704331, 7.719983 ], [ 12.635262, 7.752393 ], [ 12.634279, 7.771798 ], [ 12.64328, 7.782326 ], [ 12.631294, 7.825425 ], [ 12.652927, 7.867086 ], [ 12.648899, 7.877536 ], [ 12.635924, 7.88405 ], [ 12.626757, 7.931521 ], [ 12.486094, 7.92441 ], [ 12.43033, 7.973039 ], [ 12.39911, 8.023184 ], [ 12.349214, 8.053699 ], [ 12.327128, 8.073472 ], [ 12.324452, 8.086301 ], [ 12.287656, 8.113744 ], [ 12.27607, 8.151496 ], [ 12.288486, 8.168504 ], [ 12.291426, 8.187595 ], [ 12.28059, 8.176501 ], [ 12.256371, 8.175818 ], [ 12.243575, 8.16695 ], [ 12.24161, 8.149935 ], [ 12.226858, 8.136246 ], [ 12.228408, 8.125814 ], [ 12.219705, 8.121538 ], [ 12.209529, 8.097104 ], [ 12.218387, 8.068984 ], [ 12.221256, 8.002603 ], [ 12.205727, 7.970577 ], [ 12.187638, 7.958768 ], [ 12.188004, 7.943318 ], [ 12.160256, 7.915926 ], [ 12.153691, 7.8953 ], [ 12.088475, 7.836422 ], [ 12.076456, 7.805112 ], [ 12.063314, 7.794828 ], [ 12.063023, 7.780674 ], [ 12.05247, 7.772551 ], [ 12.055311, 7.757185 ], [ 12.031876, 7.730211 ], [ 12.026993, 7.665259 ], [ 12.007757, 7.66188 ], [ 12.018832, 7.622357 ], [ 12.020507, 7.539728 ], [ 12.034344, 7.521107 ], [ 11.974037, 7.487347 ], [ 11.965349, 7.474045 ], [ 11.962316, 7.432998 ], [ 11.949068, 7.43044 ], [ 11.940254, 7.416812 ], [ 11.943954, 7.398922 ], [ 11.935762, 7.379846 ], [ 11.916112, 7.3727 ], [ 11.901709, 7.349622 ], [ 11.89229, 7.348518 ], [ 11.88068, 7.307284 ], [ 11.836669, 7.252326 ], [ 11.816765, 7.245437 ], [ 11.811296, 7.233619 ], [ 11.813703, 7.228085 ], [ 11.854256, 7.22677 ], [ 11.840994, 7.209957 ], [ 11.835766, 7.176638 ], [ 11.844941, 7.165263 ], [ 11.842943, 7.153643 ], [ 11.853634, 7.129507 ], [ 11.87327, 7.1084 ], [ 11.871127, 7.079436 ], [ 11.849684, 7.089482 ], [ 11.836514, 7.086731 ], [ 11.826861, 7.073035 ], [ 11.80686, 7.081401 ], [ 11.777204, 7.048419 ], [ 11.732902, 7.057717 ], [ 11.709924, 7.055349 ], [ 11.717101, 7.031593 ], [ 11.68572, 7.021285 ], [ 11.669208, 6.998487 ], [ 11.656242, 6.996499 ], [ 11.660444, 6.988554 ], [ 11.636551, 6.988502 ], [ 11.619241, 6.976115 ], [ 11.624932, 6.969149 ], [ 11.623055, 6.950442 ], [ 11.606589, 6.935048 ], [ 11.606627, 6.911232 ], [ 11.583251, 6.908845 ], [ 11.564295, 6.887949 ], [ 11.56467, 6.875737 ], [ 11.553371, 6.859167 ], [ 11.554748, 6.851294 ], [ 11.580876, 6.839496 ], [ 11.579449, 6.817455 ], [ 11.591327, 6.814328 ], [ 11.597304, 6.801832 ], [ 11.571569, 6.785135 ], [ 11.570743, 6.772285 ], [ 11.585802, 6.740593 ], [ 11.576042, 6.724856 ], [ 11.560012, 6.724137 ], [ 11.551467, 6.715819 ], [ 11.553865, 6.683958 ], [ 11.548646, 6.677214 ], [ 11.556046, 6.667692 ], [ 11.533667, 6.654108 ], [ 11.537303, 6.649263 ], [ 11.525756, 6.645046 ], [ 11.519907, 6.628893 ], [ 11.522038, 6.618969 ], [ 11.496593, 6.600743 ], [ 11.484277, 6.599223 ], [ 11.463951, 6.611293 ], [ 11.448317, 6.600688 ], [ 11.418872, 6.597209 ], [ 11.432535, 6.554647 ], [ 11.432087, 6.544853 ], [ 11.419384, 6.541709 ], [ 11.425989, 6.531851 ], [ 11.386539, 6.527803 ], [ 11.37981, 6.520569 ], [ 11.356501, 6.525676 ], [ 11.350846, 6.514971 ], [ 11.357165, 6.505155 ], [ 11.350897, 6.500007 ], [ 11.315584, 6.508752 ], [ 11.308849, 6.520513 ], [ 11.280172, 6.53859 ], [ 11.242861, 6.523064 ], [ 11.225032, 6.538867 ], [ 11.191735, 6.538615 ], [ 11.205587, 6.486719 ], [ 11.192886, 6.458091 ], [ 11.192342, 6.448331 ], [ 11.207355, 6.43005 ], [ 11.198368, 6.399192 ], [ 11.205383, 6.392822 ], [ 11.19771, 6.362662 ], [ 11.209311, 6.346812 ], [ 11.205887, 6.32227 ], [ 11.185087, 6.303437 ], [ 11.182426, 6.268223 ], [ 11.191743, 6.259529 ], [ 11.219489, 6.256494 ], [ 11.240342, 6.264658 ], [ 11.258501, 6.254013 ], [ 11.264956, 6.258413 ], [ 11.278686, 6.247183 ], [ 11.290889, 6.25508 ], [ 11.303706, 6.242344 ], [ 11.29573, 6.211987 ], [ 11.271873, 6.206354 ], [ 11.27117, 6.18311 ], [ 11.262687, 6.174592 ], [ 11.280918, 6.158211 ], [ 11.262527, 6.136853 ], [ 11.27793, 6.117667 ], [ 11.279429, 6.091897 ], [ 11.289238, 6.081289 ], [ 11.285274, 6.071141 ], [ 11.296558, 6.077031 ], [ 11.299066, 6.051861 ], [ 11.307961, 6.039748 ], [ 11.266065, 5.99675 ], [ 11.264049, 5.972384 ], [ 11.299394, 5.987726 ], [ 11.304045, 5.980365 ], [ 11.311269, 5.996433 ], [ 11.321587, 5.992055 ], [ 11.327628, 5.99999 ], [ 11.33723, 5.993315 ], [ 11.385264, 6.007702 ], [ 11.456246, 6.017205 ], [ 11.462377, 6.024871 ], [ 11.496591, 6.030287 ], [ 11.502897, 6.037687 ], [ 11.553732, 6.045852 ], [ 11.577108, 6.057327 ], [ 11.593613, 6.054241 ], [ 11.603407, 6.070112 ], [ 11.615466, 6.061211 ], [ 11.623383, 6.072315 ], [ 11.664734, 6.074146 ], [ 11.661623, 6.088222 ], [ 11.67481, 6.093109 ], [ 11.684272, 6.112604 ], [ 11.705076, 6.121342 ], [ 11.706493, 6.139638 ], [ 11.71417, 6.137743 ], [ 11.763167, 6.165521 ], [ 11.77367, 6.163433 ], [ 11.789688, 6.185719 ], [ 11.796479, 6.183385 ], [ 11.814119, 6.194697 ], [ 11.835037, 6.190872 ], [ 11.840832, 6.200655 ], [ 11.861644, 6.210003 ], [ 11.871587, 6.202523 ], [ 11.900491, 6.20546 ], [ 11.910747, 6.222908 ], [ 11.927224, 6.215214 ], [ 11.929376, 6.22086 ], [ 11.938466, 6.219307 ], [ 11.946229, 6.233055 ], [ 11.944993, 6.249152 ], [ 11.992592, 6.26126 ], [ 12.003513, 6.255451 ], [ 11.98956, 6.225208 ], [ 11.993113, 6.2129 ], [ 12.093912, 6.154244 ], [ 12.18443, 6.153447 ], [ 12.20449, 6.185057 ], [ 12.224239, 6.179546 ], [ 12.257261, 6.192955 ], [ 12.295089, 6.198024 ], [ 12.332211, 6.16094 ], [ 12.38705, 6.134083 ], [ 12.401323, 6.115435 ], [ 12.458616, 6.087411 ], [ 12.476875, 6.043997 ], [ 12.496073, 6.037069 ], [ 12.502731, 6.00186 ], [ 12.531721, 6.000868 ], [ 14.379948, 5.999982 ], [ 14.380189, 6.014135 ], [ 14.404576, 6.014406 ], [ 14.382455, 6.036062 ], [ 14.386478, 6.059511 ], [ 14.398177, 6.061241 ], [ 14.417741, 6.041794 ], [ 14.423191, 6.079329 ], [ 14.470106, 6.09412 ], [ 14.486289, 6.114843 ], [ 14.508037, 6.1282 ], [ 14.531437, 6.165884 ], [ 14.563022, 6.191108 ], [ 14.739759, 6.25089 ], [ 14.812823, 6.364129 ], [ 14.801402, 6.401122 ], [ 14.850963, 6.49262 ], [ 14.961637, 6.749874 ], [ 15.016115, 6.769373 ], [ 15.04514, 6.76193 ], [ 15.060701, 6.778402 ], [ 15.068095, 6.814915 ], [ 15.114456, 6.914992 ], [ 15.138985, 6.943492 ], [ 15.132983, 6.97062 ], [ 15.144467, 7.027078 ], [ 15.159811, 7.045779 ], [ 15.168665, 7.073523 ], [ 15.188768, 7.067372 ], [ 15.194022, 7.072961 ], [ 15.192645, 7.085938 ], [ 15.212354, 7.121476 ], [ 15.223482, 7.126717 ], [ 15.221761, 7.140177 ], [ 15.211744, 7.146739 ], [ 15.208509, 7.176489 ], [ 15.232512, 7.217892 ], [ 15.213024, 7.224803 ], [ 15.103199, 7.143596 ], [ 15.102549, 7.159123 ], [ 15.087193, 7.165707 ], [ 15.079369, 7.179426 ], [ 15.054788, 7.18775 ], [ 14.995313, 7.138256 ], [ 14.978228, 7.136764 ], [ 14.933106, 7.112682 ], [ 14.89325, 7.105097 ], [ 14.87119, 7.079852 ], [ 14.834172, 7.085653 ], [ 14.773238, 7.05498 ], [ 14.765334, 7.040408 ], [ 14.725649, 7.023557 ], [ 14.651938, 7.016165 ], [ 14.645, 7.025968 ], [ 14.655542, 7.045945 ], [ 14.646139, 7.064829 ], [ 14.600678, 7.067857 ], [ 14.587788, 7.074683 ], [ 14.563533, 7.056677 ], [ 14.572813, 7.066858 ], [ 14.569347, 7.080145 ], [ 14.54122, 7.105165 ], [ 14.533492, 7.128987 ], [ 14.520876, 7.135143 ], [ 14.520239, 7.161454 ], [ 14.486036, 7.150046 ], [ 14.457396, 7.156868 ], [ 14.443304, 7.151603 ], [ 14.431832, 7.165941 ], [ 14.404411, 7.147201 ], [ 14.391817, 7.155546 ], [ 14.384884, 7.15029 ], [ 14.321863, 7.164275 ], [ 14.332682, 7.191605 ], [ 14.354008, 7.194978 ], [ 14.361959, 7.213665 ], [ 14.352699, 7.237892 ], [ 14.353862, 7.271529 ], [ 14.332843, 7.27826 ], [ 14.340898, 7.305334 ], [ 14.313561, 7.310901 ], [ 14.304883, 7.303758 ], [ 14.245873, 7.352694 ], [ 14.244139, 7.367588 ], [ 14.235728, 7.375219 ], [ 14.24194, 7.391641 ], [ 14.215977, 7.401195 ], [ 14.220279, 7.433849 ], [ 14.213675, 7.457002 ], [ 14.182642, 7.458225 ], [ 14.174986, 7.473286 ], [ 14.144822, 7.483748 ], [ 14.132311, 7.508688 ], [ 14.136558, 7.552695 ], [ 14.125642, 7.567032 ], [ 14.112594, 7.57081 ], [ 14.083734, 7.554745 ], [ 14.032388, 7.561064 ], [ 14.006171, 7.550397 ], [ 13.980392, 7.577782 ], [ 13.951445, 7.579257 ], [ 13.930847, 7.592178 ], [ 13.914268, 7.588646 ], [ 13.874242, 7.616859 ], [ 13.872741, 7.627847 ], [ 13.891754, 7.651767 ], [ 13.873081, 7.674588 ], [ 13.885555, 7.694956 ], [ 13.883561, 7.704518 ], [ 13.860689, 7.711553 ], [ 13.825507, 7.746297 ], [ 13.804565, 7.74682 ], [ 13.786901, 7.758087 ], [ 13.764981, 7.79917 ], [ 13.764399, 7.815207 ], [ 13.734192, 7.859915 ], [ 13.7447, 7.883555 ], [ 13.744262, 7.912089 ], [ 13.715934, 7.928918 ], [ 13.714105, 7.944683 ], [ 13.699512, 7.957635 ], [ 13.664938, 7.930448 ], [ 13.632793, 7.923364 ], [ 13.588793, 7.926142 ], [ 13.57297, 7.906274 ], [ 13.506917, 7.923506 ], [ 13.440799, 7.90904 ], [ 13.42136, 7.917647 ], [ 13.425757, 7.943851 ], [ 13.412724, 7.960599 ], [ 13.365136, 7.969981 ], [ 13.354734, 7.964363 ], [ 13.327539, 7.973622 ], [ 13.355926, 7.932084 ], [ 13.325822, 7.90118 ], [ 13.340382, 7.874202 ], [ 13.34087, 7.856727 ], [ 13.309674, 7.821151 ], [ 13.294424, 7.818347 ], [ 13.306158, 7.786245 ], [ 13.283922, 7.755346 ], [ 13.29548, 7.743486 ], [ 13.289311, 7.739347 ], [ 13.283844, 7.700258 ] ] ] } },
{ "type": "Feature", "properties": { "GID_1": "CMR.2_1", "NAME_1": "Centre", "superficie_km2": 68964.2, "bati_2015_km2": 192.38, "bati_2025_km2": 222.085, "couverture_ghsl_pct": 100.0, "mesure_disponible": true, "part_batie_2015_pct": 0.279, "part_batie_2025_pct": 0.322, "gain_bati_km2": 29.705, "croissance_pct": 15.4, "typologie": "Deja bati, croissance rapide" }, "geometry": { "type": "Polygon", "coordinates": [ [ [ 11.780415, 3.330766 ], [ 11.836199, 3.371823 ], [ 11.850263, 3.365183 ], [ 11.860111, 3.381315 ], [ 11.861237, 3.408184 ], [ 11.892361, 3.473785 ], [ 11.92171, 3.45543 ], [ 11.925672, 3.44423 ], [ 11.941745, 3.441407 ], [ 11.949867, 3.45257 ], [ 11.980546, 3.434497 ], [ 11.982306, 3.41881 ], [ 11.993971, 3.406726 ], [ 12.133683, 3.361537 ], [ 12.138513, 3.324809 ], [ 12.128966, 3.314036 ], [ 12.129587, 3.299694 ], [ 12.139739, 3.29144 ], [ 12.145738, 3.293046 ], [ 12.146828, 3.307 ], [ 12.158824, 3.310499 ], [ 12.149997, 3.316455 ], [ 12.160774, 3.325407 ], [ 12.179978, 3.32219 ], [ 12.192652, 3.329128 ], [ 12.191271, 3.313741 ], [ 12.205151, 3.311306 ], [ 12.223233, 3.343558 ], [ 12.254879, 3.476519 ], [ 12.397055, 3.597401 ], [ 12.432778, 3.610934 ], [ 12.439213, 3.652198 ], [ 12.44892, 3.653307 ], [ 12.446115, 3.665934 ], [ 12.457289, 3.67736 ], [ 12.477624, 3.671546 ], [ 12.500776, 3.680725 ], [ 12.527772, 3.627006 ], [ 12.52614, 3.573782 ], [ 12.543618, 3.567789 ], [ 12.563605, 3.533432 ], [ 12.601735, 3.615314 ], [ 12.618118, 3.710116 ], [ 12.604538, 3.732531 ], [ 12.548964, 3.776522 ], [ 12.551463, 3.791632 ], [ 12.530394, 3.798001 ], [ 12.501583, 3.829958 ], [ 12.494409, 3.890153 ], [ 12.500475, 3.895665 ], [ 12.507191, 3.878919 ], [ 12.520324, 3.875669 ], [ 12.556915, 3.904904 ], [ 12.556974, 3.91896 ], [ 12.613199, 3.927342 ], [ 12.632442, 3.939928 ], [ 12.65468, 3.934614 ], [ 12.726468, 4.010413 ], [ 12.764193, 4.03036 ], [ 12.797708, 4.034036 ], [ 12.807898, 4.059536 ], [ 12.80274, 4.067438 ], [ 12.791127, 4.077712 ], [ 12.755658, 4.087354 ], [ 12.750422, 4.101324 ], [ 12.751995, 4.120266 ], [ 12.783752, 4.132357 ], [ 12.776512, 4.148253 ], [ 12.793396, 4.175849 ], [ 12.783566, 4.204107 ], [ 12.8044, 4.258401 ], [ 12.795481, 4.29879 ], [ 12.776475, 4.293882 ], [ 12.770352, 4.299661 ], [ 12.781743, 4.308546 ], [ 12.783078, 4.342391 ], [ 12.842839, 4.37466 ], [ 12.877204, 4.517859 ], [ 12.979486, 4.564664 ], [ 12.97687, 4.590008 ], [ 13.000216, 4.592432 ], [ 13.011426, 4.605671 ], [ 13.058454, 4.594975 ], [ 13.091351, 4.561586 ], [ 13.129222, 4.545727 ], [ 13.171256, 4.553677 ], [ 13.21216, 4.549927 ], [ 13.206402, 4.562409 ], [ 13.213075, 4.579394 ], [ 13.209188, 4.603569 ], [ 13.228879, 4.652074 ], [ 13.222853, 4.672751 ], [ 13.227416, 4.690917 ], [ 13.219311, 4.700967 ], [ 13.235261, 4.708211 ], [ 13.222241, 4.729569 ], [ 13.223794, 4.75818 ], [ 13.229138, 4.765063 ], [ 13.237161, 4.758949 ], [ 13.236691, 4.768847 ], [ 13.246797, 4.773785 ], [ 13.244125, 4.787632 ], [ 13.232732, 4.780362 ], [ 13.242752, 4.788598 ], [ 13.236672, 4.800127 ], [ 13.240072, 4.818298 ], [ 13.223425, 4.836064 ], [ 13.20997, 4.838594 ], [ 13.209276, 4.846366 ], [ 13.198141, 4.846755 ], [ 13.20682, 4.860745 ], [ 13.196024, 4.864643 ], [ 13.18786, 4.916404 ], [ 13.117928, 4.930141 ], [ 13.065726, 4.930037 ], [ 13.039551, 4.952652 ], [ 13.014436, 4.958126 ], [ 13.058416, 5.035328 ], [ 13.057286, 5.075348 ], [ 13.030211, 5.107444 ], [ 13.000072, 5.12498 ], [ 12.904875, 5.214336 ], [ 12.809184, 5.279751 ], [ 12.842689, 5.305836 ], [ 12.861611, 5.309124 ], [ 12.88667, 5.325784 ], [ 12.904411, 5.326949 ], [ 12.935111, 5.312278 ], [ 12.955447, 5.320875 ], [ 13.000246, 5.384972 ], [ 13.076844, 5.532378 ], [ 13.071609, 5.558698 ], [ 13.054693, 5.570095 ], [ 13.055565, 5.588711 ], [ 13.009089, 5.642242 ], [ 13.013516, 5.68329 ], [ 13.005645, 5.681962 ], [ 13.000604, 5.705729 ], [ 12.964232, 5.715985 ], [ 12.954019, 5.790769 ], [ 12.899928, 5.867671 ], [ 12.886223, 5.868511 ], [ 12.871892, 5.901926 ], [ 12.877553, 5.981608 ], [ 12.887909, 6.000365 ], [ 12.502731, 6.00186 ], [ 12.496073, 6.037069 ], [ 12.476875, 6.043997 ], [ 12.458616, 6.087411 ], [ 12.401323, 6.115435 ], [ 12.38705, 6.134083 ], [ 12.332211, 6.16094 ], [ 12.295089, 6.198024 ], [ 12.257261, 6.192955 ], [ 12.224239, 6.179546 ], [ 12.20449, 6.185057 ], [ 12.18443, 6.153447 ], [ 12.093912, 6.154244 ], [ 11.993113, 6.2129 ], [ 11.98956, 6.225208 ], [ 12.003513, 6.255451 ], [ 11.99851, 6.261226 ], [ 11.944993, 6.249152 ], [ 11.946229, 6.233055 ], [ 11.938466, 6.219307 ], [ 11.929376, 6.22086 ], [ 11.927224, 6.215214 ], [ 11.910747, 6.222908 ], [ 11.900491, 6.20546 ], [ 11.871587, 6.202523 ], [ 11.861644, 6.210003 ], [ 11.840832, 6.200655 ], [ 11.835037, 6.190872 ], [ 11.814119, 6.194697 ], [ 11.796479, 6.183385 ], [ 11.789688, 6.185719 ], [ 11.77367, 6.163433 ], [ 11.763167, 6.165521 ], [ 11.71417, 6.137743 ], [ 11.706493, 6.139638 ], [ 11.705076, 6.121342 ], [ 11.684272, 6.112604 ], [ 11.67481, 6.093109 ], [ 11.661623, 6.088222 ], [ 11.664734, 6.074146 ], [ 11.623383, 6.072315 ], [ 11.615466, 6.061211 ], [ 11.603407, 6.070112 ], [ 11.593613, 6.054241 ], [ 11.577108, 6.057327 ], [ 11.553732, 6.045852 ], [ 11.502897, 6.037687 ], [ 11.496591, 6.030287 ], [ 11.462377, 6.024871 ], [ 11.456246, 6.017205 ], [ 11.385264, 6.007702 ], [ 11.33723, 5.993315 ], [ 11.327628, 5.99999 ], [ 11.321587, 5.992055 ], [ 11.311269, 5.996433 ], [ 11.304045, 5.980365 ], [ 11.299394, 5.987726 ], [ 11.262047, 5.971892 ], [ 11.278332, 5.947877 ], [ 11.271115, 5.928278 ], [ 11.275586, 5.915479 ], [ 11.256176, 5.912539 ], [ 11.253228, 5.90411 ], [ 11.268718, 5.893703 ], [ 11.264094, 5.882315 ], [ 11.278029, 5.873805 ], [ 11.270631, 5.858342 ], [ 11.276205, 5.845335 ], [ 11.26949, 5.824336 ], [ 11.272746, 5.80972 ], [ 11.286159, 5.796583 ], [ 11.302949, 5.799031 ], [ 11.316862, 5.786304 ], [ 11.306649, 5.769932 ], [ 11.292578, 5.768781 ], [ 11.292609, 5.751572 ], [ 11.278957, 5.729688 ], [ 11.271325, 5.730422 ], [ 11.257283, 5.711054 ], [ 11.24454, 5.715533 ], [ 11.225224, 5.682798 ], [ 11.201968, 5.670307 ], [ 11.21333, 5.647229 ], [ 11.186551, 5.604048 ], [ 11.205848, 5.580823 ], [ 11.203298, 5.56957 ], [ 11.212592, 5.557044 ], [ 11.207704, 5.539147 ], [ 11.215191, 5.527249 ], [ 11.195189, 5.468139 ], [ 11.170626, 5.452226 ], [ 11.194289, 5.413794 ], [ 11.186231, 5.40708 ], [ 11.182935, 5.384044 ], [ 11.14087, 5.358829 ], [ 11.127506, 5.327272 ], [ 11.105005, 5.325135 ], [ 11.072282, 5.298775 ], [ 11.082587, 5.257786 ], [ 11.066494, 5.217475 ], [ 11.081004, 5.203528 ], [ 11.08015, 5.188231 ], [ 11.061968, 5.18507 ], [ 11.048368, 5.17062 ], [ 11.015141, 5.172136 ], [ 11.013913, 5.164892 ], [ 10.998031, 5.1585 ], [ 10.986657, 5.084149 ], [ 10.970727, 5.061348 ], [ 10.96995, 5.036689 ], [ 10.960199, 5.032088 ], [ 10.945269, 5.006867 ], [ 10.931401, 5.001673 ], [ 10.962124, 4.970579 ], [ 10.94056, 4.941551 ], [ 10.941616, 4.924838 ], [ 10.867392, 4.941459 ], [ 10.851065, 4.953485 ], [ 10.856185, 4.954074 ], [ 10.853739, 4.97663 ], [ 10.837685, 4.978789 ], [ 10.833946, 4.970142 ], [ 10.823812, 4.971378 ], [ 10.818027, 4.984683 ], [ 10.8098, 4.986517 ], [ 10.819873, 4.999074 ], [ 10.811274, 5.011077 ], [ 10.785096, 5.019706 ], [ 10.765511, 5.015934 ], [ 10.749221, 5.005809 ], [ 10.721177, 4.953734 ], [ 10.699683, 4.948857 ], [ 10.690763, 4.954216 ], [ 10.68108, 4.935615 ], [ 10.641485, 4.91729 ], [ 10.598439, 4.882257 ], [ 10.564317, 4.884754 ], [ 10.520885, 4.899353 ], [ 10.492644, 4.884112 ], [ 10.477817, 4.851422 ], [ 10.444452, 4.832967 ], [ 10.417158, 4.788218 ], [ 10.378411, 4.786283 ], [ 10.360703, 4.76467 ], [ 10.337878, 4.69131 ], [ 10.3571, 4.666301 ], [ 10.363068, 4.690959 ], [ 10.377654, 4.708451 ], [ 10.416789, 4.705654 ], [ 10.455976, 4.729033 ], [ 10.465141, 4.744117 ], [ 10.492593, 4.722008 ], [ 10.490127, 4.694929 ], [ 10.471417, 4.674126 ], [ 10.46654, 4.645239 ], [ 10.456213, 4.649086 ], [ 10.431359, 4.615507 ], [ 10.417196, 4.608286 ], [ 10.385972, 4.54753 ], [ 10.378479, 4.511598 ], [ 10.394867, 4.476325 ], [ 10.427972, 4.474851 ], [ 10.441243, 4.489525 ], [ 10.469722, 4.482722 ], [ 10.473122, 4.476775 ], [ 10.46567, 4.463097 ], [ 10.478279, 4.447263 ], [ 10.487436, 4.461542 ], [ 10.507612, 4.466837 ], [ 10.517216, 4.453729 ], [ 10.54251, 4.460422 ], [ 10.5749, 4.454412 ], [ 10.599823, 4.474998 ], [ 10.60281, 4.464924 ], [ 10.616174, 4.474761 ], [ 10.616458, 4.467109 ], [ 10.639416, 4.460715 ], [ 10.676477, 4.481069 ], [ 10.680017, 4.493847 ], [ 10.685513, 4.484471 ], [ 10.693643, 4.486063 ], [ 10.697036, 4.521695 ], [ 10.725928, 4.522231 ], [ 10.723174, 4.502605 ], [ 10.737393, 4.492001 ], [ 10.776428, 4.497444 ], [ 10.786091, 4.510809 ], [ 10.776607, 4.529457 ], [ 10.784626, 4.608263 ], [ 10.831185, 4.611769 ], [ 10.877053, 4.580946 ], [ 10.890063, 4.607387 ], [ 10.920257, 4.6064 ], [ 10.913711, 4.520953 ], [ 10.902924, 4.500144 ], [ 10.890779, 4.497055 ], [ 10.894118, 4.469464 ], [ 10.913996, 4.437803 ], [ 10.927426, 4.434245 ], [ 10.944027, 4.415881 ], [ 10.937689, 4.408146 ], [ 10.942451, 4.388303 ], [ 10.94965, 4.379628 ], [ 10.9726, 4.374132 ], [ 10.977303, 4.33164 ], [ 10.998816, 4.313666 ], [ 11.000393, 4.303193 ], [ 11.013427, 4.302856 ], [ 11.019879, 4.278078 ], [ 11.040708, 4.267554 ], [ 11.035971, 4.258407 ], [ 11.045157, 4.244189 ], [ 11.067405, 4.240104 ], [ 11.077399, 4.228199 ], [ 11.076099, 4.191665 ], [ 10.947715, 4.128578 ], [ 10.850334, 4.114819 ], [ 10.834147, 4.095024 ], [ 10.77939, 4.087497 ], [ 10.758895, 4.067709 ], [ 10.72488, 4.054896 ], [ 10.692425, 4.068355 ], [ 10.682771, 4.054583 ], [ 10.696085, 4.044889 ], [ 10.692147, 4.031407 ], [ 10.702256, 4.023231 ], [ 10.691859, 3.989022 ], [ 10.668092, 3.985043 ], [ 10.645, 3.967773 ], [ 10.647446, 3.936859 ], [ 10.641499, 3.92046 ], [ 10.659859, 3.877131 ], [ 10.666294, 3.836041 ], [ 10.653065, 3.836771 ], [ 10.644118, 3.823499 ], [ 10.645976, 3.798829 ], [ 10.654581, 3.791362 ], [ 10.643563, 3.795007 ], [ 10.645056, 3.789366 ], [ 10.619681, 3.780454 ], [ 10.621449, 3.760817 ], [ 10.607286, 3.743425 ], [ 10.605651, 3.726816 ], [ 10.597647, 3.734281 ], [ 10.591521, 3.727748 ], [ 10.583034, 3.745181 ], [ 10.575209, 3.741269 ], [ 10.572415, 3.748724 ], [ 10.58115, 3.756763 ], [ 10.551702, 3.767489 ], [ 10.548713, 3.777865 ], [ 10.536002, 3.788561 ], [ 10.529884, 3.786356 ], [ 10.524089, 3.796838 ], [ 10.521073, 3.792212 ], [ 10.512265, 3.799275 ], [ 10.508738, 3.787904 ], [ 10.503753, 3.803821 ], [ 10.492525, 3.802834 ], [ 10.488338, 3.816132 ], [ 10.473992, 3.809914 ], [ 10.468402, 3.823315 ], [ 10.458478, 3.82303 ], [ 10.406029, 3.809827 ], [ 10.392969, 3.792328 ], [ 10.376822, 3.786815 ], [ 10.383226, 3.779757 ], [ 10.363994, 3.724003 ], [ 10.373264, 3.691061 ], [ 10.352454, 3.649305 ], [ 10.340129, 3.651237 ], [ 10.323265, 3.56416 ], [ 10.298295, 3.553219 ], [ 10.284928, 3.525546 ], [ 10.273191, 3.517607 ], [ 10.239621, 3.518962 ], [ 10.23059, 3.509938 ], [ 10.243084, 3.480538 ], [ 10.239208, 3.466013 ], [ 10.254584, 3.456051 ], [ 10.251194, 3.413266 ], [ 10.290528, 3.336348 ], [ 10.300521, 3.330496 ], [ 10.554167, 3.403921 ], [ 10.762387, 3.473424 ], [ 10.81531, 3.458586 ], [ 10.820215, 3.433599 ], [ 10.833617, 3.419888 ], [ 10.827406, 3.408799 ], [ 10.861649, 3.388254 ], [ 10.895684, 3.409049 ], [ 10.954355, 3.415247 ], [ 10.966887, 3.396657 ], [ 10.982115, 3.393373 ], [ 10.990496, 3.394025 ], [ 10.999867, 3.413813 ], [ 11.016237, 3.410047 ], [ 11.031579, 3.415373 ], [ 11.06438, 3.392243 ], [ 11.061293, 3.373304 ], [ 11.067646, 3.361042 ], [ 11.082508, 3.365508 ], [ 11.087807, 3.349996 ], [ 11.079691, 3.338914 ], [ 11.099669, 3.331599 ], [ 11.098674, 3.311221 ], [ 11.113203, 3.293584 ], [ 11.118582, 3.271183 ], [ 11.111591, 3.251678 ], [ 11.139351, 3.233632 ], [ 11.159142, 3.229571 ], [ 11.171205, 3.216628 ], [ 11.179001, 3.166859 ], [ 11.173546, 3.154141 ], [ 11.184397, 3.152687 ], [ 11.189026, 3.135933 ], [ 11.218846, 3.104489 ], [ 11.270498, 3.135472 ], [ 11.297047, 3.132926 ], [ 11.31281, 3.116532 ], [ 11.331456, 3.113333 ], [ 11.355126, 3.143512 ], [ 11.404712, 3.144546 ], [ 11.412589, 3.134961 ], [ 11.501379, 3.136091 ], [ 11.505745, 3.130915 ], [ 11.545152, 3.135698 ], [ 11.55031, 3.143912 ], [ 11.564949, 3.137467 ], [ 11.585847, 3.161519 ], [ 11.614885, 3.167854 ], [ 11.640818, 3.187683 ], [ 11.68354, 3.187285 ], [ 11.69908, 3.198625 ], [ 11.701807, 3.258203 ], [ 11.709755, 3.277022 ], [ 11.736783, 3.278287 ], [ 11.745658, 3.28754 ], [ 11.734559, 3.33472 ], [ 11.759066, 3.318489 ], [ 11.770106, 3.319606 ], [ 11.774552, 3.309934 ], [ 11.780415, 3.330766 ] ] ] } },
{ "type": "Feature", "properties": { "GID_1": "CMR.3_1", "NAME_1": "Est", "superficie_km2": 108896.4, "bati_2015_km2": 48.693, "bati_2025_km2": 62.976, "couverture_ghsl_pct": 100.0, "mesure_disponible": true, "part_batie_2015_pct": 0.045, "part_batie_2025_pct": 0.058, "gain_bati_km2": 14.283, "croissance_pct": 29.3, "typologie": "Peu bati, croissance lente" }, "geometry": { "type": "Polygon", "coordinates": [ [ [ 14.595405, 2.203478 ], [ 14.610351, 2.192964 ], [ 14.628347, 2.158787 ], [ 14.645099, 2.155631 ], [ 14.642056, 2.139736 ], [ 14.648054, 2.131503 ], [ 14.683173, 2.135245 ], [ 14.698881, 2.11246 ], [ 14.726768, 2.105572 ], [ 14.71839, 2.118017 ], [ 14.72448, 2.126444 ], [ 14.752464, 2.108448 ], [ 14.751704, 2.098299 ], [ 14.738191, 2.095903 ], [ 14.741237, 2.089393 ], [ 14.761697, 2.099449 ], [ 14.770929, 2.09677 ], [ 14.774357, 2.084227 ], [ 14.764366, 2.072449 ], [ 14.770173, 2.063641 ], [ 14.792917, 2.074368 ], [ 14.809098, 2.059816 ], [ 14.829464, 2.06834 ], [ 14.843738, 2.085385 ], [ 14.862391, 2.081173 ], [ 14.866579, 2.086344 ], [ 14.859439, 2.106834 ], [ 14.874762, 2.110761 ], [ 14.881903, 2.071504 ], [ 14.913595, 2.062697 ], [ 14.910075, 2.039239 ], [ 14.891899, 2.021715 ], [ 14.917976, 2.001514 ], [ 14.97165, 2.010133 ], [ 14.983546, 2.035315 ], [ 14.999821, 2.016644 ], [ 15.033044, 1.999739 ], [ 15.043292, 1.978359 ], [ 15.05082, 1.978493 ], [ 15.069341, 2.000812 ], [ 15.0774, 1.982514 ], [ 15.10851, 1.980836 ], [ 15.121236, 2.010729 ], [ 15.136758, 2.006237 ], [ 15.147083, 2.011933 ], [ 15.152749, 2.040619 ], [ 15.162209, 2.04169 ], [ 15.177328, 2.014678 ], [ 15.194784, 2.035319 ], [ 15.207176, 2.038937 ], [ 15.247079, 2.02928 ], [ 15.248876, 2.018824 ], [ 15.240082, 2.01105 ], [ 15.292305, 1.989326 ], [ 15.309088, 1.966066 ], [ 15.304887, 1.938118 ], [ 15.318808, 1.931547 ], [ 15.33573, 1.941597 ], [ 15.33506, 1.926986 ], [ 15.346182, 1.911769 ], [ 15.415, 1.943456 ], [ 15.42806, 1.958466 ], [ 15.475759, 1.972125 ], [ 15.486154, 1.982578 ], [ 15.531909, 1.955487 ], [ 15.544968, 1.963123 ], [ 15.564214, 1.948171 ], [ 15.588995, 1.95339 ], [ 15.66732, 1.927826 ], [ 15.686506, 1.934252 ], [ 15.718141, 1.92365 ], [ 15.727795, 1.912789 ], [ 15.748047, 1.919482 ], [ 15.785068, 1.889776 ], [ 15.805902, 1.859005 ], [ 15.829741, 1.851086 ], [ 15.846251, 1.833117 ], [ 15.867897, 1.831699 ], [ 15.88346, 1.787259 ], [ 15.911371, 1.797097 ], [ 15.914361, 1.782419 ], [ 15.937736, 1.779592 ], [ 15.961438, 1.766043 ], [ 16.027105, 1.766343 ], [ 16.03216, 1.755484 ], [ 16.014492, 1.71763 ], [ 16.023211, 1.709249 ], [ 16.019333, 1.680368 ], [ 16.029644, 1.658582 ], [ 16.060141, 1.652267 ], [ 16.083935, 1.687905 ], [ 16.115173, 1.69948 ], [ 16.137672, 1.683652 ], [ 16.148331, 1.691151 ], [ 16.134512, 1.744032 ], [ 16.142246, 1.760579 ], [ 16.138538, 1.79469 ], [ 16.111532, 1.84758 ], [ 16.10622, 1.872445 ], [ 16.111359, 1.888457 ], [ 16.088116, 1.891019 ], [ 16.073767, 1.951138 ], [ 16.050793, 1.974587 ], [ 16.057858, 1.982959 ], [ 16.053612, 2.00836 ], [ 16.079538, 2.033339 ], [ 16.083609, 2.045667 ], [ 16.063442, 2.069202 ], [ 16.083366, 2.079977 ], [ 16.089436, 2.09304 ], [ 16.079538, 2.131647 ], [ 16.085512, 2.19698 ], [ 16.13394, 2.196542 ], [ 16.138258, 2.179384 ], [ 16.145716, 2.176563 ], [ 16.162249, 2.194643 ], [ 16.180038, 2.199253 ], [ 16.191046, 2.219883 ], [ 16.161491, 2.248387 ], [ 16.170307, 2.27773 ], [ 16.147497, 2.326131 ], [ 16.148113, 2.346837 ], [ 16.072325, 2.462494 ], [ 16.083141, 2.492105 ], [ 16.064581, 2.527905 ], [ 16.083485, 2.583375 ], [ 16.065142, 2.641021 ], [ 16.072571, 2.677336 ], [ 16.086786, 2.701515 ], [ 16.058207, 2.712932 ], [ 16.06464, 2.752464 ], [ 16.057777, 2.755687 ], [ 16.050341, 2.785916 ], [ 16.052013, 2.793554 ], [ 16.075281, 2.803183 ], [ 16.093033, 2.82977 ], [ 16.07165, 2.910473 ], [ 16.057661, 2.920672 ], [ 16.032059, 2.983956 ], [ 16.011133, 2.989336 ], [ 16.006147, 3.004084 ], [ 15.977084, 3.00277 ], [ 15.969478, 2.994266 ], [ 15.958219, 3.000911 ], [ 15.930252, 3.037257 ], [ 15.919391, 3.041823 ], [ 15.884774, 3.10029 ], [ 15.865441, 3.10044 ], [ 15.85385, 3.112111 ], [ 15.800041, 3.100827 ], [ 15.494337, 3.4577 ], [ 15.248897, 3.710672 ], [ 15.108806, 3.94322 ], [ 15.091626, 3.996674 ], [ 15.077032, 4.01812 ], [ 15.184759, 4.058299 ], [ 15.169145, 4.07479 ], [ 15.147318, 4.069097 ], [ 15.136378, 4.106296 ], [ 15.112685, 4.12272 ], [ 15.105946, 4.135992 ], [ 15.112292, 4.178416 ], [ 15.103549, 4.18284 ], [ 15.099346, 4.210253 ], [ 15.10649, 4.217155 ], [ 15.093342, 4.237666 ], [ 15.100489, 4.263066 ], [ 15.092077, 4.269501 ], [ 15.090679, 4.3008 ], [ 15.046485, 4.355628 ], [ 15.049824, 4.362866 ], [ 15.039885, 4.375122 ], [ 15.030862, 4.369905 ], [ 15.013102, 4.424729 ], [ 14.985056, 4.428482 ], [ 14.967961, 4.441082 ], [ 14.943855, 4.441281 ], [ 14.945591, 4.451066 ], [ 14.889295, 4.470697 ], [ 14.872796, 4.495761 ], [ 14.855231, 4.503331 ], [ 14.852691, 4.515126 ], [ 14.833123, 4.515792 ], [ 14.833723, 4.521824 ], [ 14.811149, 4.528186 ], [ 14.803798, 4.545341 ], [ 14.789504, 4.553648 ], [ 14.76712, 4.584336 ], [ 14.755766, 4.584668 ], [ 14.737657, 4.612609 ], [ 14.730443, 4.613343 ], [ 14.731706, 4.629697 ], [ 14.720345, 4.644705 ], [ 14.724067, 4.691956 ], [ 14.718636, 4.743358 ], [ 14.70206, 4.763393 ], [ 14.720689, 4.787659 ], [ 14.718673, 4.816477 ], [ 14.706249, 4.842105 ], [ 14.705159, 4.856884 ], [ 14.714642, 4.868751 ], [ 14.68321, 4.929189 ], [ 14.695492, 4.959755 ], [ 14.676098, 4.989436 ], [ 14.676756, 5.010011 ], [ 14.683239, 5.009411 ], [ 14.67869, 5.018457 ], [ 14.688712, 5.023287 ], [ 14.674379, 5.085474 ], [ 14.68721, 5.089233 ], [ 14.693488, 5.099825 ], [ 14.664195, 5.197608 ], [ 14.649661, 5.216399 ], [ 14.609749, 5.221335 ], [ 14.569226, 5.23679 ], [ 14.529489, 5.273755 ], [ 14.527144, 5.283795 ], [ 14.549458, 5.30311 ], [ 14.544099, 5.316241 ], [ 14.552919, 5.323419 ], [ 14.561446, 5.367321 ], [ 14.572271, 5.378253 ], [ 14.573058, 5.399967 ], [ 14.59325, 5.403935 ], [ 14.600597, 5.416606 ], [ 14.605525, 5.450186 ], [ 14.599988, 5.45825 ], [ 14.619753, 5.476399 ], [ 14.614863, 5.486583 ], [ 14.630499, 5.510987 ], [ 14.612292, 5.532958 ], [ 14.605984, 5.564988 ], [ 14.591518, 5.59078 ], [ 14.628097, 5.713111 ], [ 14.625298, 5.798222 ], [ 14.614821, 5.852834 ], [ 14.620352, 5.889362 ], [ 14.604671, 5.918436 ], [ 14.587265, 5.922646 ], [ 14.559507, 5.900375 ], [ 14.513467, 5.894171 ], [ 14.488483, 5.915996 ], [ 14.464, 5.972266 ], [ 14.434321, 5.998104 ], [ 14.428, 6.025707 ], [ 14.410481, 6.051887 ], [ 14.39409, 6.062409 ], [ 14.384081, 6.055329 ], [ 14.38166, 6.038532 ], [ 14.404576, 6.014406 ], [ 14.380189, 6.014135 ], [ 14.379948, 5.999982 ], [ 12.887909, 6.000365 ], [ 12.877553, 5.981608 ], [ 12.871892, 5.901926 ], [ 12.886223, 5.868511 ], [ 12.899928, 5.867671 ], [ 12.954019, 5.790769 ], [ 12.964232, 5.715985 ], [ 13.000604, 5.705729 ], [ 13.005645, 5.681962 ], [ 13.013516, 5.68329 ], [ 13.009089, 5.642242 ], [ 13.055565, 5.588711 ], [ 13.054693, 5.570095 ], [ 13.071609, 5.558698 ], [ 13.076844, 5.532378 ], [ 13.000246, 5.384972 ], [ 12.955447, 5.320875 ], [ 12.935111, 5.312278 ], [ 12.904411, 5.326949 ], [ 12.88667, 5.325784 ], [ 12.861611, 5.309124 ], [ 12.842689, 5.305836 ], [ 12.809184, 5.279751 ], [ 12.904875, 5.214336 ], [ 13.000072, 5.12498 ], [ 13.030211, 5.107444 ], [ 13.057286, 5.075348 ], [ 13.058416, 5.035328 ], [ 13.014436, 4.958126 ], [ 13.039551, 4.952652 ], [ 13.065726, 4.930037 ], [ 13.117928, 4.930141 ], [ 13.18786, 4.916404 ], [ 13.196024, 4.864643 ], [ 13.20682, 4.860745 ], [ 13.198141, 4.846755 ], [ 13.209276, 4.846366 ], [ 13.20997, 4.838594 ], [ 13.223425, 4.836064 ], [ 13.240072, 4.818298 ], [ 13.236672, 4.800127 ], [ 13.242752, 4.788598 ], [ 13.232732, 4.780362 ], [ 13.244125, 4.787632 ], [ 13.246797, 4.773785 ], [ 13.236691, 4.768847 ], [ 13.237161, 4.758949 ], [ 13.229138, 4.765063 ], [ 13.223794, 4.75818 ], [ 13.222241, 4.729569 ], [ 13.235261, 4.708211 ], [ 13.219311, 4.700967 ], [ 13.227416, 4.690917 ], [ 13.222853, 4.672751 ], [ 13.228879, 4.652074 ], [ 13.209188, 4.603569 ], [ 13.213075, 4.579394 ], [ 13.206402, 4.562409 ], [ 13.21216, 4.549927 ], [ 13.171256, 4.553677 ], [ 13.129222, 4.545727 ], [ 13.091351, 4.561586 ], [ 13.058454, 4.594975 ], [ 13.011426, 4.605671 ], [ 13.000216, 4.592432 ], [ 12.97687, 4.590008 ], [ 12.979486, 4.564664 ], [ 12.877204, 4.517859 ], [ 12.842839, 4.37466 ], [ 12.783078, 4.342391 ], [ 12.781743, 4.308546 ], [ 12.770352, 4.299661 ], [ 12.776475, 4.293882 ], [ 12.795481, 4.29879 ], [ 12.8044, 4.258401 ], [ 12.783566, 4.204107 ], [ 12.793396, 4.175849 ], [ 12.776512, 4.148253 ], [ 12.783752, 4.132357 ], [ 12.751995, 4.120266 ], [ 12.750422, 4.101324 ], [ 12.755658, 4.087354 ], [ 12.791127, 4.077712 ], [ 12.80274, 4.067438 ], [ 12.807898, 4.059536 ], [ 12.797708, 4.034036 ], [ 12.764193, 4.03036 ], [ 12.726468, 4.010413 ], [ 12.65468, 3.934614 ], [ 12.632442, 3.939928 ], [ 12.613199, 3.927342 ], [ 12.556974, 3.91896 ], [ 12.556915, 3.904904 ], [ 12.520324, 3.875669 ], [ 12.507191, 3.878919 ], [ 12.500475, 3.895665 ], [ 12.494409, 3.890153 ], [ 12.501583, 3.829958 ], [ 12.530394, 3.798001 ], [ 12.551463, 3.791632 ], [ 12.548964, 3.776522 ], [ 12.604538, 3.732531 ], [ 12.618118, 3.710116 ], [ 12.601735, 3.615314 ], [ 12.567253, 3.550498 ], [ 12.547614, 3.430267 ], [ 12.549218, 3.40545 ], [ 12.542497, 3.392804 ], [ 12.765206, 3.170316 ], [ 12.770594, 2.995967 ], [ 12.764727, 2.973161 ], [ 12.770881, 2.945781 ], [ 12.792527, 2.927929 ], [ 12.796679, 2.903005 ], [ 12.813237, 2.915404 ], [ 12.833261, 2.888085 ], [ 12.85996, 2.893742 ], [ 12.874295, 2.875278 ], [ 12.914956, 2.878225 ], [ 12.924973, 2.866695 ], [ 12.937166, 2.872188 ], [ 12.939674, 2.862813 ], [ 12.966886, 2.864527 ], [ 12.986755, 2.886489 ], [ 12.987662, 2.873289 ], [ 13.00278, 2.867808 ], [ 13.00208, 2.849292 ], [ 13.019683, 2.858489 ], [ 13.038803, 2.847673 ], [ 13.070024, 2.84703 ], [ 13.081315, 2.837626 ], [ 13.083176, 2.855071 ], [ 13.09798, 2.851825 ], [ 13.094346, 2.84141 ], [ 13.112443, 2.841452 ], [ 13.118645, 2.8592 ], [ 13.134461, 2.872444 ], [ 13.153944, 2.845878 ], [ 13.192896, 2.848183 ], [ 13.200789, 2.865604 ], [ 13.210628, 2.864716 ], [ 13.236698, 2.846532 ], [ 13.228942, 2.837836 ], [ 13.233138, 2.827713 ], [ 13.26063, 2.822293 ], [ 13.268304, 2.808753 ], [ 13.267467, 2.782264 ], [ 13.29182, 2.786963 ], [ 13.272969, 2.840333 ], [ 13.285474, 2.845606 ], [ 13.30396, 2.837239 ], [ 13.317722, 2.811017 ], [ 13.347184, 2.7958 ], [ 13.37584, 2.820479 ], [ 13.405653, 2.786859 ], [ 13.423434, 2.789238 ], [ 13.431726, 2.771656 ], [ 13.448787, 2.779994 ], [ 13.470874, 2.774486 ], [ 13.482548, 2.784652 ], [ 13.501386, 2.787239 ], [ 13.51106, 2.80007 ], [ 13.510684, 2.812409 ], [ 13.497824, 2.823839 ], [ 13.504001, 2.834877 ], [ 13.510463, 2.837297 ], [ 13.518335, 2.821632 ], [ 13.533777, 2.821572 ], [ 13.532633, 2.853482 ], [ 13.546391, 2.855448 ], [ 13.551313, 2.843092 ], [ 13.558086, 2.843916 ], [ 13.576137, 2.861604 ], [ 13.582988, 2.882101 ], [ 13.630462, 2.904451 ], [ 13.680087, 2.171692 ], [ 14.25279, 2.172516 ], [ 14.291525, 2.171865 ], [ 14.303902, 2.162583 ], [ 14.346151, 2.175623 ], [ 14.362897, 2.187694 ], [ 14.412199, 2.1813 ], [ 14.442949, 2.157184 ], [ 14.443528, 2.133152 ], [ 14.458949, 2.125211 ], [ 14.466275, 2.130671 ], [ 14.464461, 2.146659 ], [ 14.480356, 2.143793 ], [ 14.48121, 2.15375 ], [ 14.497766, 2.162852 ], [ 14.530221, 2.162671 ], [ 14.532408, 2.168608 ], [ 14.569238, 2.178672 ], [ 14.580184, 2.174845 ], [ 14.595405, 2.203478 ] ] ] } },
{ "type": "Feature", "properties": { "GID_1": "CMR.4_1", "NAME_1": "Extrême-Nord", "superficie_km2": 34270.9, "bati_2015_km2": 130.115, "bati_2025_km2": 184.63, "couverture_ghsl_pct": 100.0, "mesure_disponible": true, "part_batie_2015_pct": 0.38, "part_batie_2025_pct": 0.539, "gain_bati_km2": 54.515, "croissance_pct": 41.9, "typologie": "Deja bati, croissance rapide" }, "geometry": { "type": "Polygon", "coordinates": [ [ [ 15.49626, 10.12337 ], [ 15.487131, 10.123719 ], [ 15.480601, 10.143561 ], [ 15.461216, 10.159469 ], [ 15.445239, 10.196276 ], [ 15.411654, 10.219704 ], [ 15.403228, 10.243232 ], [ 15.369097, 10.269203 ], [ 15.356205, 10.292747 ], [ 15.312205, 10.30699 ], [ 15.311125, 10.325045 ], [ 15.295994, 10.3355 ], [ 15.296552, 10.353436 ], [ 15.283142, 10.367005 ], [ 15.282974, 10.408974 ], [ 15.252875, 10.436985 ], [ 15.241272, 10.472351 ], [ 15.147975, 10.533916 ], [ 15.144201, 10.574006 ], [ 15.157214, 10.612571 ], [ 15.156747, 10.64595 ], [ 15.141339, 10.667758 ], [ 15.138449, 10.702816 ], [ 15.102615, 10.740602 ], [ 15.069768, 10.813439 ], [ 15.074862, 10.837634 ], [ 15.096033, 10.86406 ], [ 15.097168, 10.876996 ], [ 15.083778, 10.949987 ], [ 15.065682, 10.965244 ], [ 15.064878, 10.980097 ], [ 15.047668, 10.999186 ], [ 15.054701, 11.008287 ], [ 15.047347, 11.013559 ], [ 15.057775, 11.024338 ], [ 15.074182, 11.023775 ], [ 15.084044, 11.031279 ], [ 15.082754, 11.041739 ], [ 15.098112, 11.045408 ], [ 15.09642, 11.060901 ], [ 15.112029, 11.084612 ], [ 15.098699, 11.105938 ], [ 15.096859, 11.165988 ], [ 15.070183, 11.198096 ], [ 15.059918, 11.230598 ], [ 15.067202, 11.248804 ], [ 15.050303, 11.277474 ], [ 15.075876, 11.322506 ], [ 15.050637, 11.342953 ], [ 15.070708, 11.365068 ], [ 15.058415, 11.395255 ], [ 15.06198, 11.413061 ], [ 15.078091, 11.434617 ], [ 15.074613, 11.443562 ], [ 15.101713, 11.472669 ], [ 15.097921, 11.481684 ], [ 15.108842, 11.484811 ], [ 15.109543, 11.496422 ], [ 15.1334, 11.506418 ], [ 15.146822, 11.554306 ], [ 15.132344, 11.568445 ], [ 15.102843, 11.580359 ], [ 15.102923, 11.606574 ], [ 15.088827, 11.617731 ], [ 15.088908, 11.630716 ], [ 15.079846, 11.639809 ], [ 15.088527, 11.64882 ], [ 15.076977, 11.663847 ], [ 15.082338, 11.682279 ], [ 15.064521, 11.709476 ], [ 15.078477, 11.730174 ], [ 15.106455, 11.724283 ], [ 15.081741, 11.759887 ], [ 15.124696, 11.786377 ], [ 15.099355, 11.810372 ], [ 15.09549, 11.845968 ], [ 15.080606, 11.857049 ], [ 15.063853, 11.83979 ], [ 15.048599, 11.858348 ], [ 15.039905, 11.905104 ], [ 15.058288, 11.916482 ], [ 15.064729, 11.932368 ], [ 15.048911, 11.962162 ], [ 15.057835, 11.976444 ], [ 15.075443, 11.971551 ], [ 15.082426, 11.976666 ], [ 15.089258, 11.993622 ], [ 15.059391, 11.999664 ], [ 15.039301, 12.023958 ], [ 15.044656, 12.030756 ], [ 15.053578, 12.028234 ], [ 15.059246, 12.046793 ], [ 15.052266, 12.064363 ], [ 15.036825, 12.074142 ], [ 15.034888, 12.102711 ], [ 15.002059, 12.116843 ], [ 14.991659, 12.107142 ], [ 14.988555, 12.083846 ], [ 14.95984, 12.092856 ], [ 14.884995, 12.16074 ], [ 14.911847, 12.182059 ], [ 14.893053, 12.200386 ], [ 14.903719, 12.220288 ], [ 14.896515, 12.243066 ], [ 14.906581, 12.269325 ], [ 14.89322, 12.302398 ], [ 14.910357, 12.324926 ], [ 14.900927, 12.340882 ], [ 14.909554, 12.37615 ], [ 14.880731, 12.426591 ], [ 14.877048, 12.460438 ], [ 14.865917, 12.460561 ], [ 14.855187, 12.446012 ], [ 14.846147, 12.45669 ], [ 14.84496, 12.469687 ], [ 14.858181, 12.479991 ], [ 14.858957, 12.496466 ], [ 14.851221, 12.51345 ], [ 14.852652, 12.559584 ], [ 14.830975, 12.629526 ], [ 14.772661, 12.631927 ], [ 14.763479, 12.641572 ], [ 14.75742, 12.675544 ], [ 14.747318, 12.685444 ], [ 14.735003, 12.680156 ], [ 14.7307, 12.659431 ], [ 14.714586, 12.654909 ], [ 14.705132, 12.671372 ], [ 14.725936, 12.703183 ], [ 14.717529, 12.719005 ], [ 14.703629, 12.72388 ], [ 14.663, 12.718554 ], [ 14.637412, 12.737697 ], [ 14.617619, 12.737411 ], [ 14.625581, 12.760589 ], [ 14.621764, 12.770364 ], [ 14.595191, 12.743941 ], [ 14.579314, 12.752797 ], [ 14.574421, 12.778399 ], [ 14.556862, 12.772708 ], [ 14.547411, 12.795971 ], [ 14.564767, 12.826709 ], [ 14.55603, 12.863129 ], [ 14.55772, 12.87875 ], [ 14.5715, 12.882182 ], [ 14.56422, 12.889885 ], [ 14.563277, 12.910667 ], [ 14.551594, 12.934276 ], [ 14.539651, 12.936957 ], [ 14.529242, 12.961004 ], [ 14.533405, 12.970511 ], [ 14.459829, 13.073822 ], [ 14.085494, 13.077391 ], [ 14.183743, 12.529235 ], [ 14.197016, 12.50389 ], [ 14.187904, 12.498878 ], [ 14.184482, 12.48222 ], [ 14.174065, 12.479627 ], [ 14.178705, 12.448231 ], [ 14.19438, 12.448145 ], [ 14.18595, 12.443072 ], [ 14.192738, 12.433132 ], [ 14.17336, 12.429355 ], [ 14.176639, 12.417744 ], [ 14.17065, 12.41042 ], [ 14.185628, 12.405982 ], [ 14.197746, 12.385998 ], [ 14.218158, 12.376 ], [ 14.220512, 12.362357 ], [ 14.273165, 12.37346 ], [ 14.292968, 12.355639 ], [ 14.291405, 12.372512 ], [ 14.309041, 12.358561 ], [ 14.328887, 12.374665 ], [ 14.378778, 12.356987 ], [ 14.399924, 12.366212 ], [ 14.4229, 12.361439 ], [ 14.433463, 12.369172 ], [ 14.443595, 12.362238 ], [ 14.447965, 12.346842 ], [ 14.463462, 12.359348 ], [ 14.475998, 12.344905 ], [ 14.487197, 12.351501 ], [ 14.485328, 12.340075 ], [ 14.520476, 12.324732 ], [ 14.520699, 12.31404 ], [ 14.509689, 12.314883 ], [ 14.511007, 12.296225 ], [ 14.545001, 12.280344 ], [ 14.541436, 12.27217 ], [ 14.548148, 12.256441 ], [ 14.559706, 12.25927 ], [ 14.548656, 12.235323 ], [ 14.571899, 12.224137 ], [ 14.591136, 12.226491 ], [ 14.590478, 12.215863 ], [ 14.607315, 12.197027 ], [ 14.597469, 12.190305 ], [ 14.615225, 12.189002 ], [ 14.613546, 12.182957 ], [ 14.629009, 12.179192 ], [ 14.632029, 12.192213 ], [ 14.639459, 12.18857 ], [ 14.659426, 12.197111 ], [ 14.662625, 12.178239 ], [ 14.675124, 12.168624 ], [ 14.673182, 12.155937 ], [ 14.64945, 12.135785 ], [ 14.653996, 12.11746 ], [ 14.633988, 12.0918 ], [ 14.639004, 12.075336 ], [ 14.653055, 12.062336 ], [ 14.631642, 12.058075 ], [ 14.619688, 12.04031 ], [ 14.633139, 11.989471 ], [ 14.653692, 11.957005 ], [ 14.633703, 11.931569 ], [ 14.642041, 11.910141 ], [ 14.628204, 11.901318 ], [ 14.602795, 11.864962 ], [ 14.614282, 11.850334 ], [ 14.604735, 11.833094 ], [ 14.604595, 11.795576 ], [ 14.61263, 11.780608 ], [ 14.598818, 11.759725 ], [ 14.576735, 11.750361 ], [ 14.571853, 11.735328 ], [ 14.548466, 11.722994 ], [ 14.556792, 11.708938 ], [ 14.579774, 11.699736 ], [ 14.599097, 11.700577 ], [ 14.609617, 11.678291 ], [ 14.639752, 11.653015 ], [ 14.637308, 11.628415 ], [ 14.650196, 11.609241 ], [ 14.642617, 11.57602 ], [ 14.62818, 11.55686 ], [ 14.6131, 11.511377 ], [ 14.55487, 11.481959 ], [ 14.516144, 11.472788 ], [ 14.466143, 11.424971 ], [ 14.428277, 11.41994 ], [ 14.357071, 11.355593 ], [ 14.235693, 11.288714 ], [ 14.198807, 11.252754 ], [ 14.182656, 11.254746 ], [ 14.16896, 11.245588 ], [ 14.124973, 11.258124 ], [ 14.110698, 11.262774 ], [ 14.100781, 11.278772 ], [ 14.06776, 11.282212 ], [ 13.980623, 11.31876 ], [ 13.953168, 11.24572 ], [ 13.927249, 11.202563 ], [ 13.915322, 11.197046 ], [ 13.910209, 11.173741 ], [ 13.881684, 11.153359 ], [ 13.855351, 11.100666 ], [ 13.829506, 11.085781 ], [ 13.825619, 11.071333 ], [ 13.812273, 11.069157 ], [ 13.792529, 11.009667 ], [ 13.734724, 11.011379 ], [ 13.726332, 10.983455 ], [ 13.708014, 10.972045 ], [ 13.709905, 10.949121 ], [ 13.727932, 10.923344 ], [ 13.713876, 10.859919 ], [ 13.701301, 10.846557 ], [ 13.677961, 10.838666 ], [ 13.671245, 10.818274 ], [ 13.651892, 10.82058 ], [ 13.636975, 10.79236 ], [ 13.650949, 10.791359 ], [ 13.655188, 10.784294 ], [ 13.643406, 10.776009 ], [ 13.621282, 10.718983 ], [ 13.603895, 10.703676 ], [ 13.586972, 10.70484 ], [ 13.578441, 10.691609 ], [ 13.585781, 10.672165 ], [ 13.574302, 10.657859 ], [ 13.570919, 10.634735 ], [ 13.54585, 10.61833 ], [ 13.554912, 10.594201 ], [ 13.566772, 10.58372 ], [ 13.5583, 10.558449 ], [ 13.573974, 10.535323 ], [ 13.538351, 10.479948 ], [ 13.527542, 10.479069 ], [ 13.538298, 10.451894 ], [ 13.536246, 10.423673 ], [ 13.523856, 10.4039 ], [ 13.494111, 10.391013 ], [ 13.498349, 10.339501 ], [ 13.482142, 10.335397 ], [ 13.489415, 10.317918 ], [ 13.487435, 10.295401 ], [ 13.471402, 10.274336 ], [ 13.465643, 10.246206 ], [ 13.482848, 10.199433 ], [ 13.469137, 10.194317 ], [ 13.467485, 10.163992 ], [ 13.443427, 10.153946 ], [ 13.434075, 10.134838 ], [ 13.403127, 10.125348 ], [ 13.424168, 10.108645 ], [ 13.42876, 10.085658 ], [ 13.435179, 10.082726 ], [ 13.551144, 10.102165 ], [ 13.558687, 10.0849 ], [ 13.588671, 10.124335 ], [ 13.615883, 10.133484 ], [ 13.636472, 10.126651 ], [ 13.691693, 10.14081 ], [ 13.695256, 10.147264 ], [ 13.656664, 10.168251 ], [ 13.64778, 10.181957 ], [ 13.655858, 10.221777 ], [ 13.672605, 10.237464 ], [ 13.676233, 10.25497 ], [ 13.70079, 10.260817 ], [ 13.7391, 10.245756 ], [ 13.783314, 10.24568 ], [ 13.800956, 10.253052 ], [ 13.842347, 10.240177 ], [ 13.88222, 10.24099 ], [ 13.916804, 10.228131 ], [ 13.973861, 10.229939 ], [ 13.979979, 10.217192 ], [ 14.011929, 10.201671 ], [ 14.01404, 10.19582 ], [ 14.003847, 10.186394 ], [ 14.013521, 10.173917 ], [ 14.051829, 10.172573 ], [ 14.05088, 10.162183 ], [ 14.076165, 10.111342 ], [ 14.103467, 10.115497 ], [ 14.110027, 10.128651 ], [ 14.221135, 10.090192 ], [ 14.229848, 10.075657 ], [ 14.209771, 10.053663 ], [ 14.207436, 10.009277 ], [ 14.220541, 10.003659 ], [ 14.466058, 10.006619 ], [ 14.802423, 9.935676 ], [ 14.961483, 9.984925 ], [ 15.000712, 9.969674 ], [ 15.036315, 9.968874 ], [ 15.061925, 9.948746 ], [ 15.106311, 9.966702 ], [ 15.112842, 9.986745 ], [ 15.152478, 9.997031 ], [ 15.180023, 9.988472 ], [ 15.248415, 9.991463 ], [ 15.364057, 9.962049 ], [ 15.41332, 9.934937 ], [ 15.527767, 9.954676 ], [ 15.689525, 9.996432 ], [ 15.618505, 10.046849 ], [ 15.59809, 10.047422 ], [ 15.585957, 10.066741 ], [ 15.563986, 10.067851 ], [ 15.536723, 10.098784 ], [ 15.525773, 10.101213 ], [ 15.512508, 10.093596 ], [ 15.49626, 10.12337 ] ] ] } },
{ "type": "Feature", "properties": { "GID_1": "CMR.5_1", "NAME_1": "Littoral", "superficie_km2": 20258.3, "bati_2015_km2": 117.417, "bati_2025_km2": 131.83, "couverture_ghsl_pct": 100.0, "mesure_disponible": true, "part_batie_2015_pct": 0.58, "part_batie_2025_pct": 0.651, "gain_bati_km2": 14.413, "croissance_pct": 12.3, "typologie": "Deja bati, croissance lente" }, "geometry": { "type": "Polygon", "coordinates": [ [ [ 10.185395, 3.59528 ], [ 10.204033, 3.59163 ], [ 10.202387, 3.559106 ], [ 10.23514, 3.544361 ], [ 10.232497, 3.516672 ], [ 10.271487, 3.516905 ], [ 10.283422, 3.524038 ], [ 10.298295, 3.553219 ], [ 10.325877, 3.568889 ], [ 10.340129, 3.651237 ], [ 10.352454, 3.649305 ], [ 10.372761, 3.689048 ], [ 10.363994, 3.724003 ], [ 10.383226, 3.779757 ], [ 10.376822, 3.786815 ], [ 10.392969, 3.792328 ], [ 10.397299, 3.804303 ], [ 10.403811, 3.801473 ], [ 10.414657, 3.813941 ], [ 10.458478, 3.82303 ], [ 10.468402, 3.823315 ], [ 10.473992, 3.809914 ], [ 10.488338, 3.816132 ], [ 10.492525, 3.802834 ], [ 10.503753, 3.803821 ], [ 10.508738, 3.787904 ], [ 10.512265, 3.799275 ], [ 10.521073, 3.792212 ], [ 10.524089, 3.796838 ], [ 10.529884, 3.786356 ], [ 10.536002, 3.788561 ], [ 10.548713, 3.777865 ], [ 10.551702, 3.767489 ], [ 10.58115, 3.756763 ], [ 10.572415, 3.748724 ], [ 10.575209, 3.741269 ], [ 10.583034, 3.745181 ], [ 10.591521, 3.727748 ], [ 10.597647, 3.734281 ], [ 10.605651, 3.726816 ], [ 10.607286, 3.743425 ], [ 10.621449, 3.760817 ], [ 10.619681, 3.780454 ], [ 10.645056, 3.789366 ], [ 10.643563, 3.795007 ], [ 10.654581, 3.791362 ], [ 10.645976, 3.798829 ], [ 10.644118, 3.823499 ], [ 10.653065, 3.836771 ], [ 10.666294, 3.836041 ], [ 10.659859, 3.877131 ], [ 10.641499, 3.92046 ], [ 10.647446, 3.936859 ], [ 10.645, 3.967773 ], [ 10.668092, 3.985043 ], [ 10.691859, 3.989022 ], [ 10.702256, 4.023231 ], [ 10.692147, 4.031407 ], [ 10.696085, 4.044889 ], [ 10.682771, 4.054583 ], [ 10.692425, 4.068355 ], [ 10.72488, 4.054896 ], [ 10.758895, 4.067709 ], [ 10.77939, 4.087497 ], [ 10.834147, 4.095024 ], [ 10.850334, 4.114819 ], [ 10.936879, 4.125383 ], [ 10.974007, 4.138982 ], [ 11.073381, 4.187445 ], [ 11.077399, 4.228199 ], [ 11.067405, 4.240104 ], [ 11.045157, 4.244189 ], [ 11.035971, 4.258407 ], [ 11.040708, 4.267554 ], [ 11.019879, 4.278078 ], [ 11.013427, 4.302856 ], [ 11.000393, 4.303193 ], [ 10.998816, 4.313666 ], [ 10.977303, 4.33164 ], [ 10.9726, 4.374132 ], [ 10.94965, 4.379628 ], [ 10.942451, 4.388303 ], [ 10.937689, 4.408146 ], [ 10.944027, 4.415881 ], [ 10.927426, 4.434245 ], [ 10.913996, 4.437803 ], [ 10.894118, 4.469464 ], [ 10.890779, 4.497055 ], [ 10.902924, 4.500144 ], [ 10.913711, 4.520953 ], [ 10.920257, 4.6064 ], [ 10.890063, 4.607387 ], [ 10.877053, 4.580946 ], [ 10.831185, 4.611769 ], [ 10.784626, 4.608263 ], [ 10.776607, 4.529457 ], [ 10.786091, 4.510809 ], [ 10.776428, 4.497444 ], [ 10.737393, 4.492001 ], [ 10.723174, 4.502605 ], [ 10.725928, 4.522231 ], [ 10.697036, 4.521695 ], [ 10.693643, 4.486063 ], [ 10.685513, 4.484471 ], [ 10.680017, 4.493847 ], [ 10.676477, 4.481069 ], [ 10.639416, 4.460715 ], [ 10.616458, 4.467109 ], [ 10.616174, 4.474761 ], [ 10.60281, 4.464924 ], [ 10.599823, 4.474998 ], [ 10.5749, 4.454412 ], [ 10.54251, 4.460422 ], [ 10.517216, 4.453729 ], [ 10.507612, 4.466837 ], [ 10.487436, 4.461542 ], [ 10.478279, 4.447263 ], [ 10.46567, 4.463097 ], [ 10.471625, 4.481007 ], [ 10.45318, 4.488797 ], [ 10.438634, 4.489027 ], [ 10.423354, 4.473853 ], [ 10.392562, 4.478041 ], [ 10.386283, 4.500003 ], [ 10.378762, 4.502334 ], [ 10.385972, 4.54753 ], [ 10.417196, 4.608286 ], [ 10.431359, 4.615507 ], [ 10.456213, 4.649086 ], [ 10.46654, 4.645239 ], [ 10.471417, 4.674126 ], [ 10.490127, 4.694929 ], [ 10.492593, 4.722008 ], [ 10.465141, 4.744117 ], [ 10.455976, 4.729033 ], [ 10.416789, 4.705654 ], [ 10.377654, 4.708451 ], [ 10.363068, 4.690959 ], [ 10.3571, 4.666301 ], [ 10.338284, 4.693524 ], [ 10.360703, 4.76467 ], [ 10.378411, 4.786283 ], [ 10.417158, 4.788218 ], [ 10.444452, 4.832967 ], [ 10.477817, 4.851422 ], [ 10.488422, 4.881302 ], [ 10.524454, 4.903233 ], [ 10.433709, 4.910327 ], [ 10.459118, 4.94814 ], [ 10.458101, 4.956736 ], [ 10.444268, 4.960638 ], [ 10.420357, 4.918855 ], [ 10.425298, 4.93962 ], [ 10.411594, 4.960236 ], [ 10.420565, 4.972116 ], [ 10.418097, 5.006685 ], [ 10.395803, 5.018159 ], [ 10.367552, 5.017841 ], [ 10.372665, 5.076571 ], [ 10.367036, 5.086593 ], [ 10.314605, 5.100207 ], [ 10.284192, 5.057203 ], [ 10.265376, 5.06744 ], [ 10.240209, 5.105927 ], [ 10.232865, 5.107735 ], [ 10.197867, 5.078902 ], [ 10.223534, 5.054298 ], [ 10.225672, 5.039089 ], [ 10.193783, 5.008171 ], [ 10.191598, 4.997881 ], [ 10.174827, 4.993472 ], [ 10.161423, 4.975646 ], [ 10.147861, 4.975008 ], [ 10.1593, 4.946183 ], [ 10.150026, 4.919943 ], [ 10.113503, 4.928411 ], [ 10.104399, 4.946277 ], [ 10.10649, 4.958079 ], [ 10.092093, 4.964148 ], [ 10.074425, 4.987316 ], [ 10.065806, 5.015476 ], [ 10.072918, 5.044648 ], [ 10.049189, 5.048087 ], [ 10.03941, 5.058209 ], [ 10.00646, 5.069312 ], [ 10.010433, 5.080072 ], [ 9.991485, 5.130727 ], [ 10.005448, 5.145345 ], [ 10.001149, 5.166791 ], [ 10.008336, 5.183876 ], [ 9.998303, 5.214399 ], [ 9.992371, 5.216108 ], [ 9.993708, 5.227534 ], [ 9.986076, 5.227263 ], [ 9.970463, 5.244477 ], [ 9.943341, 5.253114 ], [ 9.923364, 5.251066 ], [ 9.934993, 5.277684 ], [ 9.924526, 5.272599 ], [ 9.907195, 5.276497 ], [ 9.882189, 5.25037 ], [ 9.847524, 5.256841 ], [ 9.832662, 5.275468 ], [ 9.853832, 5.322288 ], [ 9.849195, 5.33308 ], [ 9.840591, 5.334764 ], [ 9.824076, 5.330033 ], [ 9.829556, 5.290767 ], [ 9.783972, 5.2844 ], [ 9.768579, 5.263294 ], [ 9.740932, 5.275123 ], [ 9.736418, 5.245463 ], [ 9.766405, 5.209689 ], [ 9.775547, 5.146035 ], [ 9.801352, 5.140281 ], [ 9.815937, 5.079702 ], [ 9.831186, 5.060317 ], [ 9.854437, 5.051396 ], [ 9.866171, 5.029462 ], [ 9.856062, 5.018385 ], [ 9.828407, 5.01446 ], [ 9.811129, 5.025396 ], [ 9.77573, 5.005545 ], [ 9.766896, 4.956261 ], [ 9.754416, 4.941047 ], [ 9.756323, 4.919918 ], [ 9.786071, 4.916451 ], [ 9.779553, 4.897005 ], [ 9.763833, 4.887076 ], [ 9.762769, 4.877658 ], [ 9.774525, 4.873772 ], [ 9.742739, 4.858403 ], [ 9.749039, 4.841759 ], [ 9.704513, 4.808179 ], [ 9.691056, 4.721375 ], [ 9.632195, 4.664201 ], [ 9.646877, 4.650323 ], [ 9.643576, 4.637672 ], [ 9.630406, 4.62712 ], [ 9.573591, 4.615284 ], [ 9.549226, 4.588344 ], [ 9.541331, 4.589341 ], [ 9.538538, 4.564263 ], [ 9.522877, 4.544361 ], [ 9.51095, 4.542359 ], [ 9.511793, 4.519955 ], [ 9.504733, 4.520343 ], [ 9.511223, 4.523593 ], [ 9.508176, 4.531925 ], [ 9.493003, 4.526287 ], [ 9.503297, 4.511727 ], [ 9.492797, 4.503884 ], [ 9.503664, 4.490855 ], [ 9.491257, 4.483013 ], [ 9.487528, 4.470186 ], [ 9.495152, 4.459937 ], [ 9.497226, 4.421447 ], [ 9.510482, 4.417896 ], [ 9.514859, 4.402382 ], [ 9.502464, 4.411008 ], [ 9.498159, 4.391288 ], [ 9.479742, 4.37962 ], [ 9.478492, 4.36277 ], [ 9.465897, 4.355405 ], [ 9.464746, 4.346406 ], [ 9.455782, 4.348327 ], [ 9.45872, 4.3174 ], [ 9.437729, 4.301711 ], [ 9.440205, 4.294433 ], [ 9.433624, 4.294819 ], [ 9.424742, 4.27175 ], [ 9.429206, 4.239387 ], [ 9.413748, 4.223502 ], [ 9.420794, 4.203967 ], [ 9.429667, 4.211717 ], [ 9.448833, 4.208068 ], [ 9.456835, 4.193032 ], [ 9.46675, 4.189771 ], [ 9.499659, 4.203729 ], [ 9.510526, 4.196828 ], [ 9.519404, 4.212332 ], [ 9.529988, 4.210411 ], [ 9.529767, 4.165891 ], [ 9.548922, 4.148836 ], [ 9.547862, 4.13323 ], [ 9.557864, 4.118288 ], [ 9.550132, 4.105272 ], [ 9.529536, 4.105573 ], [ 9.509882, 4.08548 ], [ 9.506529, 4.060015 ], [ 9.498991, 4.051403 ], [ 9.478689, 4.062139 ], [ 9.457045, 4.059566 ], [ 9.451781, 4.023857 ], [ 9.434525, 4.023866 ], [ 9.403999, 3.991808 ], [ 9.405419, 3.971126 ], [ 9.381182, 3.920585 ], [ 9.355698, 3.907412 ], [ 9.335801, 3.915395 ], [ 9.381696, 3.887934 ], [ 9.412505, 3.882998 ], [ 9.433998, 3.887911 ], [ 9.475256, 3.907886 ], [ 9.462534, 3.919635 ], [ 9.439801, 3.924501 ], [ 9.459094, 3.963785 ], [ 9.446289, 3.987488 ], [ 9.461505, 3.990689 ], [ 9.498632, 3.964607 ], [ 9.523567, 3.962977 ], [ 9.531799, 3.977655 ], [ 9.528019, 4.008114 ], [ 9.512769, 4.018978 ], [ 9.517842, 4.025952 ], [ 9.53753, 4.025256 ], [ 9.580733, 4.004849 ], [ 9.61034, 4.016076 ], [ 9.630585, 4.007158 ], [ 9.639757, 3.990564 ], [ 9.63523, 3.962907 ], [ 9.624611, 3.969592 ], [ 9.626073, 3.94471 ], [ 9.634892, 3.939484 ], [ 9.675826, 3.941546 ], [ 9.678214, 3.907081 ], [ 9.717601, 3.861845 ], [ 9.698128, 3.853606 ], [ 9.682081, 3.835149 ], [ 9.661251, 3.836162 ], [ 9.658529, 3.846548 ], [ 9.622065, 3.867614 ], [ 9.61422, 3.864732 ], [ 9.603041, 3.840424 ], [ 9.600803, 3.808112 ], [ 9.59234, 3.797085 ], [ 9.579188, 3.796426 ], [ 9.55251, 3.814175 ], [ 9.634968, 3.683049 ], [ 9.656845, 3.632742 ], [ 9.650143, 3.62012 ], [ 9.638545, 3.619452 ], [ 9.637458, 3.581836 ], [ 9.647696, 3.566929 ], [ 9.635526, 3.555037 ], [ 9.636987, 3.564912 ], [ 9.631661, 3.558875 ], [ 9.635492, 3.552606 ], [ 9.640202, 3.550394 ], [ 9.660345, 3.569959 ], [ 9.670061, 3.563294 ], [ 9.686072, 3.567535 ], [ 9.689008, 3.560306 ], [ 9.678947, 3.552526 ], [ 9.650603, 3.539968 ], [ 9.640008, 3.542909 ], [ 9.684784, 3.519097 ], [ 9.781024, 3.43707 ], [ 9.878924, 3.325168 ], [ 9.907838, 3.260334 ], [ 9.917064, 3.268383 ], [ 9.933595, 3.26595 ], [ 9.963164, 3.276597 ], [ 9.982028, 3.303166 ], [ 10.03637, 3.334229 ], [ 10.057661, 3.378819 ], [ 10.053374, 3.398764 ], [ 10.075143, 3.419485 ], [ 10.067604, 3.489182 ], [ 10.083748, 3.496515 ], [ 10.102452, 3.549866 ], [ 10.111071, 3.549252 ], [ 10.116418, 3.578852 ], [ 10.15019, 3.575487 ], [ 10.154891, 3.567727 ], [ 10.185395, 3.59528 ] ] ] } },
{ "type": "Feature", "properties": { "GID_1": "CMR.7_1", "NAME_1": "Nord", "superficie_km2": 66336.1, "bati_2015_km2": 81.369, "bati_2025_km2": 111.093, "couverture_ghsl_pct": 100.0, "mesure_disponible": true, "part_batie_2015_pct": 0.123, "part_batie_2025_pct": 0.167, "gain_bati_km2": 29.724, "croissance_pct": 36.5, "typologie": "Peu bati, croissance rapide" }, "geometry": { "type": "Polygon", "coordinates": [ [ [ 14.707694, 7.0213 ], [ 14.765334, 7.040408 ], [ 14.773238, 7.05498 ], [ 14.790642, 7.05886 ], [ 14.81587, 7.078549 ], [ 14.834172, 7.085653 ], [ 14.87119, 7.079852 ], [ 14.89325, 7.105097 ], [ 14.933106, 7.112682 ], [ 14.978228, 7.136764 ], [ 14.991667, 7.136494 ], [ 15.054788, 7.18775 ], [ 15.079369, 7.179426 ], [ 15.087193, 7.165707 ], [ 15.102549, 7.159123 ], [ 15.103199, 7.143596 ], [ 15.201921, 7.212239 ], [ 15.220699, 7.230598 ], [ 15.22271, 7.244401 ], [ 15.237644, 7.252746 ], [ 15.24512, 7.273379 ], [ 15.26123, 7.279099 ], [ 15.293948, 7.313452 ], [ 15.426223, 7.416947 ], [ 15.440724, 7.449432 ], [ 15.457102, 7.455775 ], [ 15.462382, 7.479927 ], [ 15.492841, 7.506812 ], [ 15.496735, 7.525787 ], [ 15.512718, 7.531981 ], [ 15.517644, 7.544813 ], [ 15.569024, 7.590647 ], [ 15.56476, 7.609701 ], [ 15.579032, 7.625971 ], [ 15.58327, 7.639838 ], [ 15.576859, 7.655652 ], [ 15.588219, 7.666679 ], [ 15.593575, 7.687585 ], [ 15.588642, 7.772484 ], [ 15.504727, 7.793643 ], [ 15.452364, 7.881149 ], [ 15.395676, 8.044395 ], [ 15.396739, 8.091275 ], [ 15.200231, 8.509018 ], [ 15.177764, 8.525024 ], [ 15.154161, 8.572318 ], [ 15.151495, 8.60216 ], [ 15.11097, 8.637051 ], [ 15.108338, 8.656015 ], [ 15.059052, 8.679808 ], [ 15.036851, 8.675732 ], [ 15.005385, 8.68978 ], [ 14.981993, 8.689545 ], [ 14.991176, 8.7157 ], [ 14.987404, 8.732252 ], [ 14.946896, 8.757724 ], [ 14.921919, 8.755439 ], [ 14.912906, 8.766919 ], [ 14.925709, 8.778561 ], [ 14.907761, 8.795701 ], [ 14.901445, 8.813485 ], [ 14.872983, 8.824801 ], [ 14.864552, 8.817353 ], [ 14.854116, 8.819656 ], [ 14.853698, 8.813155 ], [ 14.836006, 8.815204 ], [ 14.586083, 9.002035 ], [ 14.497076, 9.053719 ], [ 14.467812, 9.116867 ], [ 14.433702, 9.129535 ], [ 14.403778, 9.151042 ], [ 14.389365, 9.170554 ], [ 14.364164, 9.18292 ], [ 14.358102, 9.202474 ], [ 14.348531, 9.206849 ], [ 14.356929, 9.229304 ], [ 14.381392, 9.256978 ], [ 14.380206, 9.292113 ], [ 14.347547, 9.304832 ], [ 14.311408, 9.368731 ], [ 14.274446, 9.358396 ], [ 14.238, 9.406951 ], [ 14.239017, 9.41965 ], [ 14.211861, 9.445463 ], [ 14.196987, 9.444073 ], [ 14.183166, 9.473826 ], [ 14.156397, 9.502191 ], [ 14.134997, 9.504214 ], [ 14.110914, 9.517809 ], [ 14.09973, 9.549881 ], [ 14.074267, 9.566423 ], [ 14.04666, 9.600764 ], [ 14.043808, 9.614012 ], [ 14.007901, 9.622694 ], [ 13.982501, 9.641863 ], [ 14.026253, 9.731582 ], [ 14.135066, 9.823863 ], [ 14.173274, 9.901176 ], [ 14.208221, 10.001635 ], [ 14.209771, 10.053663 ], [ 14.229848, 10.075657 ], [ 14.221135, 10.090192 ], [ 14.110027, 10.128651 ], [ 14.103467, 10.115497 ], [ 14.076165, 10.111342 ], [ 14.05088, 10.162183 ], [ 14.051829, 10.172573 ], [ 14.013521, 10.173917 ], [ 14.003847, 10.186394 ], [ 14.01404, 10.19582 ], [ 14.011929, 10.201671 ], [ 13.979979, 10.217192 ], [ 13.973861, 10.229939 ], [ 13.916804, 10.228131 ], [ 13.88222, 10.24099 ], [ 13.842347, 10.240177 ], [ 13.800956, 10.253052 ], [ 13.783314, 10.24568 ], [ 13.741987, 10.245523 ], [ 13.714341, 10.258616 ], [ 13.681001, 10.258145 ], [ 13.672605, 10.237464 ], [ 13.655858, 10.221777 ], [ 13.64778, 10.181957 ], [ 13.656664, 10.168251 ], [ 13.695256, 10.147264 ], [ 13.691693, 10.14081 ], [ 13.636472, 10.126651 ], [ 13.615883, 10.133484 ], [ 13.588671, 10.124335 ], [ 13.558687, 10.0849 ], [ 13.551144, 10.102165 ], [ 13.438445, 10.082109 ], [ 13.42876, 10.085658 ], [ 13.424168, 10.108645 ], [ 13.403122, 10.125546 ], [ 13.357241, 10.112761 ], [ 13.346519, 10.113567 ], [ 13.342946, 10.122792 ], [ 13.298059, 10.09205 ], [ 13.287746, 10.062986 ], [ 13.247768, 10.035773 ], [ 13.247621, 10.000476 ], [ 13.272196, 9.994417 ], [ 13.287774, 9.980195 ], [ 13.279877, 9.941511 ], [ 13.236782, 9.919707 ], [ 13.242076, 9.864031 ], [ 13.248886, 9.856162 ], [ 13.272946, 9.851205 ], [ 13.299127, 9.827687 ], [ 13.284144, 9.801702 ], [ 13.25891, 9.777611 ], [ 13.258204, 9.742979 ], [ 13.247503, 9.709614 ], [ 13.252609, 9.700294 ], [ 13.229709, 9.679098 ], [ 13.236688, 9.662071 ], [ 13.228901, 9.652182 ], [ 13.235837, 9.619033 ], [ 13.224846, 9.605489 ], [ 13.224689, 9.584912 ], [ 13.213855, 9.566313 ], [ 13.207711, 9.557841 ], [ 13.192313, 9.560287 ], [ 13.171694, 9.544276 ], [ 13.125862, 9.528475 ], [ 13.092561, 9.526974 ], [ 13.077132, 9.514718 ], [ 13.063469, 9.517685 ], [ 13.046761, 9.506971 ], [ 13.034304, 9.511322 ], [ 13.004919, 9.483371 ], [ 12.981412, 9.469343 ], [ 12.972324, 9.471128 ], [ 12.967122, 9.451293 ], [ 12.94594, 9.435785 ], [ 12.936789, 9.419313 ], [ 12.871007, 9.391369 ], [ 12.864787, 9.369922 ], [ 12.843784, 9.372721 ], [ 12.853751, 9.359005 ], [ 12.865715, 9.35879 ], [ 12.8774, 9.34738 ], [ 12.892438, 9.354989 ], [ 12.914043, 9.341487 ], [ 12.908691, 9.284651 ], [ 12.916018, 9.276829 ], [ 12.909974, 9.23184 ], [ 12.89793, 9.218143 ], [ 12.883557, 9.158617 ], [ 12.897857, 9.114781 ], [ 12.890252, 9.110437 ], [ 12.88764, 9.087735 ], [ 12.838542, 9.007331 ], [ 12.82091, 8.935739 ], [ 12.803987, 8.916488 ], [ 12.806495, 8.902427 ], [ 12.812806, 8.905477 ], [ 12.818769, 8.899023 ], [ 12.807533, 8.886294 ], [ 12.81582, 8.862853 ], [ 12.804515, 8.861783 ], [ 12.800861, 8.853324 ], [ 12.80938, 8.836098 ], [ 12.819844, 8.831069 ], [ 12.810176, 8.815143 ], [ 12.809618, 8.795653 ], [ 12.797952, 8.78775 ], [ 12.78583, 8.743083 ], [ 12.765479, 8.747182 ], [ 12.758804, 8.760401 ], [ 12.737697, 8.755922 ], [ 12.720303, 8.760773 ], [ 12.709403, 8.738075 ], [ 12.710567, 8.70159 ], [ 12.698544, 8.675872 ], [ 12.701419, 8.667921 ], [ 12.673355, 8.646727 ], [ 12.660731, 8.653413 ], [ 12.636085, 8.645963 ], [ 12.632312, 8.635963 ], [ 12.615338, 8.639071 ], [ 12.605762, 8.632115 ], [ 12.606889, 8.623954 ], [ 12.575333, 8.613981 ], [ 12.559916, 8.626136 ], [ 12.550527, 8.621724 ], [ 12.537685, 8.630867 ], [ 12.485802, 8.643451 ], [ 12.464281, 8.622154 ], [ 12.432199, 8.621338 ], [ 12.445724, 8.60089 ], [ 12.446306, 8.564074 ], [ 12.465737, 8.524367 ], [ 12.436906, 8.511243 ], [ 12.421288, 8.494677 ], [ 12.424415, 8.4886 ], [ 12.403153, 8.4904 ], [ 12.394713, 8.485658 ], [ 12.394652, 8.474692 ], [ 12.376532, 8.479591 ], [ 12.337159, 8.446055 ], [ 12.335585, 8.4305 ], [ 12.313432, 8.425797 ], [ 12.299525, 8.443775 ], [ 12.263762, 8.443393 ], [ 12.247361, 8.385927 ], [ 12.26468, 8.370116 ], [ 12.238751, 8.339078 ], [ 12.25728, 8.225474 ], [ 12.256371, 8.175818 ], [ 12.277897, 8.175567 ], [ 12.291426, 8.187595 ], [ 12.288486, 8.168504 ], [ 12.27607, 8.151496 ], [ 12.287656, 8.113744 ], [ 12.324452, 8.086301 ], [ 12.327128, 8.073472 ], [ 12.349214, 8.053699 ], [ 12.39911, 8.023184 ], [ 12.43033, 7.973039 ], [ 12.486094, 7.92441 ], [ 12.626757, 7.931521 ], [ 12.635924, 7.88405 ], [ 12.648899, 7.877536 ], [ 12.652927, 7.867086 ], [ 12.631294, 7.825425 ], [ 12.64328, 7.782326 ], [ 12.633584, 7.768937 ], [ 12.636778, 7.750469 ], [ 12.704331, 7.719983 ], [ 12.731251, 7.731499 ], [ 12.740129, 7.6955 ], [ 12.77769, 7.68705 ], [ 12.799829, 7.667462 ], [ 12.841054, 7.662415 ], [ 12.875678, 7.668886 ], [ 12.895114, 7.658203 ], [ 12.976998, 7.648783 ], [ 13.016868, 7.629023 ], [ 13.036689, 7.629697 ], [ 13.08085, 7.602924 ], [ 13.122622, 7.597468 ], [ 13.12707, 7.602201 ], [ 13.140588, 7.594623 ], [ 13.183172, 7.604336 ], [ 13.22449, 7.60193 ], [ 13.226792, 7.612219 ], [ 13.245875, 7.60659 ], [ 13.260502, 7.624492 ], [ 13.252614, 7.649298 ], [ 13.257615, 7.690208 ], [ 13.283844, 7.700258 ], [ 13.293762, 7.725077 ], [ 13.289311, 7.739347 ], [ 13.29548, 7.743486 ], [ 13.283922, 7.755346 ], [ 13.305426, 7.780142 ], [ 13.294424, 7.818347 ], [ 13.309674, 7.821151 ], [ 13.34087, 7.856727 ], [ 13.340382, 7.874202 ], [ 13.325822, 7.90118 ], [ 13.355926, 7.932084 ], [ 13.327539, 7.973622 ], [ 13.354734, 7.964363 ], [ 13.365136, 7.969981 ], [ 13.412724, 7.960599 ], [ 13.425757, 7.943851 ], [ 13.42136, 7.917647 ], [ 13.440799, 7.90904 ], [ 13.506917, 7.923506 ], [ 13.57297, 7.906274 ], [ 13.588793, 7.926142 ], [ 13.632793, 7.923364 ], [ 13.664938, 7.930448 ], [ 13.699512, 7.957635 ], [ 13.714105, 7.944683 ], [ 13.715934, 7.928918 ], [ 13.744262, 7.912089 ], [ 13.7447, 7.883555 ], [ 13.734192, 7.859915 ], [ 13.764399, 7.815207 ], [ 13.764981, 7.79917 ], [ 13.786901, 7.758087 ], [ 13.804565, 7.74682 ], [ 13.825507, 7.746297 ], [ 13.860689, 7.711553 ], [ 13.883561, 7.704518 ], [ 13.885555, 7.694956 ], [ 13.873081, 7.674588 ], [ 13.891754, 7.651767 ], [ 13.872741, 7.627847 ], [ 13.874242, 7.616859 ], [ 13.914268, 7.588646 ], [ 13.930847, 7.592178 ], [ 13.951445, 7.579257 ], [ 13.980392, 7.577782 ], [ 14.006171, 7.550397 ], [ 14.032388, 7.561064 ], [ 14.083734, 7.554745 ], [ 14.112594, 7.57081 ], [ 14.125642, 7.567032 ], [ 14.136558, 7.552695 ], [ 14.132311, 7.508688 ], [ 14.144822, 7.483748 ], [ 14.174986, 7.473286 ], [ 14.182642, 7.458225 ], [ 14.213675, 7.457002 ], [ 14.220279, 7.433849 ], [ 14.215977, 7.401195 ], [ 14.24194, 7.391641 ], [ 14.235728, 7.375219 ], [ 14.244139, 7.367588 ], [ 14.245873, 7.352694 ], [ 14.304883, 7.303758 ], [ 14.313561, 7.310901 ], [ 14.340898, 7.305334 ], [ 14.332843, 7.27826 ], [ 14.353862, 7.271529 ], [ 14.352699, 7.237892 ], [ 14.362379, 7.216901 ], [ 14.354008, 7.194978 ], [ 14.332682, 7.191605 ], [ 14.323374, 7.162827 ], [ 14.384884, 7.15029 ], [ 14.391817, 7.155546 ], [ 14.404411, 7.147201 ], [ 14.431832, 7.165941 ], [ 14.443304, 7.151603 ], [ 14.457396, 7.156868 ], [ 14.486036, 7.150046 ], [ 14.520239, 7.161454 ], [ 14.520876, 7.135143 ], [ 14.533492, 7.128987 ], [ 14.54122, 7.105165 ], [ 14.569347, 7.080145 ], [ 14.572813, 7.066858 ], [ 14.563533, 7.056677 ], [ 14.587788, 7.074683 ], [ 14.608773, 7.066806 ], [ 14.627224, 7.070204 ], [ 14.646139, 7.064829 ], [ 14.655542, 7.045945 ], [ 14.645, 7.025968 ], [ 14.651938, 7.016165 ], [ 14.707694, 7.0213 ] ] ] } },
{ "type": "Feature", "properties": { "GID_1": "CMR.6_1", "NAME_1": "Nord-Ouest", "superficie_km2": 17555.8, "bati_2015_km2": 116.51, "bati_2025_km2": 164.311, "couverture_ghsl_pct": 100.0, "mesure_disponible": true, "part_batie_2015_pct": 0.664, "part_batie_2025_pct": 0.936, "gain_bati_km2": 47.801, "croissance_pct": 41.0, "typologie": "Deja bati, croissance rapide" }, "geometry": { "type": "Polygon", "coordinates": [ [ [ 10.324352, 5.809132 ], [ 10.347835, 5.810398 ], [ 10.382226, 5.799833 ], [ 10.39092, 5.807555 ], [ 10.439091, 5.802524 ], [ 10.442327, 5.814603 ], [ 10.458291, 5.825988 ], [ 10.468846, 5.823789 ], [ 10.470421, 5.812925 ], [ 10.523848, 5.834597 ], [ 10.536452, 5.823798 ], [ 10.559924, 5.821561 ], [ 10.566738, 5.794351 ], [ 10.579885, 5.777692 ], [ 10.603382, 5.785086 ], [ 10.610677, 5.797435 ], [ 10.600346, 5.811628 ], [ 10.608265, 5.811417 ], [ 10.612448, 5.82368 ], [ 10.62888, 5.832509 ], [ 10.616751, 5.877395 ], [ 10.621213, 5.887863 ], [ 10.629308, 5.882929 ], [ 10.637831, 5.895085 ], [ 10.640793, 5.940305 ], [ 10.661778, 5.957144 ], [ 10.659405, 5.983023 ], [ 10.680741, 5.994263 ], [ 10.68249, 6.004197 ], [ 10.699852, 6.017896 ], [ 10.705066, 6.037911 ], [ 10.715339, 6.032486 ], [ 10.722702, 6.03933 ], [ 10.742105, 6.021045 ], [ 10.788515, 6.018988 ], [ 10.841936, 5.976416 ], [ 10.863903, 6.020242 ], [ 10.898842, 6.013412 ], [ 10.925933, 6.016312 ], [ 10.963761, 6.037842 ], [ 10.975204, 6.057054 ], [ 10.989204, 6.064487 ], [ 10.999294, 6.08614 ], [ 10.990814, 6.108012 ], [ 11.012226, 6.151204 ], [ 10.99934, 6.232678 ], [ 11.026806, 6.239175 ], [ 11.067236, 6.21108 ], [ 11.137568, 6.226587 ], [ 11.144534, 6.246841 ], [ 11.163245, 6.263316 ], [ 11.195728, 6.257536 ], [ 11.181338, 6.272857 ], [ 11.185087, 6.303437 ], [ 11.205887, 6.32227 ], [ 11.209311, 6.346812 ], [ 11.19771, 6.362662 ], [ 11.205383, 6.392822 ], [ 11.198368, 6.399192 ], [ 11.207355, 6.43005 ], [ 11.192342, 6.448331 ], [ 11.204515, 6.494775 ], [ 11.194415, 6.529321 ], [ 11.170755, 6.524125 ], [ 11.142426, 6.534112 ], [ 11.113681, 6.516351 ], [ 11.097289, 6.524077 ], [ 11.098476, 6.679589 ], [ 11.059893, 6.716192 ], [ 11.051923, 6.709365 ], [ 11.023065, 6.712512 ], [ 10.994279, 6.687008 ], [ 10.948147, 6.694738 ], [ 10.947083, 6.688282 ], [ 10.919232, 6.708508 ], [ 10.912993, 6.765612 ], [ 10.904158, 6.773359 ], [ 10.898317, 6.76248 ], [ 10.880411, 6.795504 ], [ 10.855601, 6.81102 ], [ 10.852384, 6.805234 ], [ 10.840547, 6.811835 ], [ 10.820064, 6.8438 ], [ 10.817747, 6.853147 ], [ 10.843297, 6.920748 ], [ 10.841154, 6.939636 ], [ 10.782248, 6.967989 ], [ 10.765486, 6.957441 ], [ 10.738444, 6.990109 ], [ 10.720821, 6.989348 ], [ 10.704015, 7.012051 ], [ 10.686524, 7.015585 ], [ 10.67802, 7.042315 ], [ 10.658669, 7.051587 ], [ 10.654706, 7.04313 ], [ 10.627642, 7.049407 ], [ 10.612911, 7.061125 ], [ 10.597702, 7.077907 ], [ 10.607007, 7.10334 ], [ 10.601531, 7.136365 ], [ 10.572037, 7.162286 ], [ 10.559307, 7.081923 ], [ 10.560274, 7.034681 ], [ 10.551012, 6.977721 ], [ 10.541215, 6.968178 ], [ 10.540978, 6.938624 ], [ 10.535209, 6.939686 ], [ 10.528111, 6.926647 ], [ 10.495899, 6.914832 ], [ 10.49037, 6.89966 ], [ 10.463063, 6.914777 ], [ 10.217097, 6.888837 ], [ 10.174064, 6.938205 ], [ 10.184516, 6.966561 ], [ 10.18261, 6.984831 ], [ 10.168615, 7.000229 ], [ 10.179498, 7.011675 ], [ 10.163241, 7.021296 ], [ 10.165774, 7.033944 ], [ 10.153352, 7.038452 ], [ 10.020114, 6.920472 ], [ 10.013424, 6.903147 ], [ 9.989941, 6.891552 ], [ 9.863947, 6.776453 ], [ 9.779425, 6.79453 ], [ 9.762715, 6.759293 ], [ 9.768431, 6.749093 ], [ 9.756074, 6.695715 ], [ 9.763906, 6.691051 ], [ 9.764413, 6.680713 ], [ 9.750652, 6.678322 ], [ 9.751466, 6.655732 ], [ 9.710506, 6.540121 ], [ 9.706341, 6.501975 ], [ 9.743618, 6.484232 ], [ 9.7365, 6.431143 ], [ 9.751397, 6.418659 ], [ 9.750241, 6.408883 ], [ 9.764067, 6.390413 ], [ 9.759324, 6.362491 ], [ 9.772645, 6.306565 ], [ 9.788483, 6.287357 ], [ 9.78861, 6.272702 ], [ 9.8086, 6.252716 ], [ 9.816828, 6.221224 ], [ 9.80582, 6.209671 ], [ 9.771766, 6.198583 ], [ 9.790551, 6.183728 ], [ 9.789146, 6.166862 ], [ 9.767003, 6.158496 ], [ 9.772458, 6.146729 ], [ 9.763034, 6.134124 ], [ 9.765443, 6.125458 ], [ 9.736766, 6.116185 ], [ 9.726398, 6.084697 ], [ 9.710403, 6.083849 ], [ 9.702235, 6.090621 ], [ 9.673878, 6.062239 ], [ 9.62974, 6.043931 ], [ 9.611459, 6.021414 ], [ 9.612037, 6.007402 ], [ 9.639274, 5.982396 ], [ 9.638874, 5.967557 ], [ 9.619618, 5.935317 ], [ 9.603939, 5.935908 ], [ 9.605927, 5.917525 ], [ 9.593203, 5.910358 ], [ 9.590974, 5.882215 ], [ 9.610865, 5.886501 ], [ 9.617262, 5.879219 ], [ 9.633715, 5.887529 ], [ 9.649937, 5.860417 ], [ 9.679925, 5.835299 ], [ 9.690657, 5.855869 ], [ 9.727929, 5.84778 ], [ 9.754272, 5.816728 ], [ 9.754721, 5.794518 ], [ 9.768461, 5.776789 ], [ 9.783938, 5.771502 ], [ 9.811853, 5.774718 ], [ 9.814119, 5.75509 ], [ 9.853303, 5.752543 ], [ 9.855282, 5.73416 ], [ 9.883677, 5.740627 ], [ 9.888996, 5.718792 ], [ 9.922081, 5.729366 ], [ 9.955568, 5.75219 ], [ 9.978412, 5.741302 ], [ 9.997377, 5.719218 ], [ 10.058748, 5.719836 ], [ 10.07936, 5.708124 ], [ 10.08955, 5.711788 ], [ 10.117258, 5.753857 ], [ 10.15728, 5.774744 ], [ 10.165272, 5.763205 ], [ 10.180844, 5.770162 ], [ 10.207665, 5.744984 ], [ 10.215878, 5.749689 ], [ 10.219532, 5.738914 ], [ 10.24281, 5.733576 ], [ 10.252309, 5.722694 ], [ 10.273713, 5.723686 ], [ 10.280175, 5.703934 ], [ 10.307747, 5.722571 ], [ 10.277946, 5.761452 ], [ 10.324352, 5.809132 ] ] ] } },
{ "type": "Feature", "properties": { "GID_1": "CMR.8_1", "NAME_1": "Ouest", "superficie_km2": 13961.9, "bati_2015_km2": 221.846, "bati_2025_km2": 256.077, "couverture_ghsl_pct": 100.0, "mesure_disponible": true, "part_batie_2015_pct": 1.589, "part_batie_2025_pct": 1.834, "gain_bati_km2": 34.231, "croissance_pct": 15.4, "typologie": "Deja bati, croissance rapide" }, "geometry": { "type": "Polygon", "coordinates": [ [ [ 10.113503, 4.928411 ], [ 10.128191, 4.926686 ], [ 10.128463, 4.920641 ], [ 10.150026, 4.919943 ], [ 10.1593, 4.946183 ], [ 10.147861, 4.975008 ], [ 10.161423, 4.975646 ], [ 10.174827, 4.993472 ], [ 10.191598, 4.997881 ], [ 10.193783, 5.008171 ], [ 10.225672, 5.039089 ], [ 10.223534, 5.054298 ], [ 10.197867, 5.078902 ], [ 10.232865, 5.107735 ], [ 10.240209, 5.105927 ], [ 10.265376, 5.06744 ], [ 10.284192, 5.057203 ], [ 10.314605, 5.100207 ], [ 10.367036, 5.086593 ], [ 10.372665, 5.076571 ], [ 10.367552, 5.017841 ], [ 10.395803, 5.018159 ], [ 10.418097, 5.006685 ], [ 10.420565, 4.972116 ], [ 10.411594, 4.960236 ], [ 10.425298, 4.93962 ], [ 10.420357, 4.918855 ], [ 10.432152, 4.930917 ], [ 10.441442, 4.960077 ], [ 10.459132, 4.954467 ], [ 10.452962, 4.931722 ], [ 10.435119, 4.909379 ], [ 10.517872, 4.906552 ], [ 10.528605, 4.895106 ], [ 10.595726, 4.881257 ], [ 10.641485, 4.91729 ], [ 10.68108, 4.935615 ], [ 10.690763, 4.954216 ], [ 10.699683, 4.948857 ], [ 10.721177, 4.953734 ], [ 10.749221, 5.005809 ], [ 10.785096, 5.019706 ], [ 10.814778, 5.007946 ], [ 10.819668, 4.997363 ], [ 10.8098, 4.986517 ], [ 10.818027, 4.984683 ], [ 10.823812, 4.971378 ], [ 10.833946, 4.970142 ], [ 10.837685, 4.978789 ], [ 10.853739, 4.97663 ], [ 10.856185, 4.954074 ], [ 10.851065, 4.953485 ], [ 10.867392, 4.941459 ], [ 10.941616, 4.924838 ], [ 10.94056, 4.941551 ], [ 10.962124, 4.970579 ], [ 10.931401, 5.001673 ], [ 10.945269, 5.006867 ], [ 10.960199, 5.032088 ], [ 10.96995, 5.036689 ], [ 10.970727, 5.061348 ], [ 10.986657, 5.084149 ], [ 10.998031, 5.1585 ], [ 11.013913, 5.164892 ], [ 11.015141, 5.172136 ], [ 11.048368, 5.17062 ], [ 11.061968, 5.18507 ], [ 11.08015, 5.188231 ], [ 11.081004, 5.203528 ], [ 11.066494, 5.217475 ], [ 11.082587, 5.257786 ], [ 11.072282, 5.298775 ], [ 11.105005, 5.325135 ], [ 11.127506, 5.327272 ], [ 11.14087, 5.358829 ], [ 11.182935, 5.384044 ], [ 11.186231, 5.40708 ], [ 11.194289, 5.413794 ], [ 11.170626, 5.452226 ], [ 11.195189, 5.468139 ], [ 11.215191, 5.527249 ], [ 11.207704, 5.539147 ], [ 11.212592, 5.557044 ], [ 11.203298, 5.56957 ], [ 11.205848, 5.580823 ], [ 11.186551, 5.604048 ], [ 11.21333, 5.647229 ], [ 11.201968, 5.670307 ], [ 11.225224, 5.682798 ], [ 11.24454, 5.715533 ], [ 11.257283, 5.711054 ], [ 11.271325, 5.730422 ], [ 11.278957, 5.729688 ], [ 11.292609, 5.751572 ], [ 11.292578, 5.768781 ], [ 11.306649, 5.769932 ], [ 11.316862, 5.786304 ], [ 11.302949, 5.799031 ], [ 11.288466, 5.795769 ], [ 11.274441, 5.806292 ], [ 11.26949, 5.824336 ], [ 11.276205, 5.845335 ], [ 11.270631, 5.858342 ], [ 11.278029, 5.873805 ], [ 11.264094, 5.882315 ], [ 11.268718, 5.893703 ], [ 11.253228, 5.90411 ], [ 11.256176, 5.912539 ], [ 11.275586, 5.915479 ], [ 11.270905, 5.925574 ], [ 11.27774, 5.950694 ], [ 11.260331, 5.969487 ], [ 11.264848, 5.994239 ], [ 11.307961, 6.039748 ], [ 11.299066, 6.051861 ], [ 11.296558, 6.077031 ], [ 11.285274, 6.071141 ], [ 11.289238, 6.081289 ], [ 11.279429, 6.091897 ], [ 11.27793, 6.117667 ], [ 11.262527, 6.136853 ], [ 11.280918, 6.158211 ], [ 11.262687, 6.174592 ], [ 11.27117, 6.18311 ], [ 11.271873, 6.206354 ], [ 11.29573, 6.211987 ], [ 11.301216, 6.24789 ], [ 11.290889, 6.25508 ], [ 11.278686, 6.247183 ], [ 11.264956, 6.258413 ], [ 11.258501, 6.254013 ], [ 11.240342, 6.264658 ], [ 11.219489, 6.256494 ], [ 11.163245, 6.263316 ], [ 11.144534, 6.246841 ], [ 11.137568, 6.226587 ], [ 11.067236, 6.21108 ], [ 11.026806, 6.239175 ], [ 11.006718, 6.236764 ], [ 10.998949, 6.230479 ], [ 11.012226, 6.151204 ], [ 10.990814, 6.108012 ], [ 10.999294, 6.08614 ], [ 10.989204, 6.064487 ], [ 10.975204, 6.057054 ], [ 10.963761, 6.037842 ], [ 10.925933, 6.016312 ], [ 10.898842, 6.013412 ], [ 10.863903, 6.020242 ], [ 10.841936, 5.976416 ], [ 10.788515, 6.018988 ], [ 10.742105, 6.021045 ], [ 10.722702, 6.03933 ], [ 10.715339, 6.032486 ], [ 10.705066, 6.037911 ], [ 10.699852, 6.017896 ], [ 10.68249, 6.004197 ], [ 10.680741, 5.994263 ], [ 10.659405, 5.983023 ], [ 10.661778, 5.957144 ], [ 10.640793, 5.940305 ], [ 10.637831, 5.895085 ], [ 10.629308, 5.882929 ], [ 10.621213, 5.887863 ], [ 10.616751, 5.877395 ], [ 10.62888, 5.832509 ], [ 10.612448, 5.82368 ], [ 10.608265, 5.811417 ], [ 10.600346, 5.811628 ], [ 10.610677, 5.797435 ], [ 10.603382, 5.785086 ], [ 10.579885, 5.777692 ], [ 10.566738, 5.794351 ], [ 10.559924, 5.821561 ], [ 10.536452, 5.823798 ], [ 10.523848, 5.834597 ], [ 10.470421, 5.812925 ], [ 10.468846, 5.823789 ], [ 10.458291, 5.825988 ], [ 10.436638, 5.802153 ], [ 10.404688, 5.808182 ], [ 10.382226, 5.799833 ], [ 10.347835, 5.810398 ], [ 10.324352, 5.809132 ], [ 10.278337, 5.767968 ], [ 10.28705, 5.742733 ], [ 10.307747, 5.722571 ], [ 10.280175, 5.703934 ], [ 10.273713, 5.723686 ], [ 10.252309, 5.722694 ], [ 10.24281, 5.733576 ], [ 10.219532, 5.738914 ], [ 10.215878, 5.749689 ], [ 10.207665, 5.744984 ], [ 10.180844, 5.770162 ], [ 10.165272, 5.763205 ], [ 10.159164, 5.77389 ], [ 10.148791, 5.773627 ], [ 10.113574, 5.750653 ], [ 10.08955, 5.711788 ], [ 10.07936, 5.708124 ], [ 10.100595, 5.66955 ], [ 10.091026, 5.644729 ], [ 10.079041, 5.633993 ], [ 10.024629, 5.62955 ], [ 9.998054, 5.580388 ], [ 9.978728, 5.580043 ], [ 9.962247, 5.589609 ], [ 9.948732, 5.568758 ], [ 9.965302, 5.555603 ], [ 9.966514, 5.546817 ], [ 9.949695, 5.522099 ], [ 9.958696, 5.492805 ], [ 9.952281, 5.488942 ], [ 9.946371, 5.447016 ], [ 9.923316, 5.408232 ], [ 9.923274, 5.380464 ], [ 9.893357, 5.351134 ], [ 9.852818, 5.338346 ], [ 9.850799, 5.308974 ], [ 9.839667, 5.300205 ], [ 9.832662, 5.275468 ], [ 9.850536, 5.254853 ], [ 9.880209, 5.250089 ], [ 9.907195, 5.276497 ], [ 9.924526, 5.272599 ], [ 9.934993, 5.277684 ], [ 9.923364, 5.251066 ], [ 9.943341, 5.253114 ], [ 9.970463, 5.244477 ], [ 9.986076, 5.227263 ], [ 9.993708, 5.227534 ], [ 9.992371, 5.216108 ], [ 9.998303, 5.214399 ], [ 10.008336, 5.183876 ], [ 10.001149, 5.166791 ], [ 10.005448, 5.145345 ], [ 9.991485, 5.130727 ], [ 10.010433, 5.080072 ], [ 10.00646, 5.069312 ], [ 10.03941, 5.058209 ], [ 10.049189, 5.048087 ], [ 10.072918, 5.044648 ], [ 10.065806, 5.015476 ], [ 10.074425, 4.987316 ], [ 10.092093, 4.964148 ], [ 10.10649, 4.958079 ], [ 10.113503, 4.928411 ] ] ] } },
{ "type": "Feature", "properties": { "GID_1": "CMR.10_1", "NAME_1": "Sud", "superficie_km2": 47423.8, "bati_2015_km2": 44.995, "bati_2025_km2": 49.157, "couverture_ghsl_pct": 100.0, "mesure_disponible": true, "part_batie_2015_pct": 0.095, "part_batie_2025_pct": 0.104, "gain_bati_km2": 4.162, "croissance_pct": 9.2, "typologie": "Peu bati, croissance lente" }, "geometry": { "type": "Polygon", "coordinates": [ [ [ 11.659054, 2.313896 ], [ 11.70107, 2.315645 ], [ 11.711257, 2.299322 ], [ 11.723573, 2.299179 ], [ 11.731175, 2.29088 ], [ 11.746333, 2.294757 ], [ 11.745974, 2.277263 ], [ 11.752976, 2.282097 ], [ 11.752479, 2.274983 ], [ 11.74952, 2.272109 ], [ 11.758882, 2.267484 ], [ 11.784538, 2.268344 ], [ 11.794608, 2.278692 ], [ 11.823991, 2.271186 ], [ 11.829042, 2.282095 ], [ 11.84081, 2.272485 ], [ 11.853628, 2.278306 ], [ 11.855412, 2.270853 ], [ 11.866479, 2.268984 ], [ 11.871243, 2.281041 ], [ 11.911797, 2.277458 ], [ 11.921756, 2.287174 ], [ 11.934324, 2.278196 ], [ 11.969201, 2.288481 ], [ 11.989006, 2.281581 ], [ 12.007257, 2.280816 ], [ 12.015743, 2.28803 ], [ 12.108219, 2.276979 ], [ 12.123369, 2.288844 ], [ 12.153657, 2.271032 ], [ 12.168524, 2.281254 ], [ 12.205026, 2.278379 ], [ 12.222401, 2.258171 ], [ 12.245902, 2.24841 ], [ 12.258657, 2.258482 ], [ 12.283241, 2.260944 ], [ 12.290753, 2.275935 ], [ 12.307167, 2.282198 ], [ 12.453922, 2.25246 ], [ 12.492743, 2.262249 ], [ 12.534319, 2.253638 ], [ 12.573323, 2.268049 ], [ 12.590799, 2.253072 ], [ 12.609699, 2.255958 ], [ 12.622175, 2.243237 ], [ 12.65209, 2.238048 ], [ 12.683256, 2.242274 ], [ 12.709457, 2.227237 ], [ 12.733101, 2.228548 ], [ 12.743388, 2.219857 ], [ 12.778771, 2.229397 ], [ 12.795577, 2.238767 ], [ 12.796898, 2.249459 ], [ 12.808025, 2.244167 ], [ 12.81962, 2.255795 ], [ 12.823723, 2.241429 ], [ 12.852727, 2.235454 ], [ 12.860129, 2.226899 ], [ 12.874696, 2.228265 ], [ 12.87791, 2.244412 ], [ 12.886709, 2.24315 ], [ 12.889325, 2.234658 ], [ 12.909166, 2.239289 ], [ 12.92084, 2.245677 ], [ 12.918296, 2.252966 ], [ 12.932091, 2.253057 ], [ 12.946816, 2.241962 ], [ 13.019021, 2.249142 ], [ 13.032541, 2.244134 ], [ 13.036285, 2.233801 ], [ 13.074348, 2.248036 ], [ 13.087686, 2.236654 ], [ 13.101651, 2.250835 ], [ 13.117727, 2.251335 ], [ 13.116851, 2.267315 ], [ 13.160309, 2.281343 ], [ 13.178204, 2.274667 ], [ 13.192277, 2.27947 ], [ 13.1842, 2.271517 ], [ 13.191634, 2.260808 ], [ 13.202759, 2.266372 ], [ 13.20353, 2.258047 ], [ 13.222276, 2.255103 ], [ 13.24842, 2.270735 ], [ 13.261276, 2.26051 ], [ 13.259478, 2.25266 ], [ 13.270615, 2.24808 ], [ 13.271671, 2.238893 ], [ 13.284029, 2.248191 ], [ 13.303198, 2.20773 ], [ 13.28419, 2.191055 ], [ 13.283911, 2.185312 ], [ 13.297426, 2.179681 ], [ 13.293155, 2.17135 ], [ 13.680087, 2.171692 ], [ 13.630462, 2.904451 ], [ 13.582988, 2.882101 ], [ 13.576137, 2.861604 ], [ 13.558086, 2.843916 ], [ 13.551313, 2.843092 ], [ 13.546391, 2.855448 ], [ 13.532633, 2.853482 ], [ 13.533777, 2.821572 ], [ 13.518335, 2.821632 ], [ 13.510463, 2.837297 ], [ 13.504001, 2.834877 ], [ 13.497824, 2.823839 ], [ 13.510684, 2.812409 ], [ 13.51106, 2.80007 ], [ 13.501386, 2.787239 ], [ 13.482548, 2.784652 ], [ 13.470874, 2.774486 ], [ 13.448787, 2.779994 ], [ 13.431726, 2.771656 ], [ 13.423434, 2.789238 ], [ 13.405653, 2.786859 ], [ 13.37584, 2.820479 ], [ 13.347184, 2.7958 ], [ 13.317722, 2.811017 ], [ 13.30396, 2.837239 ], [ 13.285474, 2.845606 ], [ 13.272969, 2.840333 ], [ 13.29182, 2.786963 ], [ 13.267467, 2.782264 ], [ 13.268304, 2.808753 ], [ 13.26063, 2.822293 ], [ 13.233138, 2.827713 ], [ 13.228942, 2.837836 ], [ 13.236698, 2.846532 ], [ 13.210628, 2.864716 ], [ 13.200789, 2.865604 ], [ 13.192896, 2.848183 ], [ 13.153944, 2.845878 ], [ 13.134461, 2.872444 ], [ 13.118645, 2.8592 ], [ 13.112443, 2.841452 ], [ 13.094346, 2.84141 ], [ 13.09798, 2.851825 ], [ 13.083176, 2.855071 ], [ 13.081315, 2.837626 ], [ 13.070024, 2.84703 ], [ 13.038803, 2.847673 ], [ 13.019683, 2.858489 ], [ 13.00208, 2.849292 ], [ 13.00278, 2.867808 ], [ 12.987662, 2.873289 ], [ 12.986755, 2.886489 ], [ 12.966886, 2.864527 ], [ 12.939674, 2.862813 ], [ 12.937166, 2.872188 ], [ 12.924973, 2.866695 ], [ 12.914956, 2.878225 ], [ 12.874295, 2.875278 ], [ 12.85996, 2.893742 ], [ 12.833261, 2.888085 ], [ 12.813237, 2.915404 ], [ 12.794777, 2.904289 ], [ 12.792527, 2.927929 ], [ 12.770881, 2.945781 ], [ 12.764727, 2.973161 ], [ 12.770594, 2.995967 ], [ 12.765206, 3.170316 ], [ 12.542497, 3.392804 ], [ 12.549218, 3.40545 ], [ 12.563605, 3.533432 ], [ 12.543618, 3.567789 ], [ 12.52614, 3.573782 ], [ 12.527772, 3.627006 ], [ 12.498498, 3.681881 ], [ 12.477624, 3.671546 ], [ 12.454617, 3.675363 ], [ 12.446115, 3.665934 ], [ 12.44892, 3.653307 ], [ 12.439213, 3.652198 ], [ 12.432778, 3.610934 ], [ 12.397055, 3.597401 ], [ 12.258034, 3.48081 ], [ 12.223233, 3.343558 ], [ 12.205151, 3.311306 ], [ 12.191271, 3.313741 ], [ 12.192652, 3.329128 ], [ 12.179978, 3.32219 ], [ 12.160774, 3.325407 ], [ 12.149997, 3.316455 ], [ 12.158824, 3.310499 ], [ 12.146828, 3.307 ], [ 12.145738, 3.293046 ], [ 12.139739, 3.29144 ], [ 12.129587, 3.299694 ], [ 12.128966, 3.314036 ], [ 12.138513, 3.324809 ], [ 12.133683, 3.361537 ], [ 11.993971, 3.406726 ], [ 11.982306, 3.41881 ], [ 11.980546, 3.434497 ], [ 11.949867, 3.45257 ], [ 11.941745, 3.441407 ], [ 11.925672, 3.44423 ], [ 11.92171, 3.45543 ], [ 11.892361, 3.473785 ], [ 11.861237, 3.408184 ], [ 11.860111, 3.381315 ], [ 11.849023, 3.364039 ], [ 11.839247, 3.37277 ], [ 11.819998, 3.363168 ], [ 11.776405, 3.326187 ], [ 11.774552, 3.309934 ], [ 11.770106, 3.319606 ], [ 11.759066, 3.318489 ], [ 11.734559, 3.33472 ], [ 11.745658, 3.28754 ], [ 11.736783, 3.278287 ], [ 11.709755, 3.277022 ], [ 11.701807, 3.258203 ], [ 11.69908, 3.198625 ], [ 11.68354, 3.187285 ], [ 11.640818, 3.187683 ], [ 11.614885, 3.167854 ], [ 11.585847, 3.161519 ], [ 11.564949, 3.137467 ], [ 11.55031, 3.143912 ], [ 11.545152, 3.135698 ], [ 11.505745, 3.130915 ], [ 11.501379, 3.136091 ], [ 11.412589, 3.134961 ], [ 11.404712, 3.144546 ], [ 11.355126, 3.143512 ], [ 11.331456, 3.113333 ], [ 11.31281, 3.116532 ], [ 11.297047, 3.132926 ], [ 11.270498, 3.135472 ], [ 11.224084, 3.10553 ], [ 11.214281, 3.105933 ], [ 11.189026, 3.135933 ], [ 11.184397, 3.152687 ], [ 11.173546, 3.154141 ], [ 11.179001, 3.166859 ], [ 11.171205, 3.216628 ], [ 11.159142, 3.229571 ], [ 11.139351, 3.233632 ], [ 11.111591, 3.251678 ], [ 11.118582, 3.271183 ], [ 11.113203, 3.293584 ], [ 11.098674, 3.311221 ], [ 11.099669, 3.331599 ], [ 11.079691, 3.338914 ], [ 11.087807, 3.349996 ], [ 11.082508, 3.365508 ], [ 11.067646, 3.361042 ], [ 11.061293, 3.373304 ], [ 11.061049, 3.395057 ], [ 11.031579, 3.415373 ], [ 11.016237, 3.410047 ], [ 10.999867, 3.413813 ], [ 10.990496, 3.394025 ], [ 10.982115, 3.393373 ], [ 10.966887, 3.396657 ], [ 10.954355, 3.415247 ], [ 10.895684, 3.409049 ], [ 10.861649, 3.388254 ], [ 10.827406, 3.408799 ], [ 10.833617, 3.419888 ], [ 10.820215, 3.433599 ], [ 10.81531, 3.458586 ], [ 10.762387, 3.473424 ], [ 10.554167, 3.403921 ], [ 10.296807, 3.331075 ], [ 10.251194, 3.413266 ], [ 10.255246, 3.452412 ], [ 10.23812, 3.468791 ], [ 10.243084, 3.480538 ], [ 10.23059, 3.509938 ], [ 10.23514, 3.544361 ], [ 10.202387, 3.559106 ], [ 10.204033, 3.59163 ], [ 10.185395, 3.59528 ], [ 10.154891, 3.567727 ], [ 10.15019, 3.575487 ], [ 10.116418, 3.578852 ], [ 10.111071, 3.549252 ], [ 10.102452, 3.549866 ], [ 10.083748, 3.496515 ], [ 10.067604, 3.489182 ], [ 10.075143, 3.419485 ], [ 10.053374, 3.398764 ], [ 10.057661, 3.378819 ], [ 10.03637, 3.334229 ], [ 9.982028, 3.303166 ], [ 9.963164, 3.276597 ], [ 9.902986, 3.263091 ], [ 9.97446, 3.08801 ], [ 9.963968, 3.079376 ], [ 9.966426, 3.061122 ], [ 9.955137, 3.020057 ], [ 9.946091, 3.006996 ], [ 9.929564, 3.000862 ], [ 9.905181, 2.950012 ], [ 9.896626, 2.880353 ], [ 9.890083, 2.880038 ], [ 9.881104, 2.840754 ], [ 9.892242, 2.799033 ], [ 9.876204, 2.768398 ], [ 9.873745, 2.733578 ], [ 9.85675, 2.716006 ], [ 9.859853, 2.699713 ], [ 9.846457, 2.672001 ], [ 9.839522, 2.617654 ], [ 9.8219, 2.567519 ], [ 9.822807, 2.518556 ], [ 9.815081, 2.50632 ], [ 9.825347, 2.438418 ], [ 9.817172, 2.419363 ], [ 9.819551, 2.353624 ], [ 9.83542, 2.325246 ], [ 9.830045, 2.290158 ], [ 9.846112, 2.244625 ], [ 9.87759, 2.231256 ], [ 9.878126, 2.217942 ], [ 9.888529, 2.218636 ], [ 9.902821, 2.197039 ], [ 9.919762, 2.197042 ], [ 9.935448, 2.181861 ], [ 9.938412, 2.191571 ], [ 9.955583, 2.188615 ], [ 9.9863, 2.174743 ], [ 9.988886, 2.167298 ], [ 10.012523, 2.169898 ], [ 10.041488, 2.159634 ], [ 10.047954, 2.164972 ], [ 10.109699, 2.161666 ], [ 10.120065, 2.141032 ], [ 10.136584, 2.155503 ], [ 10.16608, 2.150719 ], [ 10.1909, 2.174328 ], [ 11.353188, 2.171281 ], [ 11.359899, 2.174152 ], [ 11.355342, 2.180869 ], [ 11.363935, 2.198886 ], [ 11.35905, 2.215959 ], [ 11.365252, 2.219815 ], [ 11.355093, 2.225638 ], [ 11.364112, 2.24332 ], [ 11.370229, 2.235709 ], [ 11.382174, 2.245027 ], [ 11.377362, 2.255278 ], [ 11.384241, 2.262405 ], [ 11.377337, 2.265082 ], [ 11.382895, 2.276391 ], [ 11.379798, 2.284238 ], [ 11.365482, 2.287757 ], [ 11.376516, 2.296901 ], [ 11.396113, 2.300678 ], [ 11.420135, 2.290891 ], [ 11.439953, 2.298051 ], [ 11.451774, 2.289479 ], [ 11.459798, 2.294717 ], [ 11.456418, 2.301346 ], [ 11.475631, 2.300419 ], [ 11.485682, 2.292474 ], [ 11.523341, 2.301225 ], [ 11.548669, 2.294406 ], [ 11.560219, 2.304011 ], [ 11.582673, 2.307047 ], [ 11.612522, 2.293412 ], [ 11.630799, 2.303263 ], [ 11.649102, 2.302747 ], [ 11.659054, 2.313896 ] ] ] } },
{ "type": "Feature", "properties": { "GID_1": "CMR.9_1", "NAME_1": "Sud-Ouest", "superficie_km2": 25151.4, "bati_2015_km2": 62.769, "bati_2025_km2": 72.263, "couverture_ghsl_pct": 100.0, "mesure_disponible": true, "part_batie_2015_pct": 0.25, "part_batie_2025_pct": 0.287, "gain_bati_km2": 9.494, "croissance_pct": 15.1, "typologie": "Peu bati, croissance lente" }, "geometry": { "type": "Polygon", "coordinates": [ [ [ 9.303445, 4.003986 ], [ 9.322232, 3.998419 ], [ 9.300505, 3.983278 ], [ 9.29595, 3.955066 ], [ 9.335786, 3.915423 ], [ 9.356609, 3.907769 ], [ 9.381182, 3.920585 ], [ 9.405419, 3.971126 ], [ 9.403999, 3.991808 ], [ 9.434525, 4.023866 ], [ 9.451781, 4.023857 ], [ 9.457045, 4.059566 ], [ 9.478689, 4.062139 ], [ 9.498991, 4.051403 ], [ 9.506529, 4.060015 ], [ 9.509882, 4.08548 ], [ 9.529536, 4.105573 ], [ 9.550132, 4.105272 ], [ 9.557864, 4.118288 ], [ 9.547862, 4.13323 ], [ 9.548922, 4.148836 ], [ 9.529767, 4.165891 ], [ 9.529988, 4.210411 ], [ 9.519404, 4.212332 ], [ 9.510526, 4.196828 ], [ 9.499659, 4.203729 ], [ 9.46675, 4.189771 ], [ 9.456835, 4.193032 ], [ 9.448833, 4.208068 ], [ 9.429667, 4.211717 ], [ 9.420794, 4.203967 ], [ 9.413748, 4.223502 ], [ 9.41919, 4.234988 ], [ 9.428633, 4.236898 ], [ 9.424742, 4.27175 ], [ 9.433624, 4.294819 ], [ 9.439345, 4.292997 ], [ 9.437729, 4.301711 ], [ 9.45872, 4.3174 ], [ 9.455782, 4.348327 ], [ 9.464746, 4.346406 ], [ 9.465897, 4.355405 ], [ 9.478492, 4.36277 ], [ 9.479742, 4.37962 ], [ 9.498159, 4.391288 ], [ 9.502464, 4.411008 ], [ 9.514859, 4.402382 ], [ 9.510482, 4.417896 ], [ 9.497226, 4.421447 ], [ 9.495152, 4.459937 ], [ 9.487528, 4.470186 ], [ 9.491257, 4.483013 ], [ 9.503664, 4.490855 ], [ 9.492797, 4.503884 ], [ 9.503297, 4.511727 ], [ 9.493003, 4.526287 ], [ 9.508176, 4.531925 ], [ 9.511223, 4.523593 ], [ 9.504733, 4.520343 ], [ 9.511793, 4.519955 ], [ 9.51095, 4.542359 ], [ 9.522877, 4.544361 ], [ 9.538538, 4.564263 ], [ 9.541331, 4.589341 ], [ 9.549226, 4.588344 ], [ 9.573591, 4.615284 ], [ 9.630406, 4.62712 ], [ 9.643576, 4.637672 ], [ 9.646877, 4.650323 ], [ 9.632195, 4.664201 ], [ 9.691056, 4.721375 ], [ 9.704513, 4.808179 ], [ 9.749039, 4.841759 ], [ 9.742739, 4.858403 ], [ 9.774525, 4.873772 ], [ 9.762769, 4.877658 ], [ 9.763833, 4.887076 ], [ 9.779553, 4.897005 ], [ 9.786071, 4.916451 ], [ 9.756323, 4.919918 ], [ 9.754416, 4.941047 ], [ 9.766896, 4.956261 ], [ 9.77573, 5.005545 ], [ 9.811129, 5.025396 ], [ 9.828407, 5.01446 ], [ 9.856062, 5.018385 ], [ 9.866171, 5.029462 ], [ 9.854437, 5.051396 ], [ 9.831186, 5.060317 ], [ 9.815937, 5.079702 ], [ 9.801352, 5.140281 ], [ 9.775547, 5.146035 ], [ 9.766405, 5.209689 ], [ 9.736418, 5.245463 ], [ 9.739612, 5.273099 ], [ 9.768579, 5.263294 ], [ 9.783972, 5.2844 ], [ 9.829556, 5.290767 ], [ 9.824076, 5.330033 ], [ 9.849804, 5.332498 ], [ 9.874978, 5.349366 ], [ 9.893357, 5.351134 ], [ 9.922139, 5.377915 ], [ 9.923316, 5.408232 ], [ 9.946371, 5.447016 ], [ 9.952281, 5.488942 ], [ 9.958696, 5.492805 ], [ 9.950644, 5.525969 ], [ 9.966514, 5.546817 ], [ 9.965302, 5.555603 ], [ 9.948732, 5.568758 ], [ 9.962247, 5.589609 ], [ 9.978728, 5.580043 ], [ 9.998054, 5.580388 ], [ 10.024629, 5.62955 ], [ 10.079041, 5.633993 ], [ 10.101049, 5.660388 ], [ 10.097887, 5.682966 ], [ 10.07936, 5.708124 ], [ 10.061239, 5.719415 ], [ 9.997377, 5.719218 ], [ 9.978412, 5.741302 ], [ 9.955568, 5.75219 ], [ 9.922081, 5.729366 ], [ 9.888996, 5.718792 ], [ 9.883677, 5.740627 ], [ 9.855282, 5.73416 ], [ 9.853303, 5.752543 ], [ 9.814119, 5.75509 ], [ 9.811853, 5.774718 ], [ 9.783938, 5.771502 ], [ 9.768461, 5.776789 ], [ 9.754721, 5.794518 ], [ 9.754272, 5.816728 ], [ 9.727929, 5.84778 ], [ 9.690657, 5.855869 ], [ 9.679925, 5.835299 ], [ 9.649937, 5.860417 ], [ 9.633715, 5.887529 ], [ 9.617262, 5.879219 ], [ 9.610865, 5.886501 ], [ 9.590974, 5.882215 ], [ 9.593203, 5.910358 ], [ 9.605927, 5.917525 ], [ 9.603939, 5.935908 ], [ 9.619618, 5.935317 ], [ 9.638874, 5.967557 ], [ 9.639274, 5.982396 ], [ 9.612037, 6.007402 ], [ 9.611459, 6.021414 ], [ 9.62974, 6.043931 ], [ 9.673878, 6.062239 ], [ 9.702235, 6.090621 ], [ 9.710403, 6.083849 ], [ 9.726398, 6.084697 ], [ 9.736766, 6.116185 ], [ 9.765443, 6.125458 ], [ 9.763034, 6.134124 ], [ 9.772458, 6.146729 ], [ 9.767003, 6.158496 ], [ 9.789146, 6.166862 ], [ 9.790551, 6.183728 ], [ 9.771766, 6.198583 ], [ 9.80582, 6.209671 ], [ 9.816828, 6.221224 ], [ 9.8086, 6.252716 ], [ 9.78861, 6.272702 ], [ 9.788483, 6.287357 ], [ 9.772645, 6.306565 ], [ 9.759324, 6.362491 ], [ 9.764067, 6.390413 ], [ 9.750241, 6.408883 ], [ 9.751397, 6.418659 ], [ 9.7365, 6.431143 ], [ 9.743618, 6.484232 ], [ 9.707198, 6.500149 ], [ 9.706346, 6.515554 ], [ 9.668976, 6.510749 ], [ 9.65168, 6.529213 ], [ 9.633991, 6.520159 ], [ 9.594839, 6.528948 ], [ 9.582773, 6.492852 ], [ 9.587982, 6.475166 ], [ 9.528006, 6.443352 ], [ 9.464489, 6.454388 ], [ 9.431278, 6.317245 ], [ 9.352433, 6.352984 ], [ 9.343442, 6.351086 ], [ 9.333715, 6.293262 ], [ 9.320407, 6.287686 ], [ 9.321745, 6.274951 ], [ 9.30824, 6.262759 ], [ 9.265695, 6.184168 ], [ 9.211696, 6.167309 ], [ 9.167498, 6.130717 ], [ 9.152614, 6.090577 ], [ 9.133094, 6.072075 ], [ 8.945056, 5.911194 ], [ 8.912257, 5.90246 ], [ 8.902875, 5.863132 ], [ 8.882977, 5.860476 ], [ 8.858809, 5.845056 ], [ 8.856, 5.830707 ], [ 8.840001, 5.826343 ], [ 8.847064, 5.792301 ], [ 8.860287, 5.800138 ], [ 8.869383, 5.795819 ], [ 8.87236, 5.801792 ], [ 8.882951, 5.792844 ], [ 8.883421, 5.777464 ], [ 8.868416, 5.758642 ], [ 8.875004, 5.746984 ], [ 8.854161, 5.719495 ], [ 8.854125, 5.70868 ], [ 8.842211, 5.699413 ], [ 8.832183, 5.705855 ], [ 8.836645, 5.679553 ], [ 8.898597, 5.624197 ], [ 8.920679, 5.572205 ], [ 8.891793, 5.517491 ], [ 8.866731, 5.489424 ], [ 8.86527, 5.473489 ], [ 8.843883, 5.459048 ], [ 8.831048, 5.429978 ], [ 8.840231, 5.387762 ], [ 8.834191, 5.328467 ], [ 8.815157, 5.283846 ], [ 8.812752, 5.220225 ], [ 8.818734, 5.185621 ], [ 8.781618, 5.113309 ], [ 8.748363, 5.101242 ], [ 8.725268, 5.074829 ], [ 8.715596, 5.031939 ], [ 8.680796, 4.998506 ], [ 8.69408, 4.988158 ], [ 8.666233, 4.964902 ], [ 8.663198, 4.947745 ], [ 8.6509, 4.942725 ], [ 8.651937, 4.914962 ], [ 8.622027, 4.904959 ], [ 8.608072, 4.885136 ], [ 8.603004, 4.868322 ], [ 8.625521, 4.84386 ], [ 8.628655, 4.820331 ], [ 8.596951, 4.801202 ], [ 8.546133, 4.800807 ], [ 8.540105, 4.794905 ], [ 8.524884, 4.745846 ], [ 8.540198, 4.702319 ], [ 8.500317, 4.669797 ], [ 8.516054, 4.663324 ], [ 8.516641, 4.655507 ], [ 8.501253, 4.623817 ], [ 8.500237, 4.603779 ], [ 8.528679, 4.565784 ], [ 8.517029, 4.556223 ], [ 8.499638, 4.556495 ], [ 8.505121, 4.508579 ], [ 8.51454, 4.499379 ], [ 8.540453, 4.494159 ], [ 8.568716, 4.52067 ], [ 8.576537, 4.511092 ], [ 8.557773, 4.484437 ], [ 8.647718, 4.483287 ], [ 8.685286, 4.474649 ], [ 8.706062, 4.48665 ], [ 8.719927, 4.510425 ], [ 8.781261, 4.530087 ], [ 8.801143, 4.545537 ], [ 8.838902, 4.550384 ], [ 8.841262, 4.534982 ], [ 8.861615, 4.523161 ], [ 8.875446, 4.525326 ], [ 8.905168, 4.500103 ], [ 8.908315, 4.49209 ], [ 8.892514, 4.475724 ], [ 8.898429, 4.454543 ], [ 8.884097, 4.438287 ], [ 8.891974, 4.374042 ], [ 8.919785, 4.342278 ], [ 8.923743, 4.321745 ], [ 8.91585, 4.288692 ], [ 8.930756, 4.274767 ], [ 8.933414, 4.256413 ], [ 8.966965, 4.241109 ], [ 8.997722, 4.194453 ], [ 8.998971, 4.179988 ], [ 8.986724, 4.150471 ], [ 8.988914, 4.118065 ], [ 8.97779, 4.096603 ], [ 9.012748, 4.075727 ], [ 9.015613, 4.06675 ], [ 9.026313, 4.068829 ], [ 9.084486, 4.037594 ], [ 9.115175, 4.010246 ], [ 9.127718, 4.006907 ], [ 9.136621, 4.015115 ], [ 9.154599, 4.007911 ], [ 9.197583, 4.012267 ], [ 9.207863, 4.007244 ], [ 9.212598, 4.00161 ], [ 9.204434, 3.995741 ], [ 9.211816, 3.97798 ], [ 9.20544, 3.960598 ], [ 9.213804, 3.951226 ], [ 9.215691, 3.966433 ], [ 9.230515, 3.963289 ], [ 9.239858, 3.942475 ], [ 9.252219, 3.947268 ], [ 9.256678, 3.962472 ], [ 9.26975, 3.962626 ], [ 9.267252, 3.976048 ], [ 9.281774, 3.971752 ], [ 9.290071, 3.993797 ], [ 9.303445, 4.003986 ] ] ] } }
]
}
