{
"type": "FeatureCollection",
"name": "J10_era5_adm1",
"xy_coordinate_resolution": 1e-05,
"features": [
{ "type": "Feature", "properties": { "GID_1": "CMR.1_1", "NAME_1": "Adamaoua", "t2m_moyen_c": 22.92, "t2m_min_c": 19.96, "t2m_max_c": 28.06, "amplitude_c": 8.1 }, "geometry": { "type": "Polygon", "coordinates": [ [ [ 13.28384, 7.70026 ], [ 13.25762, 7.69021 ], [ 13.25261, 7.6493 ], [ 13.2605, 7.62449 ], [ 13.24588, 7.60659 ], [ 13.22679, 7.61222 ], [ 13.22449, 7.60193 ], [ 13.18317, 7.60434 ], [ 13.14059, 7.59462 ], [ 13.12707, 7.6022 ], [ 13.12262, 7.59747 ], [ 13.08085, 7.60292 ], [ 13.03669, 7.6297 ], [ 13.01687, 7.62902 ], [ 12.977, 7.64878 ], [ 12.89511, 7.6582 ], [ 12.87568, 7.66889 ], [ 12.84105, 7.66241 ], [ 12.79983, 7.66746 ], [ 12.77769, 7.68705 ], [ 12.74013, 7.6955 ], [ 12.73125, 7.7315 ], [ 12.70433, 7.71998 ], [ 12.63526, 7.75239 ], [ 12.63428, 7.7718 ], [ 12.64328, 7.78233 ], [ 12.63129, 7.82542 ], [ 12.65293, 7.86709 ], [ 12.6489, 7.87754 ], [ 12.63592, 7.88405 ], [ 12.62676, 7.93152 ], [ 12.48609, 7.92441 ], [ 12.43033, 7.97304 ], [ 12.39911, 8.02318 ], [ 12.34921, 8.0537 ], [ 12.32713, 8.07347 ], [ 12.32445, 8.0863 ], [ 12.28766, 8.11374 ], [ 12.27607, 8.1515 ], [ 12.28849, 8.1685 ], [ 12.29143, 8.1876 ], [ 12.28059, 8.1765 ], [ 12.25637, 8.17582 ], [ 12.24358, 8.16695 ], [ 12.24161, 8.14993 ], [ 12.22686, 8.13625 ], [ 12.22841, 8.12581 ], [ 12.2197, 8.12154 ], [ 12.20953, 8.0971 ], [ 12.21839, 8.06898 ], [ 12.22126, 8.0026 ], [ 12.20573, 7.97058 ], [ 12.18764, 7.95877 ], [ 12.188, 7.94332 ], [ 12.16026, 7.91593 ], [ 12.15369, 7.8953 ], [ 12.08848, 7.83642 ], [ 12.07646, 7.80511 ], [ 12.06331, 7.79483 ], [ 12.06302, 7.78067 ], [ 12.05247, 7.77255 ], [ 12.05531, 7.75718 ], [ 12.03188, 7.73021 ], [ 12.02699, 7.66526 ], [ 12.00776, 7.66188 ], [ 12.01883, 7.62236 ], [ 12.02051, 7.53973 ], [ 12.03434, 7.52111 ], [ 11.97404, 7.48735 ], [ 11.96535, 7.47404 ], [ 11.96232, 7.433 ], [ 11.94907, 7.43044 ], [ 11.94025, 7.41681 ], [ 11.94395, 7.39892 ], [ 11.93576, 7.37985 ], [ 11.91611, 7.3727 ], [ 11.90171, 7.34962 ], [ 11.89229, 7.34852 ], [ 11.88068, 7.30728 ], [ 11.83667, 7.25233 ], [ 11.81676, 7.24544 ], [ 11.8113, 7.23362 ], [ 11.8137, 7.22809 ], [ 11.85426, 7.22677 ], [ 11.84099, 7.20996 ], [ 11.83577, 7.17664 ], [ 11.84494, 7.16526 ], [ 11.84294, 7.15364 ], [ 11.85363, 7.12951 ], [ 11.87327, 7.1084 ], [ 11.87113, 7.07944 ], [ 11.84968, 7.08948 ], [ 11.83651, 7.08673 ], [ 11.82686, 7.07303 ], [ 11.80686, 7.0814 ], [ 11.7772, 7.04842 ], [ 11.7329, 7.05772 ], [ 11.70992, 7.05535 ], [ 11.7171, 7.03159 ], [ 11.68572, 7.02129 ], [ 11.66921, 6.99849 ], [ 11.65624, 6.9965 ], [ 11.66044, 6.98855 ], [ 11.63655, 6.9885 ], [ 11.61924, 6.97612 ], [ 11.62493, 6.96915 ], [ 11.62306, 6.95044 ], [ 11.60659, 6.93505 ], [ 11.60663, 6.91123 ], [ 11.58325, 6.90884 ], [ 11.56429, 6.88795 ], [ 11.56467, 6.87574 ], [ 11.55337, 6.85917 ], [ 11.55475, 6.85129 ], [ 11.58088, 6.8395 ], [ 11.57945, 6.81746 ], [ 11.59133, 6.81433 ], [ 11.5973, 6.80183 ], [ 11.57157, 6.78513 ], [ 11.57074, 6.77228 ], [ 11.5858, 6.74059 ], [ 11.57604, 6.72486 ], [ 11.56001, 6.72414 ], [ 11.55147, 6.71582 ], [ 11.55387, 6.68396 ], [ 11.54865, 6.67721 ], [ 11.55605, 6.66769 ], [ 11.53367, 6.65411 ], [ 11.5373, 6.64926 ], [ 11.52576, 6.64505 ], [ 11.51991, 6.62889 ], [ 11.52204, 6.61897 ], [ 11.49659, 6.60074 ], [ 11.48428, 6.59922 ], [ 11.46395, 6.61129 ], [ 11.44832, 6.60069 ], [ 11.41887, 6.59721 ], [ 11.43254, 6.55465 ], [ 11.43209, 6.54485 ], [ 11.41938, 6.54171 ], [ 11.42599, 6.53185 ], [ 11.38654, 6.5278 ], [ 11.37981, 6.52057 ], [ 11.3565, 6.52568 ], [ 11.35085, 6.51497 ], [ 11.35717, 6.50516 ], [ 11.3509, 6.50001 ], [ 11.31558, 6.50875 ], [ 11.30885, 6.52051 ], [ 11.28017, 6.53859 ], [ 11.24286, 6.52306 ], [ 11.22503, 6.53887 ], [ 11.19174, 6.53862 ], [ 11.20559, 6.48672 ], [ 11.19289, 6.45809 ], [ 11.19234, 6.44833 ], [ 11.20735, 6.43005 ], [ 11.19837, 6.39919 ], [ 11.20538, 6.39282 ], [ 11.19771, 6.36266 ], [ 11.20931, 6.34681 ], [ 11.20589, 6.32227 ], [ 11.18509, 6.30344 ], [ 11.18243, 6.26822 ], [ 11.19174, 6.25953 ], [ 11.21949, 6.25649 ], [ 11.24034, 6.26466 ], [ 11.2585, 6.25401 ], [ 11.26496, 6.25841 ], [ 11.27869, 6.24718 ], [ 11.29089, 6.25508 ], [ 11.30371, 6.24234 ], [ 11.29573, 6.21199 ], [ 11.27187, 6.20635 ], [ 11.27117, 6.18311 ], [ 11.26269, 6.17459 ], [ 11.28092, 6.15821 ], [ 11.26253, 6.13685 ], [ 11.27793, 6.11767 ], [ 11.27943, 6.0919 ], [ 11.28924, 6.08129 ], [ 11.28527, 6.07114 ], [ 11.29656, 6.07703 ], [ 11.29907, 6.05186 ], [ 11.30796, 6.03975 ], [ 11.26606, 5.99675 ], [ 11.26405, 5.97238 ], [ 11.29939, 5.98773 ], [ 11.30404, 5.98036 ], [ 11.31127, 5.99643 ], [ 11.32159, 5.99205 ], [ 11.32763, 5.99999 ], [ 11.33723, 5.99332 ], [ 11.38526, 6.0077 ], [ 11.45625, 6.0172 ], [ 11.46238, 6.02487 ], [ 11.49659, 6.03029 ], [ 11.5029, 6.03769 ], [ 11.55373, 6.04585 ], [ 11.57711, 6.05733 ], [ 11.59361, 6.05424 ], [ 11.60341, 6.07011 ], [ 11.61547, 6.06121 ], [ 11.62338, 6.07231 ], [ 11.66473, 6.07415 ], [ 11.66162, 6.08822 ], [ 11.67481, 6.09311 ], [ 11.68427, 6.1126 ], [ 11.70508, 6.12134 ], [ 11.70649, 6.13964 ], [ 11.71417, 6.13774 ], [ 11.76317, 6.16552 ], [ 11.77367, 6.16343 ], [ 11.78969, 6.18572 ], [ 11.79648, 6.18338 ], [ 11.81412, 6.1947 ], [ 11.83504, 6.19087 ], [ 11.84083, 6.20066 ], [ 11.86164, 6.21 ], [ 11.87159, 6.20252 ], [ 11.90049, 6.20546 ], [ 11.91075, 6.22291 ], [ 11.92722, 6.21521 ], [ 11.92938, 6.22086 ], [ 11.93847, 6.21931 ], [ 11.94623, 6.23306 ], [ 11.94499, 6.24915 ], [ 11.99259, 6.26126 ], [ 12.00351, 6.25545 ], [ 11.98956, 6.22521 ], [ 11.99311, 6.2129 ], [ 12.09391, 6.15424 ], [ 12.18443, 6.15345 ], [ 12.20449, 6.18506 ], [ 12.22424, 6.17955 ], [ 12.25726, 6.19296 ], [ 12.29509, 6.19802 ], [ 12.33221, 6.16094 ], [ 12.38705, 6.13408 ], [ 12.40132, 6.11544 ], [ 12.45862, 6.08741 ], [ 12.47688, 6.044 ], [ 12.49607, 6.03707 ], [ 12.50273, 6.00186 ], [ 12.53172, 6.00087 ], [ 14.37995, 5.99998 ], [ 14.38019, 6.01413 ], [ 14.40458, 6.01441 ], [ 14.38245, 6.03606 ], [ 14.38648, 6.05951 ], [ 14.39818, 6.06124 ], [ 14.41774, 6.04179 ], [ 14.42319, 6.07933 ], [ 14.47011, 6.09412 ], [ 14.48629, 6.11484 ], [ 14.50804, 6.1282 ], [ 14.53144, 6.16588 ], [ 14.56302, 6.19111 ], [ 14.73976, 6.25089 ], [ 14.81282, 6.36413 ], [ 14.8014, 6.40112 ], [ 14.85096, 6.49262 ], [ 14.96164, 6.74987 ], [ 15.01612, 6.76937 ], [ 15.04514, 6.76193 ], [ 15.0607, 6.7784 ], [ 15.0681, 6.81492 ], [ 15.11446, 6.91499 ], [ 15.13898, 6.94349 ], [ 15.13298, 6.97062 ], [ 15.14447, 7.02708 ], [ 15.15981, 7.04578 ], [ 15.16866, 7.07352 ], [ 15.18877, 7.06737 ], [ 15.19402, 7.07296 ], [ 15.19265, 7.08594 ], [ 15.21235, 7.12148 ], [ 15.22348, 7.12672 ], [ 15.22176, 7.14018 ], [ 15.21174, 7.14674 ], [ 15.20851, 7.17649 ], [ 15.23251, 7.21789 ], [ 15.21302, 7.2248 ], [ 15.1032, 7.1436 ], [ 15.10255, 7.15912 ], [ 15.08719, 7.16571 ], [ 15.07937, 7.17943 ], [ 15.05479, 7.18775 ], [ 14.99531, 7.13826 ], [ 14.97823, 7.13676 ], [ 14.93311, 7.11268 ], [ 14.89325, 7.1051 ], [ 14.87119, 7.07985 ], [ 14.83417, 7.08565 ], [ 14.77324, 7.05498 ], [ 14.76533, 7.04041 ], [ 14.72565, 7.02356 ], [ 14.65194, 7.01616 ], [ 14.645, 7.02597 ], [ 14.65554, 7.04594 ], [ 14.64614, 7.06483 ], [ 14.60068, 7.06786 ], [ 14.58779, 7.07468 ], [ 14.56353, 7.05668 ], [ 14.57281, 7.06686 ], [ 14.56935, 7.08015 ], [ 14.54122, 7.10517 ], [ 14.53349, 7.12899 ], [ 14.52088, 7.13514 ], [ 14.52024, 7.16145 ], [ 14.48604, 7.15005 ], [ 14.4574, 7.15687 ], [ 14.4433, 7.1516 ], [ 14.43183, 7.16594 ], [ 14.40441, 7.1472 ], [ 14.39182, 7.15555 ], [ 14.38488, 7.15029 ], [ 14.32186, 7.16428 ], [ 14.33268, 7.19161 ], [ 14.35401, 7.19498 ], [ 14.36196, 7.21366 ], [ 14.3527, 7.23789 ], [ 14.35386, 7.27153 ], [ 14.33284, 7.27826 ], [ 14.3409, 7.30533 ], [ 14.31356, 7.3109 ], [ 14.30488, 7.30376 ], [ 14.24587, 7.35269 ], [ 14.24414, 7.36759 ], [ 14.23573, 7.37522 ], [ 14.24194, 7.39164 ], [ 14.21598, 7.4012 ], [ 14.22028, 7.43385 ], [ 14.21368, 7.457 ], [ 14.18264, 7.45823 ], [ 14.17499, 7.47329 ], [ 14.14482, 7.48375 ], [ 14.13231, 7.50869 ], [ 14.13656, 7.55269 ], [ 14.12564, 7.56703 ], [ 14.11259, 7.57081 ], [ 14.08373, 7.55475 ], [ 14.03239, 7.56106 ], [ 14.00617, 7.5504 ], [ 13.98039, 7.57778 ], [ 13.95144, 7.57926 ], [ 13.93085, 7.59218 ], [ 13.91427, 7.58865 ], [ 13.87424, 7.61686 ], [ 13.87274, 7.62785 ], [ 13.89175, 7.65177 ], [ 13.87308, 7.67459 ], [ 13.88556, 7.69496 ], [ 13.88356, 7.70452 ], [ 13.86069, 7.71155 ], [ 13.82551, 7.7463 ], [ 13.80457, 7.74682 ], [ 13.7869, 7.75809 ], [ 13.76498, 7.79917 ], [ 13.7644, 7.81521 ], [ 13.73419, 7.85992 ], [ 13.7447, 7.88355 ], [ 13.74426, 7.91209 ], [ 13.71593, 7.92892 ], [ 13.7141, 7.94468 ], [ 13.69951, 7.95763 ], [ 13.66494, 7.93045 ], [ 13.63279, 7.92336 ], [ 13.58879, 7.92614 ], [ 13.57297, 7.90627 ], [ 13.50692, 7.92351 ], [ 13.4408, 7.90904 ], [ 13.42136, 7.91765 ], [ 13.42576, 7.94385 ], [ 13.41272, 7.9606 ], [ 13.36514, 7.96998 ], [ 13.35473, 7.96436 ], [ 13.32754, 7.97362 ], [ 13.35593, 7.93208 ], [ 13.32582, 7.90118 ], [ 13.34038, 7.8742 ], [ 13.34087, 7.85673 ], [ 13.30967, 7.82115 ], [ 13.29442, 7.81835 ], [ 13.30616, 7.78624 ], [ 13.28392, 7.75535 ], [ 13.29548, 7.74349 ], [ 13.28931, 7.73935 ], [ 13.28384, 7.70026 ] ] ] } },
{ "type": "Feature", "properties": { "GID_1": "CMR.2_1", "NAME_1": "Centre", "t2m_moyen_c": 23.76, "t2m_min_c": 21.25, "t2m_max_c": 27.57, "amplitude_c": 6.32 }, "geometry": { "type": "Polygon", "coordinates": [ [ [ 11.78041, 3.33077 ], [ 11.8362, 3.37182 ], [ 11.85026, 3.36518 ], [ 11.86011, 3.38132 ], [ 11.86124, 3.40818 ], [ 11.89236, 3.47378 ], [ 11.92171, 3.45543 ], [ 11.92567, 3.44423 ], [ 11.94174, 3.44141 ], [ 11.94987, 3.45257 ], [ 11.98055, 3.4345 ], [ 11.98231, 3.41881 ], [ 11.99397, 3.40673 ], [ 12.13368, 3.36154 ], [ 12.13851, 3.32481 ], [ 12.12897, 3.31404 ], [ 12.12959, 3.29969 ], [ 12.13974, 3.29144 ], [ 12.14574, 3.29305 ], [ 12.14683, 3.307 ], [ 12.15882, 3.3105 ], [ 12.15, 3.31646 ], [ 12.16077, 3.32541 ], [ 12.17998, 3.32219 ], [ 12.19265, 3.32913 ], [ 12.19127, 3.31374 ], [ 12.20515, 3.31131 ], [ 12.22323, 3.34356 ], [ 12.25488, 3.47652 ], [ 12.39705, 3.5974 ], [ 12.43278, 3.61093 ], [ 12.43921, 3.6522 ], [ 12.44892, 3.65331 ], [ 12.44611, 3.66593 ], [ 12.45729, 3.67736 ], [ 12.47762, 3.67155 ], [ 12.50078, 3.68073 ], [ 12.52777, 3.62701 ], [ 12.52614, 3.57378 ], [ 12.54362, 3.56779 ], [ 12.56361, 3.53343 ], [ 12.60174, 3.61531 ], [ 12.61812, 3.71012 ], [ 12.60454, 3.73253 ], [ 12.54896, 3.77652 ], [ 12.55146, 3.79163 ], [ 12.53039, 3.798 ], [ 12.50158, 3.82996 ], [ 12.49441, 3.89015 ], [ 12.50047, 3.89567 ], [ 12.50719, 3.87892 ], [ 12.52032, 3.87567 ], [ 12.55692, 3.9049 ], [ 12.55697, 3.91896 ], [ 12.6132, 3.92734 ], [ 12.63244, 3.93993 ], [ 12.65468, 3.93461 ], [ 12.72647, 4.01041 ], [ 12.76419, 4.03036 ], [ 12.79771, 4.03404 ], [ 12.8079, 4.05954 ], [ 12.80274, 4.06744 ], [ 12.79113, 4.07771 ], [ 12.75566, 4.08735 ], [ 12.75042, 4.10132 ], [ 12.752, 4.12027 ], [ 12.78375, 4.13236 ], [ 12.77651, 4.14825 ], [ 12.7934, 4.17585 ], [ 12.78357, 4.20411 ], [ 12.8044, 4.2584 ], [ 12.79548, 4.29879 ], [ 12.77647, 4.29388 ], [ 12.77035, 4.29966 ], [ 12.78174, 4.30855 ], [ 12.78308, 4.34239 ], [ 12.84284, 4.37466 ], [ 12.8772, 4.51786 ], [ 12.97949, 4.56466 ], [ 12.97687, 4.59001 ], [ 13.00022, 4.59243 ], [ 13.01143, 4.60567 ], [ 13.05845, 4.59497 ], [ 13.09135, 4.56159 ], [ 13.12922, 4.54573 ], [ 13.17126, 4.55368 ], [ 13.21216, 4.54993 ], [ 13.2064, 4.56241 ], [ 13.21307, 4.57939 ], [ 13.20919, 4.60357 ], [ 13.22888, 4.65207 ], [ 13.22285, 4.67275 ], [ 13.22742, 4.69092 ], [ 13.21931, 4.70097 ], [ 13.23526, 4.70821 ], [ 13.22224, 4.72957 ], [ 13.22379, 4.75818 ], [ 13.22914, 4.76506 ], [ 13.23716, 4.75895 ], [ 13.23669, 4.76885 ], [ 13.2468, 4.77378 ], [ 13.24413, 4.78763 ], [ 13.23273, 4.78036 ], [ 13.24275, 4.7886 ], [ 13.23667, 4.80013 ], [ 13.24007, 4.8183 ], [ 13.22342, 4.83606 ], [ 13.20997, 4.83859 ], [ 13.20928, 4.84637 ], [ 13.19814, 4.84675 ], [ 13.20682, 4.86074 ], [ 13.19602, 4.86464 ], [ 13.18786, 4.9164 ], [ 13.11793, 4.93014 ], [ 13.06573, 4.93004 ], [ 13.03955, 4.95265 ], [ 13.01444, 4.95813 ], [ 13.05842, 5.03533 ], [ 13.05729, 5.07535 ], [ 13.03021, 5.10744 ], [ 13.00007, 5.12498 ], [ 12.90487, 5.21434 ], [ 12.80918, 5.27975 ], [ 12.84269, 5.30584 ], [ 12.86161, 5.30912 ], [ 12.88667, 5.32578 ], [ 12.90441, 5.32695 ], [ 12.93511, 5.31228 ], [ 12.95545, 5.32088 ], [ 13.00025, 5.38497 ], [ 13.07684, 5.53238 ], [ 13.07161, 5.5587 ], [ 13.05469, 5.57009 ], [ 13.05556, 5.58871 ], [ 13.00909, 5.64224 ], [ 13.01352, 5.68329 ], [ 13.00564, 5.68196 ], [ 13.0006, 5.70573 ], [ 12.96423, 5.71598 ], [ 12.95402, 5.79077 ], [ 12.89993, 5.86767 ], [ 12.88622, 5.86851 ], [ 12.87189, 5.90193 ], [ 12.87755, 5.98161 ], [ 12.88791, 6.00037 ], [ 12.50273, 6.00186 ], [ 12.49607, 6.03707 ], [ 12.47688, 6.044 ], [ 12.45862, 6.08741 ], [ 12.40132, 6.11544 ], [ 12.38705, 6.13408 ], [ 12.33221, 6.16094 ], [ 12.29509, 6.19802 ], [ 12.25726, 6.19296 ], [ 12.22424, 6.17955 ], [ 12.20449, 6.18506 ], [ 12.18443, 6.15345 ], [ 12.09391, 6.15424 ], [ 11.99311, 6.2129 ], [ 11.98956, 6.22521 ], [ 12.00351, 6.25545 ], [ 11.99851, 6.26123 ], [ 11.94499, 6.24915 ], [ 11.94623, 6.23306 ], [ 11.93847, 6.21931 ], [ 11.92938, 6.22086 ], [ 11.92722, 6.21521 ], [ 11.91075, 6.22291 ], [ 11.90049, 6.20546 ], [ 11.87159, 6.20252 ], [ 11.86164, 6.21 ], [ 11.84083, 6.20066 ], [ 11.83504, 6.19087 ], [ 11.81412, 6.1947 ], [ 11.79648, 6.18338 ], [ 11.78969, 6.18572 ], [ 11.77367, 6.16343 ], [ 11.76317, 6.16552 ], [ 11.71417, 6.13774 ], [ 11.70649, 6.13964 ], [ 11.70508, 6.12134 ], [ 11.68427, 6.1126 ], [ 11.67481, 6.09311 ], [ 11.66162, 6.08822 ], [ 11.66473, 6.07415 ], [ 11.62338, 6.07231 ], [ 11.61547, 6.06121 ], [ 11.60341, 6.07011 ], [ 11.59361, 6.05424 ], [ 11.57711, 6.05733 ], [ 11.55373, 6.04585 ], [ 11.5029, 6.03769 ], [ 11.49659, 6.03029 ], [ 11.46238, 6.02487 ], [ 11.45625, 6.0172 ], [ 11.38526, 6.0077 ], [ 11.33723, 5.99332 ], [ 11.32763, 5.99999 ], [ 11.32159, 5.99205 ], [ 11.31127, 5.99643 ], [ 11.30404, 5.98036 ], [ 11.29939, 5.98773 ], [ 11.26205, 5.97189 ], [ 11.27833, 5.94788 ], [ 11.27112, 5.92828 ], [ 11.27559, 5.91548 ], [ 11.25618, 5.91254 ], [ 11.25323, 5.90411 ], [ 11.26872, 5.8937 ], [ 11.26409, 5.88232 ], [ 11.27803, 5.87381 ], [ 11.27063, 5.85834 ], [ 11.27621, 5.84534 ], [ 11.26949, 5.82434 ], [ 11.27275, 5.80972 ], [ 11.28616, 5.79658 ], [ 11.30295, 5.79903 ], [ 11.31686, 5.7863 ], [ 11.30665, 5.76993 ], [ 11.29258, 5.76878 ], [ 11.29261, 5.75157 ], [ 11.27896, 5.72969 ], [ 11.27133, 5.73042 ], [ 11.25728, 5.71105 ], [ 11.24454, 5.71553 ], [ 11.22522, 5.6828 ], [ 11.20197, 5.67031 ], [ 11.21333, 5.64723 ], [ 11.18655, 5.60405 ], [ 11.20585, 5.58082 ], [ 11.2033, 5.56957 ], [ 11.21259, 5.55704 ], [ 11.2077, 5.53915 ], [ 11.21519, 5.52725 ], [ 11.19519, 5.46814 ], [ 11.17063, 5.45223 ], [ 11.19429, 5.41379 ], [ 11.18623, 5.40708 ], [ 11.18293, 5.38404 ], [ 11.14087, 5.35883 ], [ 11.12751, 5.32727 ], [ 11.10501, 5.32514 ], [ 11.07228, 5.29877 ], [ 11.08259, 5.25779 ], [ 11.06649, 5.21748 ], [ 11.081, 5.20353 ], [ 11.08015, 5.18823 ], [ 11.06197, 5.18507 ], [ 11.04837, 5.17062 ], [ 11.01514, 5.17214 ], [ 11.01391, 5.16489 ], [ 10.99803, 5.1585 ], [ 10.98666, 5.08415 ], [ 10.97073, 5.06135 ], [ 10.96995, 5.03669 ], [ 10.9602, 5.03209 ], [ 10.94527, 5.00687 ], [ 10.9314, 5.00167 ], [ 10.96212, 4.97058 ], [ 10.94056, 4.94155 ], [ 10.94162, 4.92484 ], [ 10.86739, 4.94146 ], [ 10.85106, 4.95348 ], [ 10.85618, 4.95407 ], [ 10.85374, 4.97663 ], [ 10.83768, 4.97879 ], [ 10.83395, 4.97014 ], [ 10.82381, 4.97138 ], [ 10.81803, 4.98468 ], [ 10.8098, 4.98652 ], [ 10.81987, 4.99907 ], [ 10.81127, 5.01108 ], [ 10.7851, 5.01971 ], [ 10.76551, 5.01593 ], [ 10.74922, 5.00581 ], [ 10.72118, 4.95373 ], [ 10.69968, 4.94886 ], [ 10.69076, 4.95422 ], [ 10.68108, 4.93562 ], [ 10.64149, 4.91729 ], [ 10.59844, 4.88226 ], [ 10.56432, 4.88475 ], [ 10.52089, 4.89935 ], [ 10.49264, 4.88411 ], [ 10.47782, 4.85142 ], [ 10.44445, 4.83297 ], [ 10.41716, 4.78822 ], [ 10.37841, 4.78628 ], [ 10.3607, 4.76467 ], [ 10.33788, 4.69131 ], [ 10.3571, 4.6663 ], [ 10.36307, 4.69096 ], [ 10.37765, 4.70845 ], [ 10.41679, 4.70565 ], [ 10.45598, 4.72903 ], [ 10.46514, 4.74412 ], [ 10.49259, 4.72201 ], [ 10.49013, 4.69493 ], [ 10.47142, 4.67413 ], [ 10.46654, 4.64524 ], [ 10.45621, 4.64909 ], [ 10.43136, 4.61551 ], [ 10.4172, 4.60829 ], [ 10.38597, 4.54753 ], [ 10.37848, 4.5116 ], [ 10.39487, 4.47632 ], [ 10.42797, 4.47485 ], [ 10.44124, 4.48953 ], [ 10.46972, 4.48272 ], [ 10.47312, 4.47678 ], [ 10.46567, 4.4631 ], [ 10.47828, 4.44726 ], [ 10.48744, 4.46154 ], [ 10.50761, 4.46684 ], [ 10.51722, 4.45373 ], [ 10.54251, 4.46042 ], [ 10.5749, 4.45441 ], [ 10.59982, 4.475 ], [ 10.60281, 4.46492 ], [ 10.61617, 4.47476 ], [ 10.61646, 4.46711 ], [ 10.63942, 4.46072 ], [ 10.67648, 4.48107 ], [ 10.68002, 4.49385 ], [ 10.68551, 4.48447 ], [ 10.69364, 4.48606 ], [ 10.69704, 4.5217 ], [ 10.72593, 4.52223 ], [ 10.72317, 4.50261 ], [ 10.73739, 4.492 ], [ 10.77643, 4.49744 ], [ 10.78609, 4.51081 ], [ 10.77661, 4.52946 ], [ 10.78463, 4.60826 ], [ 10.83119, 4.61177 ], [ 10.87705, 4.58095 ], [ 10.89006, 4.60739 ], [ 10.92026, 4.6064 ], [ 10.91371, 4.52095 ], [ 10.90292, 4.50014 ], [ 10.89078, 4.49706 ], [ 10.89412, 4.46946 ], [ 10.914, 4.4378 ], [ 10.92743, 4.43425 ], [ 10.94403, 4.41588 ], [ 10.93769, 4.40815 ], [ 10.94245, 4.3883 ], [ 10.94965, 4.37963 ], [ 10.9726, 4.37413 ], [ 10.9773, 4.33164 ], [ 10.99882, 4.31367 ], [ 11.00039, 4.30319 ], [ 11.01343, 4.30286 ], [ 11.01988, 4.27808 ], [ 11.04071, 4.26755 ], [ 11.03597, 4.25841 ], [ 11.04516, 4.24419 ], [ 11.0674, 4.2401 ], [ 11.0774, 4.2282 ], [ 11.0761, 4.19167 ], [ 10.94771, 4.12858 ], [ 10.85033, 4.11482 ], [ 10.83415, 4.09502 ], [ 10.77939, 4.0875 ], [ 10.75889, 4.06771 ], [ 10.72488, 4.0549 ], [ 10.69242, 4.06836 ], [ 10.68277, 4.05458 ], [ 10.69608, 4.04489 ], [ 10.69215, 4.03141 ], [ 10.70226, 4.02323 ], [ 10.69186, 3.98902 ], [ 10.66809, 3.98504 ], [ 10.645, 3.96777 ], [ 10.64745, 3.93686 ], [ 10.6415, 3.92046 ], [ 10.65986, 3.87713 ], [ 10.66629, 3.83604 ], [ 10.65306, 3.83677 ], [ 10.64412, 3.8235 ], [ 10.64598, 3.79883 ], [ 10.65458, 3.79136 ], [ 10.64356, 3.79501 ], [ 10.64506, 3.78937 ], [ 10.61968, 3.78045 ], [ 10.62145, 3.76082 ], [ 10.60729, 3.74343 ], [ 10.60565, 3.72682 ], [ 10.59765, 3.73428 ], [ 10.59152, 3.72775 ], [ 10.58303, 3.74518 ], [ 10.57521, 3.74127 ], [ 10.57242, 3.74872 ], [ 10.58115, 3.75676 ], [ 10.5517, 3.76749 ], [ 10.54871, 3.77787 ], [ 10.536, 3.78856 ], [ 10.52988, 3.78636 ], [ 10.52409, 3.79684 ], [ 10.52107, 3.79221 ], [ 10.51227, 3.79928 ], [ 10.50874, 3.7879 ], [ 10.50375, 3.80382 ], [ 10.49253, 3.80283 ], [ 10.48834, 3.81613 ], [ 10.47399, 3.80991 ], [ 10.4684, 3.82332 ], [ 10.45848, 3.82303 ], [ 10.40603, 3.80983 ], [ 10.39297, 3.79233 ], [ 10.37682, 3.78682 ], [ 10.38323, 3.77976 ], [ 10.36399, 3.724 ], [ 10.37326, 3.69106 ], [ 10.35245, 3.6493 ], [ 10.34013, 3.65124 ], [ 10.32327, 3.56416 ], [ 10.2983, 3.55322 ], [ 10.28493, 3.52555 ], [ 10.27319, 3.51761 ], [ 10.23962, 3.51896 ], [ 10.23059, 3.50994 ], [ 10.24308, 3.48054 ], [ 10.23921, 3.46601 ], [ 10.25458, 3.45605 ], [ 10.25119, 3.41327 ], [ 10.29053, 3.33635 ], [ 10.30052, 3.3305 ], [ 10.55417, 3.40392 ], [ 10.76239, 3.47342 ], [ 10.81531, 3.45859 ], [ 10.82022, 3.4336 ], [ 10.83362, 3.41989 ], [ 10.82741, 3.4088 ], [ 10.86165, 3.38825 ], [ 10.89568, 3.40905 ], [ 10.95436, 3.41525 ], [ 10.96689, 3.39666 ], [ 10.98211, 3.39337 ], [ 10.9905, 3.39403 ], [ 10.99987, 3.41381 ], [ 11.01624, 3.41005 ], [ 11.03158, 3.41537 ], [ 11.06438, 3.39224 ], [ 11.06129, 3.3733 ], [ 11.06765, 3.36104 ], [ 11.08251, 3.36551 ], [ 11.08781, 3.35 ], [ 11.07969, 3.33891 ], [ 11.09967, 3.3316 ], [ 11.09867, 3.31122 ], [ 11.1132, 3.29358 ], [ 11.11858, 3.27118 ], [ 11.11159, 3.25168 ], [ 11.13935, 3.23363 ], [ 11.15914, 3.22957 ], [ 11.1712, 3.21663 ], [ 11.179, 3.16686 ], [ 11.17355, 3.15414 ], [ 11.1844, 3.15269 ], [ 11.18903, 3.13593 ], [ 11.21885, 3.10449 ], [ 11.2705, 3.13547 ], [ 11.29705, 3.13293 ], [ 11.31281, 3.11653 ], [ 11.33146, 3.11333 ], [ 11.35513, 3.14351 ], [ 11.40471, 3.14455 ], [ 11.41259, 3.13496 ], [ 11.50138, 3.13609 ], [ 11.50574, 3.13092 ], [ 11.54515, 3.1357 ], [ 11.55031, 3.14391 ], [ 11.56495, 3.13747 ], [ 11.58585, 3.16152 ], [ 11.61489, 3.16785 ], [ 11.64082, 3.18768 ], [ 11.68354, 3.18728 ], [ 11.69908, 3.19863 ], [ 11.70181, 3.2582 ], [ 11.70975, 3.27702 ], [ 11.73678, 3.27829 ], [ 11.74566, 3.28754 ], [ 11.73456, 3.33472 ], [ 11.75907, 3.31849 ], [ 11.77011, 3.31961 ], [ 11.77455, 3.30993 ], [ 11.78041, 3.33077 ] ] ] } },
{ "type": "Feature", "properties": { "GID_1": "CMR.3_1", "NAME_1": "Est", "t2m_moyen_c": 23.63, "t2m_min_c": 21.57, "t2m_max_c": 26.8, "amplitude_c": 5.23 }, "geometry": { "type": "Polygon", "coordinates": [ [ [ 14.5954, 2.20348 ], [ 14.61035, 2.19296 ], [ 14.62835, 2.15879 ], [ 14.6451, 2.15563 ], [ 14.64206, 2.13974 ], [ 14.64805, 2.1315 ], [ 14.68317, 2.13525 ], [ 14.69888, 2.11246 ], [ 14.72677, 2.10557 ], [ 14.71839, 2.11802 ], [ 14.72448, 2.12644 ], [ 14.75246, 2.10845 ], [ 14.7517, 2.0983 ], [ 14.73819, 2.0959 ], [ 14.74124, 2.08939 ], [ 14.7617, 2.09945 ], [ 14.77093, 2.09677 ], [ 14.77436, 2.08423 ], [ 14.76437, 2.07245 ], [ 14.77017, 2.06364 ], [ 14.79292, 2.07437 ], [ 14.8091, 2.05982 ], [ 14.82946, 2.06834 ], [ 14.84374, 2.08538 ], [ 14.86239, 2.08117 ], [ 14.86658, 2.08634 ], [ 14.85944, 2.10683 ], [ 14.87476, 2.11076 ], [ 14.8819, 2.0715 ], [ 14.9136, 2.0627 ], [ 14.91008, 2.03924 ], [ 14.8919, 2.02171 ], [ 14.91798, 2.00151 ], [ 14.97165, 2.01013 ], [ 14.98355, 2.03531 ], [ 14.99982, 2.01664 ], [ 15.03304, 1.99974 ], [ 15.04329, 1.97836 ], [ 15.05082, 1.97849 ], [ 15.06934, 2.00081 ], [ 15.0774, 1.98251 ], [ 15.10851, 1.98084 ], [ 15.12124, 2.01073 ], [ 15.13676, 2.00624 ], [ 15.14708, 2.01193 ], [ 15.15275, 2.04062 ], [ 15.16221, 2.04169 ], [ 15.17733, 2.01468 ], [ 15.19478, 2.03532 ], [ 15.20718, 2.03894 ], [ 15.24708, 2.02928 ], [ 15.24888, 2.01882 ], [ 15.24008, 2.01105 ], [ 15.2923, 1.98933 ], [ 15.30909, 1.96607 ], [ 15.30489, 1.93812 ], [ 15.31881, 1.93155 ], [ 15.33573, 1.9416 ], [ 15.33506, 1.92699 ], [ 15.34618, 1.91177 ], [ 15.415, 1.94346 ], [ 15.42806, 1.95847 ], [ 15.47576, 1.97213 ], [ 15.48615, 1.98258 ], [ 15.53191, 1.95549 ], [ 15.54497, 1.96312 ], [ 15.56421, 1.94817 ], [ 15.58899, 1.95339 ], [ 15.66732, 1.92783 ], [ 15.68651, 1.93425 ], [ 15.71814, 1.92365 ], [ 15.72779, 1.91279 ], [ 15.74805, 1.91948 ], [ 15.78507, 1.88978 ], [ 15.8059, 1.85901 ], [ 15.82974, 1.85109 ], [ 15.84625, 1.83312 ], [ 15.8679, 1.8317 ], [ 15.88346, 1.78726 ], [ 15.91137, 1.7971 ], [ 15.91436, 1.78242 ], [ 15.93774, 1.77959 ], [ 15.96144, 1.76604 ], [ 16.02711, 1.76634 ], [ 16.03216, 1.75548 ], [ 16.01449, 1.71763 ], [ 16.02321, 1.70925 ], [ 16.01933, 1.68037 ], [ 16.02964, 1.65858 ], [ 16.06014, 1.65227 ], [ 16.08393, 1.68791 ], [ 16.11517, 1.69948 ], [ 16.13767, 1.68365 ], [ 16.14833, 1.69115 ], [ 16.13451, 1.74403 ], [ 16.14225, 1.76058 ], [ 16.13854, 1.79469 ], [ 16.11153, 1.84758 ], [ 16.10622, 1.87244 ], [ 16.11136, 1.88846 ], [ 16.08812, 1.89102 ], [ 16.07377, 1.95114 ], [ 16.05079, 1.97459 ], [ 16.05786, 1.98296 ], [ 16.05361, 2.00836 ], [ 16.07954, 2.03334 ], [ 16.08361, 2.04567 ], [ 16.06344, 2.0692 ], [ 16.08337, 2.07998 ], [ 16.08944, 2.09304 ], [ 16.07954, 2.13165 ], [ 16.08551, 2.19698 ], [ 16.13394, 2.19654 ], [ 16.13826, 2.17938 ], [ 16.14572, 2.17656 ], [ 16.16225, 2.19464 ], [ 16.18004, 2.19925 ], [ 16.19105, 2.21988 ], [ 16.16149, 2.24839 ], [ 16.17031, 2.27773 ], [ 16.1475, 2.32613 ], [ 16.14811, 2.34684 ], [ 16.07232, 2.46249 ], [ 16.08314, 2.49211 ], [ 16.06458, 2.5279 ], [ 16.08348, 2.58338 ], [ 16.06514, 2.64102 ], [ 16.07257, 2.67734 ], [ 16.08679, 2.70152 ], [ 16.05821, 2.71293 ], [ 16.06464, 2.75246 ], [ 16.05778, 2.75569 ], [ 16.05034, 2.78592 ], [ 16.05201, 2.79355 ], [ 16.07528, 2.80318 ], [ 16.09303, 2.82977 ], [ 16.07165, 2.91047 ], [ 16.05766, 2.92067 ], [ 16.03206, 2.98396 ], [ 16.01113, 2.98934 ], [ 16.00615, 3.00408 ], [ 15.97708, 3.00277 ], [ 15.96948, 2.99427 ], [ 15.95822, 3.00091 ], [ 15.93025, 3.03726 ], [ 15.91939, 3.04182 ], [ 15.88477, 3.10029 ], [ 15.86544, 3.10044 ], [ 15.85385, 3.11211 ], [ 15.80004, 3.10083 ], [ 15.49434, 3.4577 ], [ 15.2489, 3.71067 ], [ 15.10881, 3.94322 ], [ 15.09163, 3.99667 ], [ 15.07703, 4.01812 ], [ 15.18476, 4.0583 ], [ 15.16914, 4.07479 ], [ 15.14732, 4.0691 ], [ 15.13638, 4.1063 ], [ 15.11269, 4.12272 ], [ 15.10595, 4.13599 ], [ 15.11229, 4.17842 ], [ 15.10355, 4.18284 ], [ 15.09935, 4.21025 ], [ 15.10649, 4.21716 ], [ 15.09334, 4.23767 ], [ 15.10049, 4.26307 ], [ 15.09208, 4.2695 ], [ 15.09068, 4.3008 ], [ 15.04649, 4.35563 ], [ 15.04982, 4.36287 ], [ 15.03988, 4.37512 ], [ 15.03086, 4.36991 ], [ 15.0131, 4.42473 ], [ 14.98506, 4.42848 ], [ 14.96796, 4.44108 ], [ 14.94386, 4.44128 ], [ 14.94559, 4.45107 ], [ 14.8893, 4.4707 ], [ 14.8728, 4.49576 ], [ 14.85523, 4.50333 ], [ 14.85269, 4.51513 ], [ 14.83312, 4.51579 ], [ 14.83372, 4.52182 ], [ 14.81115, 4.52819 ], [ 14.8038, 4.54534 ], [ 14.7895, 4.55365 ], [ 14.76712, 4.58434 ], [ 14.75577, 4.58467 ], [ 14.73766, 4.61261 ], [ 14.73044, 4.61334 ], [ 14.73171, 4.6297 ], [ 14.72035, 4.64471 ], [ 14.72407, 4.69196 ], [ 14.71864, 4.74336 ], [ 14.70206, 4.76339 ], [ 14.72069, 4.78766 ], [ 14.71867, 4.81648 ], [ 14.70625, 4.84211 ], [ 14.70516, 4.85688 ], [ 14.71464, 4.86875 ], [ 14.68321, 4.92919 ], [ 14.69549, 4.95976 ], [ 14.6761, 4.98944 ], [ 14.67676, 5.01001 ], [ 14.68324, 5.00941 ], [ 14.67869, 5.01846 ], [ 14.68871, 5.02329 ], [ 14.67438, 5.08547 ], [ 14.68721, 5.08923 ], [ 14.69349, 5.09983 ], [ 14.6642, 5.19761 ], [ 14.64966, 5.2164 ], [ 14.60975, 5.22134 ], [ 14.56923, 5.23679 ], [ 14.52949, 5.27376 ], [ 14.52714, 5.28379 ], [ 14.54946, 5.30311 ], [ 14.5441, 5.31624 ], [ 14.55292, 5.32342 ], [ 14.56145, 5.36732 ], [ 14.57227, 5.37825 ], [ 14.57306, 5.39997 ], [ 14.59325, 5.40394 ], [ 14.6006, 5.41661 ], [ 14.60553, 5.45019 ], [ 14.59999, 5.45825 ], [ 14.61975, 5.4764 ], [ 14.61486, 5.48658 ], [ 14.6305, 5.51099 ], [ 14.61229, 5.53296 ], [ 14.60598, 5.56499 ], [ 14.59152, 5.59078 ], [ 14.6281, 5.71311 ], [ 14.6253, 5.79822 ], [ 14.61482, 5.85283 ], [ 14.62035, 5.88936 ], [ 14.60467, 5.91844 ], [ 14.58727, 5.92265 ], [ 14.55951, 5.90037 ], [ 14.51347, 5.89417 ], [ 14.48848, 5.916 ], [ 14.464, 5.97227 ], [ 14.43432, 5.9981 ], [ 14.428, 6.02571 ], [ 14.41048, 6.05189 ], [ 14.39409, 6.06241 ], [ 14.38408, 6.05533 ], [ 14.38166, 6.03853 ], [ 14.40458, 6.01441 ], [ 14.38019, 6.01413 ], [ 14.37995, 5.99998 ], [ 12.88791, 6.00037 ], [ 12.87755, 5.98161 ], [ 12.87189, 5.90193 ], [ 12.88622, 5.86851 ], [ 12.89993, 5.86767 ], [ 12.95402, 5.79077 ], [ 12.96423, 5.71598 ], [ 13.0006, 5.70573 ], [ 13.00564, 5.68196 ], [ 13.01352, 5.68329 ], [ 13.00909, 5.64224 ], [ 13.05556, 5.58871 ], [ 13.05469, 5.57009 ], [ 13.07161, 5.5587 ], [ 13.07684, 5.53238 ], [ 13.00025, 5.38497 ], [ 12.95545, 5.32088 ], [ 12.93511, 5.31228 ], [ 12.90441, 5.32695 ], [ 12.88667, 5.32578 ], [ 12.86161, 5.30912 ], [ 12.84269, 5.30584 ], [ 12.80918, 5.27975 ], [ 12.90487, 5.21434 ], [ 13.00007, 5.12498 ], [ 13.03021, 5.10744 ], [ 13.05729, 5.07535 ], [ 13.05842, 5.03533 ], [ 13.01444, 4.95813 ], [ 13.03955, 4.95265 ], [ 13.06573, 4.93004 ], [ 13.11793, 4.93014 ], [ 13.18786, 4.9164 ], [ 13.19602, 4.86464 ], [ 13.20682, 4.86074 ], [ 13.19814, 4.84675 ], [ 13.20928, 4.84637 ], [ 13.20997, 4.83859 ], [ 13.22342, 4.83606 ], [ 13.24007, 4.8183 ], [ 13.23667, 4.80013 ], [ 13.24275, 4.7886 ], [ 13.23273, 4.78036 ], [ 13.24413, 4.78763 ], [ 13.2468, 4.77378 ], [ 13.23669, 4.76885 ], [ 13.23716, 4.75895 ], [ 13.22914, 4.76506 ], [ 13.22379, 4.75818 ], [ 13.22224, 4.72957 ], [ 13.23526, 4.70821 ], [ 13.21931, 4.70097 ], [ 13.22742, 4.69092 ], [ 13.22285, 4.67275 ], [ 13.22888, 4.65207 ], [ 13.20919, 4.60357 ], [ 13.21307, 4.57939 ], [ 13.2064, 4.56241 ], [ 13.21216, 4.54993 ], [ 13.17126, 4.55368 ], [ 13.12922, 4.54573 ], [ 13.09135, 4.56159 ], [ 13.05845, 4.59497 ], [ 13.01143, 4.60567 ], [ 13.00022, 4.59243 ], [ 12.97687, 4.59001 ], [ 12.97949, 4.56466 ], [ 12.8772, 4.51786 ], [ 12.84284, 4.37466 ], [ 12.78308, 4.34239 ], [ 12.78174, 4.30855 ], [ 12.77035, 4.29966 ], [ 12.77647, 4.29388 ], [ 12.79548, 4.29879 ], [ 12.8044, 4.2584 ], [ 12.78357, 4.20411 ], [ 12.7934, 4.17585 ], [ 12.77651, 4.14825 ], [ 12.78375, 4.13236 ], [ 12.752, 4.12027 ], [ 12.75042, 4.10132 ], [ 12.75566, 4.08735 ], [ 12.79113, 4.07771 ], [ 12.80274, 4.06744 ], [ 12.8079, 4.05954 ], [ 12.79771, 4.03404 ], [ 12.76419, 4.03036 ], [ 12.72647, 4.01041 ], [ 12.65468, 3.93461 ], [ 12.63244, 3.93993 ], [ 12.6132, 3.92734 ], [ 12.55697, 3.91896 ], [ 12.55692, 3.9049 ], [ 12.52032, 3.87567 ], [ 12.50719, 3.87892 ], [ 12.50047, 3.89567 ], [ 12.49441, 3.89015 ], [ 12.50158, 3.82996 ], [ 12.53039, 3.798 ], [ 12.55146, 3.79163 ], [ 12.54896, 3.77652 ], [ 12.60454, 3.73253 ], [ 12.61812, 3.71012 ], [ 12.60174, 3.61531 ], [ 12.56725, 3.5505 ], [ 12.54761, 3.43027 ], [ 12.54922, 3.40545 ], [ 12.5425, 3.3928 ], [ 12.76521, 3.17032 ], [ 12.77059, 2.99597 ], [ 12.76473, 2.97316 ], [ 12.77088, 2.94578 ], [ 12.79253, 2.92793 ], [ 12.79668, 2.90301 ], [ 12.81324, 2.9154 ], [ 12.83326, 2.88808 ], [ 12.85996, 2.89374 ], [ 12.8743, 2.87528 ], [ 12.91496, 2.87822 ], [ 12.92497, 2.86669 ], [ 12.93717, 2.87219 ], [ 12.93967, 2.86281 ], [ 12.96689, 2.86453 ], [ 12.98676, 2.88649 ], [ 12.98766, 2.87329 ], [ 13.00278, 2.86781 ], [ 13.00208, 2.84929 ], [ 13.01968, 2.85849 ], [ 13.0388, 2.84767 ], [ 13.07002, 2.84703 ], [ 13.08132, 2.83763 ], [ 13.08318, 2.85507 ], [ 13.09798, 2.85183 ], [ 13.09435, 2.84141 ], [ 13.11244, 2.84145 ], [ 13.11865, 2.8592 ], [ 13.13446, 2.87244 ], [ 13.15394, 2.84588 ], [ 13.1929, 2.84818 ], [ 13.20079, 2.8656 ], [ 13.21063, 2.86472 ], [ 13.2367, 2.84653 ], [ 13.22894, 2.83784 ], [ 13.23314, 2.82771 ], [ 13.26063, 2.82229 ], [ 13.2683, 2.80875 ], [ 13.26747, 2.78226 ], [ 13.29182, 2.78696 ], [ 13.27297, 2.84033 ], [ 13.28547, 2.84561 ], [ 13.30396, 2.83724 ], [ 13.31772, 2.81102 ], [ 13.34718, 2.7958 ], [ 13.37584, 2.82048 ], [ 13.40565, 2.78686 ], [ 13.42343, 2.78924 ], [ 13.43173, 2.77166 ], [ 13.44879, 2.77999 ], [ 13.47087, 2.77449 ], [ 13.48255, 2.78465 ], [ 13.50139, 2.78724 ], [ 13.51106, 2.80007 ], [ 13.51068, 2.81241 ], [ 13.49782, 2.82384 ], [ 13.504, 2.83488 ], [ 13.51046, 2.8373 ], [ 13.51834, 2.82163 ], [ 13.53378, 2.82157 ], [ 13.53263, 2.85348 ], [ 13.54639, 2.85545 ], [ 13.55131, 2.84309 ], [ 13.55809, 2.84392 ], [ 13.57614, 2.8616 ], [ 13.58299, 2.8821 ], [ 13.63046, 2.90445 ], [ 13.68009, 2.17169 ], [ 14.25279, 2.17252 ], [ 14.29152, 2.17186 ], [ 14.3039, 2.16258 ], [ 14.34615, 2.17562 ], [ 14.3629, 2.18769 ], [ 14.4122, 2.1813 ], [ 14.44295, 2.15718 ], [ 14.44353, 2.13315 ], [ 14.45895, 2.12521 ], [ 14.46628, 2.13067 ], [ 14.46446, 2.14666 ], [ 14.48036, 2.14379 ], [ 14.48121, 2.15375 ], [ 14.49777, 2.16285 ], [ 14.53022, 2.16267 ], [ 14.53241, 2.16861 ], [ 14.56924, 2.17867 ], [ 14.58018, 2.17485 ], [ 14.5954, 2.20348 ] ] ] } },
{ "type": "Feature", "properties": { "GID_1": "CMR.4_1", "NAME_1": "Extrême-Nord", "t2m_moyen_c": 27.7, "t2m_min_c": 20.1, "t2m_max_c": 35.11, "amplitude_c": 15.01 }, "geometry": { "type": "Polygon", "coordinates": [ [ [ 15.49626, 10.12337 ], [ 15.48713, 10.12372 ], [ 15.4806, 10.14356 ], [ 15.46122, 10.15947 ], [ 15.44524, 10.19628 ], [ 15.41165, 10.2197 ], [ 15.40323, 10.24323 ], [ 15.3691, 10.2692 ], [ 15.3562, 10.29275 ], [ 15.31221, 10.30699 ], [ 15.31112, 10.32504 ], [ 15.29599, 10.3355 ], [ 15.29655, 10.35344 ], [ 15.28314, 10.36701 ], [ 15.28297, 10.40897 ], [ 15.25288, 10.43699 ], [ 15.24127, 10.47235 ], [ 15.14797, 10.53392 ], [ 15.1442, 10.57401 ], [ 15.15721, 10.61257 ], [ 15.15675, 10.64595 ], [ 15.14134, 10.66776 ], [ 15.13845, 10.70282 ], [ 15.10262, 10.7406 ], [ 15.06977, 10.81344 ], [ 15.07486, 10.83763 ], [ 15.09603, 10.86406 ], [ 15.09717, 10.877 ], [ 15.08378, 10.94999 ], [ 15.06568, 10.96524 ], [ 15.06488, 10.9801 ], [ 15.04767, 10.99919 ], [ 15.0547, 11.00829 ], [ 15.04735, 11.01356 ], [ 15.05778, 11.02434 ], [ 15.07418, 11.02378 ], [ 15.08404, 11.03128 ], [ 15.08275, 11.04174 ], [ 15.09811, 11.04541 ], [ 15.09642, 11.0609 ], [ 15.11203, 11.08461 ], [ 15.0987, 11.10594 ], [ 15.09686, 11.16599 ], [ 15.07018, 11.1981 ], [ 15.05992, 11.2306 ], [ 15.0672, 11.2488 ], [ 15.0503, 11.27747 ], [ 15.07588, 11.32251 ], [ 15.05064, 11.34295 ], [ 15.07071, 11.36507 ], [ 15.05842, 11.39526 ], [ 15.06198, 11.41306 ], [ 15.07809, 11.43462 ], [ 15.07461, 11.44356 ], [ 15.10171, 11.47267 ], [ 15.09792, 11.48168 ], [ 15.10884, 11.48481 ], [ 15.10954, 11.49642 ], [ 15.1334, 11.50642 ], [ 15.14682, 11.55431 ], [ 15.13234, 11.56845 ], [ 15.10284, 11.58036 ], [ 15.10292, 11.60657 ], [ 15.08883, 11.61773 ], [ 15.08891, 11.63072 ], [ 15.07985, 11.63981 ], [ 15.08853, 11.64882 ], [ 15.07698, 11.66385 ], [ 15.08234, 11.68228 ], [ 15.06452, 11.70948 ], [ 15.07848, 11.73017 ], [ 15.10645, 11.72428 ], [ 15.08174, 11.75989 ], [ 15.1247, 11.78638 ], [ 15.09935, 11.81037 ], [ 15.09549, 11.84597 ], [ 15.08061, 11.85705 ], [ 15.06385, 11.83979 ], [ 15.0486, 11.85835 ], [ 15.0399, 11.9051 ], [ 15.05829, 11.91648 ], [ 15.06473, 11.93237 ], [ 15.04891, 11.96216 ], [ 15.05783, 11.97644 ], [ 15.07544, 11.97155 ], [ 15.08243, 11.97667 ], [ 15.08926, 11.99362 ], [ 15.05939, 11.99966 ], [ 15.0393, 12.02396 ], [ 15.04466, 12.03076 ], [ 15.05358, 12.02823 ], [ 15.05925, 12.04679 ], [ 15.05227, 12.06436 ], [ 15.03683, 12.07414 ], [ 15.03489, 12.10271 ], [ 15.00206, 12.11684 ], [ 14.99166, 12.10714 ], [ 14.98855, 12.08385 ], [ 14.95984, 12.09286 ], [ 14.885, 12.16074 ], [ 14.91185, 12.18206 ], [ 14.89305, 12.20039 ], [ 14.90372, 12.22029 ], [ 14.89651, 12.24307 ], [ 14.90658, 12.26933 ], [ 14.89322, 12.3024 ], [ 14.91036, 12.32493 ], [ 14.90093, 12.34088 ], [ 14.90955, 12.37615 ], [ 14.88073, 12.42659 ], [ 14.87705, 12.46044 ], [ 14.86592, 12.46056 ], [ 14.85519, 12.44601 ], [ 14.84615, 12.45669 ], [ 14.84496, 12.46969 ], [ 14.85818, 12.47999 ], [ 14.85896, 12.49647 ], [ 14.85122, 12.51345 ], [ 14.85265, 12.55958 ], [ 14.83097, 12.62953 ], [ 14.77266, 12.63193 ], [ 14.76348, 12.64157 ], [ 14.75742, 12.67554 ], [ 14.74732, 12.68544 ], [ 14.735, 12.68016 ], [ 14.7307, 12.65943 ], [ 14.71459, 12.65491 ], [ 14.70513, 12.67137 ], [ 14.72594, 12.70318 ], [ 14.71753, 12.719 ], [ 14.70363, 12.72388 ], [ 14.663, 12.71855 ], [ 14.63741, 12.7377 ], [ 14.61762, 12.73741 ], [ 14.62558, 12.76059 ], [ 14.62176, 12.77036 ], [ 14.59519, 12.74394 ], [ 14.57931, 12.7528 ], [ 14.57442, 12.7784 ], [ 14.55686, 12.77271 ], [ 14.54741, 12.79597 ], [ 14.56477, 12.82671 ], [ 14.55603, 12.86313 ], [ 14.55772, 12.87875 ], [ 14.5715, 12.88218 ], [ 14.56422, 12.88988 ], [ 14.56328, 12.91067 ], [ 14.55159, 12.93428 ], [ 14.53965, 12.93696 ], [ 14.52924, 12.961 ], [ 14.53341, 12.97051 ], [ 14.45983, 13.07382 ], [ 14.08549, 13.07739 ], [ 14.18374, 12.52923 ], [ 14.19702, 12.50389 ], [ 14.1879, 12.49888 ], [ 14.18448, 12.48222 ], [ 14.17406, 12.47963 ], [ 14.17871, 12.44823 ], [ 14.19438, 12.44814 ], [ 14.18595, 12.44307 ], [ 14.19274, 12.43313 ], [ 14.17336, 12.42935 ], [ 14.17664, 12.41774 ], [ 14.17065, 12.41042 ], [ 14.18563, 12.40598 ], [ 14.19775, 12.386 ], [ 14.21816, 12.376 ], [ 14.22051, 12.36236 ], [ 14.27316, 12.37346 ], [ 14.29297, 12.35564 ], [ 14.2914, 12.37251 ], [ 14.30904, 12.35856 ], [ 14.32889, 12.37466 ], [ 14.37878, 12.35699 ], [ 14.39992, 12.36621 ], [ 14.4229, 12.36144 ], [ 14.43346, 12.36917 ], [ 14.44359, 12.36224 ], [ 14.44796, 12.34684 ], [ 14.46346, 12.35935 ], [ 14.476, 12.3449 ], [ 14.4872, 12.3515 ], [ 14.48533, 12.34007 ], [ 14.52048, 12.32473 ], [ 14.5207, 12.31404 ], [ 14.50969, 12.31488 ], [ 14.51101, 12.29622 ], [ 14.545, 12.28034 ], [ 14.54144, 12.27217 ], [ 14.54815, 12.25644 ], [ 14.55971, 12.25927 ], [ 14.54866, 12.23532 ], [ 14.5719, 12.22414 ], [ 14.59114, 12.22649 ], [ 14.59048, 12.21586 ], [ 14.60732, 12.19703 ], [ 14.59747, 12.1903 ], [ 14.61522, 12.189 ], [ 14.61355, 12.18296 ], [ 14.62901, 12.17919 ], [ 14.63203, 12.19221 ], [ 14.63946, 12.18857 ], [ 14.65943, 12.19711 ], [ 14.66263, 12.17824 ], [ 14.67512, 12.16862 ], [ 14.67318, 12.15594 ], [ 14.64945, 12.13579 ], [ 14.654, 12.11746 ], [ 14.63399, 12.0918 ], [ 14.639, 12.07534 ], [ 14.65306, 12.06234 ], [ 14.63164, 12.05807 ], [ 14.61969, 12.04031 ], [ 14.63314, 11.98947 ], [ 14.65369, 11.957 ], [ 14.6337, 11.93157 ], [ 14.64204, 11.91014 ], [ 14.6282, 11.90132 ], [ 14.60279, 11.86496 ], [ 14.61428, 11.85033 ], [ 14.60474, 11.83309 ], [ 14.6046, 11.79558 ], [ 14.61263, 11.78061 ], [ 14.59882, 11.75972 ], [ 14.57673, 11.75036 ], [ 14.57185, 11.73533 ], [ 14.54847, 11.72299 ], [ 14.55679, 11.70894 ], [ 14.57977, 11.69974 ], [ 14.5991, 11.70058 ], [ 14.60962, 11.67829 ], [ 14.63975, 11.65302 ], [ 14.63731, 11.62842 ], [ 14.6502, 11.60924 ], [ 14.64262, 11.57602 ], [ 14.62818, 11.55686 ], [ 14.6131, 11.51138 ], [ 14.55487, 11.48196 ], [ 14.51614, 11.47279 ], [ 14.46614, 11.42497 ], [ 14.42828, 11.41994 ], [ 14.35707, 11.35559 ], [ 14.23569, 11.28871 ], [ 14.19881, 11.25275 ], [ 14.18266, 11.25475 ], [ 14.16896, 11.24559 ], [ 14.12497, 11.25812 ], [ 14.1107, 11.26277 ], [ 14.10078, 11.27877 ], [ 14.06776, 11.28221 ], [ 13.98062, 11.31876 ], [ 13.95317, 11.24572 ], [ 13.92725, 11.20256 ], [ 13.91532, 11.19705 ], [ 13.91021, 11.17374 ], [ 13.88168, 11.15336 ], [ 13.85535, 11.10067 ], [ 13.82951, 11.08578 ], [ 13.82562, 11.07133 ], [ 13.81227, 11.06916 ], [ 13.79253, 11.00967 ], [ 13.73472, 11.01138 ], [ 13.72633, 10.98345 ], [ 13.70801, 10.97204 ], [ 13.7099, 10.94912 ], [ 13.72793, 10.92334 ], [ 13.71388, 10.85992 ], [ 13.7013, 10.84656 ], [ 13.67796, 10.83867 ], [ 13.67124, 10.81827 ], [ 13.65189, 10.82058 ], [ 13.63698, 10.79236 ], [ 13.65095, 10.79136 ], [ 13.65519, 10.78429 ], [ 13.64341, 10.77601 ], [ 13.62128, 10.71898 ], [ 13.6039, 10.70368 ], [ 13.58697, 10.70484 ], [ 13.57844, 10.69161 ], [ 13.58578, 10.67216 ], [ 13.5743, 10.65786 ], [ 13.57092, 10.63474 ], [ 13.54585, 10.61833 ], [ 13.55491, 10.5942 ], [ 13.56677, 10.58372 ], [ 13.5583, 10.55845 ], [ 13.57397, 10.53532 ], [ 13.53835, 10.47995 ], [ 13.52754, 10.47907 ], [ 13.5383, 10.45189 ], [ 13.53625, 10.42367 ], [ 13.52386, 10.4039 ], [ 13.49411, 10.39101 ], [ 13.49835, 10.3395 ], [ 13.48214, 10.3354 ], [ 13.48942, 10.31792 ], [ 13.48744, 10.2954 ], [ 13.4714, 10.27434 ], [ 13.46564, 10.24621 ], [ 13.48285, 10.19943 ], [ 13.46914, 10.19432 ], [ 13.46749, 10.16399 ], [ 13.44343, 10.15395 ], [ 13.43408, 10.13484 ], [ 13.40313, 10.12535 ], [ 13.42417, 10.10865 ], [ 13.42876, 10.08566 ], [ 13.43518, 10.08273 ], [ 13.55114, 10.10217 ], [ 13.55869, 10.0849 ], [ 13.58867, 10.12434 ], [ 13.61588, 10.13348 ], [ 13.63647, 10.12665 ], [ 13.69169, 10.14081 ], [ 13.69526, 10.14726 ], [ 13.65666, 10.16825 ], [ 13.64778, 10.18196 ], [ 13.65586, 10.22178 ], [ 13.6726, 10.23746 ], [ 13.67623, 10.25497 ], [ 13.70079, 10.26082 ], [ 13.7391, 10.24576 ], [ 13.78331, 10.24568 ], [ 13.80096, 10.25305 ], [ 13.84235, 10.24018 ], [ 13.88222, 10.24099 ], [ 13.9168, 10.22813 ], [ 13.97386, 10.22994 ], [ 13.97998, 10.21719 ], [ 14.01193, 10.20167 ], [ 14.01404, 10.19582 ], [ 14.00385, 10.18639 ], [ 14.01352, 10.17392 ], [ 14.05183, 10.17257 ], [ 14.05088, 10.16218 ], [ 14.07617, 10.11134 ], [ 14.10347, 10.1155 ], [ 14.11003, 10.12865 ], [ 14.22114, 10.09019 ], [ 14.22985, 10.07566 ], [ 14.20977, 10.05366 ], [ 14.20744, 10.00928 ], [ 14.22054, 10.00366 ], [ 14.46606, 10.00662 ], [ 14.80242, 9.93568 ], [ 14.96148, 9.98493 ], [ 15.00071, 9.96967 ], [ 15.03631, 9.96887 ], [ 15.06192, 9.94875 ], [ 15.10631, 9.9667 ], [ 15.11284, 9.98675 ], [ 15.15248, 9.99703 ], [ 15.18002, 9.98847 ], [ 15.24842, 9.99146 ], [ 15.36406, 9.96205 ], [ 15.41332, 9.93494 ], [ 15.52777, 9.95468 ], [ 15.68952, 9.99643 ], [ 15.61851, 10.04685 ], [ 15.59809, 10.04742 ], [ 15.58596, 10.06674 ], [ 15.56399, 10.06785 ], [ 15.53672, 10.09878 ], [ 15.52577, 10.10121 ], [ 15.51251, 10.0936 ], [ 15.49626, 10.12337 ] ] ] } },
{ "type": "Feature", "properties": { "GID_1": "CMR.5_1", "NAME_1": "Littoral", "t2m_moyen_c": 24.45, "t2m_min_c": 21.78, "t2m_max_c": 27.92, "amplitude_c": 6.14 }, "geometry": { "type": "Polygon", "coordinates": [ [ [ 10.1854, 3.59528 ], [ 10.20403, 3.59163 ], [ 10.20239, 3.55911 ], [ 10.23514, 3.54436 ], [ 10.2325, 3.51667 ], [ 10.27149, 3.5169 ], [ 10.28342, 3.52404 ], [ 10.2983, 3.55322 ], [ 10.32588, 3.56889 ], [ 10.34013, 3.65124 ], [ 10.35245, 3.6493 ], [ 10.37276, 3.68905 ], [ 10.36399, 3.724 ], [ 10.38323, 3.77976 ], [ 10.37682, 3.78682 ], [ 10.39297, 3.79233 ], [ 10.3973, 3.8043 ], [ 10.40381, 3.80147 ], [ 10.41466, 3.81394 ], [ 10.45848, 3.82303 ], [ 10.4684, 3.82332 ], [ 10.47399, 3.80991 ], [ 10.48834, 3.81613 ], [ 10.49253, 3.80283 ], [ 10.50375, 3.80382 ], [ 10.50874, 3.7879 ], [ 10.51227, 3.79928 ], [ 10.52107, 3.79221 ], [ 10.52409, 3.79684 ], [ 10.52988, 3.78636 ], [ 10.536, 3.78856 ], [ 10.54871, 3.77787 ], [ 10.5517, 3.76749 ], [ 10.58115, 3.75676 ], [ 10.57242, 3.74872 ], [ 10.57521, 3.74127 ], [ 10.58303, 3.74518 ], [ 10.59152, 3.72775 ], [ 10.59765, 3.73428 ], [ 10.60565, 3.72682 ], [ 10.60729, 3.74343 ], [ 10.62145, 3.76082 ], [ 10.61968, 3.78045 ], [ 10.64506, 3.78937 ], [ 10.64356, 3.79501 ], [ 10.65458, 3.79136 ], [ 10.64598, 3.79883 ], [ 10.64412, 3.8235 ], [ 10.65306, 3.83677 ], [ 10.66629, 3.83604 ], [ 10.65986, 3.87713 ], [ 10.6415, 3.92046 ], [ 10.64745, 3.93686 ], [ 10.645, 3.96777 ], [ 10.66809, 3.98504 ], [ 10.69186, 3.98902 ], [ 10.70226, 4.02323 ], [ 10.69215, 4.03141 ], [ 10.69608, 4.04489 ], [ 10.68277, 4.05458 ], [ 10.69242, 4.06836 ], [ 10.72488, 4.0549 ], [ 10.75889, 4.06771 ], [ 10.77939, 4.0875 ], [ 10.83415, 4.09502 ], [ 10.85033, 4.11482 ], [ 10.93688, 4.12538 ], [ 10.97401, 4.13898 ], [ 11.07338, 4.18744 ], [ 11.0774, 4.2282 ], [ 11.0674, 4.2401 ], [ 11.04516, 4.24419 ], [ 11.03597, 4.25841 ], [ 11.04071, 4.26755 ], [ 11.01988, 4.27808 ], [ 11.01343, 4.30286 ], [ 11.00039, 4.30319 ], [ 10.99882, 4.31367 ], [ 10.9773, 4.33164 ], [ 10.9726, 4.37413 ], [ 10.94965, 4.37963 ], [ 10.94245, 4.3883 ], [ 10.93769, 4.40815 ], [ 10.94403, 4.41588 ], [ 10.92743, 4.43425 ], [ 10.914, 4.4378 ], [ 10.89412, 4.46946 ], [ 10.89078, 4.49706 ], [ 10.90292, 4.50014 ], [ 10.91371, 4.52095 ], [ 10.92026, 4.6064 ], [ 10.89006, 4.60739 ], [ 10.87705, 4.58095 ], [ 10.83119, 4.61177 ], [ 10.78463, 4.60826 ], [ 10.77661, 4.52946 ], [ 10.78609, 4.51081 ], [ 10.77643, 4.49744 ], [ 10.73739, 4.492 ], [ 10.72317, 4.50261 ], [ 10.72593, 4.52223 ], [ 10.69704, 4.5217 ], [ 10.69364, 4.48606 ], [ 10.68551, 4.48447 ], [ 10.68002, 4.49385 ], [ 10.67648, 4.48107 ], [ 10.63942, 4.46072 ], [ 10.61646, 4.46711 ], [ 10.61617, 4.47476 ], [ 10.60281, 4.46492 ], [ 10.59982, 4.475 ], [ 10.5749, 4.45441 ], [ 10.54251, 4.46042 ], [ 10.51722, 4.45373 ], [ 10.50761, 4.46684 ], [ 10.48744, 4.46154 ], [ 10.47828, 4.44726 ], [ 10.46567, 4.4631 ], [ 10.47163, 4.48101 ], [ 10.45318, 4.4888 ], [ 10.43863, 4.48903 ], [ 10.42335, 4.47385 ], [ 10.39256, 4.47804 ], [ 10.38628, 4.5 ], [ 10.37876, 4.50233 ], [ 10.38597, 4.54753 ], [ 10.4172, 4.60829 ], [ 10.43136, 4.61551 ], [ 10.45621, 4.64909 ], [ 10.46654, 4.64524 ], [ 10.47142, 4.67413 ], [ 10.49013, 4.69493 ], [ 10.49259, 4.72201 ], [ 10.46514, 4.74412 ], [ 10.45598, 4.72903 ], [ 10.41679, 4.70565 ], [ 10.37765, 4.70845 ], [ 10.36307, 4.69096 ], [ 10.3571, 4.6663 ], [ 10.33828, 4.69352 ], [ 10.3607, 4.76467 ], [ 10.37841, 4.78628 ], [ 10.41716, 4.78822 ], [ 10.44445, 4.83297 ], [ 10.47782, 4.85142 ], [ 10.48842, 4.8813 ], [ 10.52445, 4.90323 ], [ 10.43371, 4.91033 ], [ 10.45912, 4.94814 ], [ 10.4581, 4.95674 ], [ 10.44427, 4.96064 ], [ 10.42036, 4.91885 ], [ 10.4253, 4.93962 ], [ 10.41159, 4.96024 ], [ 10.42056, 4.97212 ], [ 10.4181, 5.00668 ], [ 10.3958, 5.01816 ], [ 10.36755, 5.01784 ], [ 10.37267, 5.07657 ], [ 10.36704, 5.08659 ], [ 10.3146, 5.10021 ], [ 10.28419, 5.0572 ], [ 10.26538, 5.06744 ], [ 10.24021, 5.10593 ], [ 10.23287, 5.10774 ], [ 10.19787, 5.0789 ], [ 10.22353, 5.0543 ], [ 10.22567, 5.03909 ], [ 10.19378, 5.00817 ], [ 10.1916, 4.99788 ], [ 10.17483, 4.99347 ], [ 10.16142, 4.97565 ], [ 10.14786, 4.97501 ], [ 10.1593, 4.94618 ], [ 10.15003, 4.91994 ], [ 10.1135, 4.92841 ], [ 10.1044, 4.94628 ], [ 10.10649, 4.95808 ], [ 10.09209, 4.96415 ], [ 10.07442, 4.98732 ], [ 10.06581, 5.01548 ], [ 10.07292, 5.04465 ], [ 10.04919, 5.04809 ], [ 10.03941, 5.05821 ], [ 10.00646, 5.06931 ], [ 10.01043, 5.08007 ], [ 9.99148, 5.13073 ], [ 10.00545, 5.14534 ], [ 10.00115, 5.16679 ], [ 10.00834, 5.18388 ], [ 9.9983, 5.2144 ], [ 9.99237, 5.21611 ], [ 9.99371, 5.22753 ], [ 9.98608, 5.22726 ], [ 9.97046, 5.24448 ], [ 9.94334, 5.25311 ], [ 9.92336, 5.25107 ], [ 9.93499, 5.27768 ], [ 9.92453, 5.2726 ], [ 9.9072, 5.2765 ], [ 9.88219, 5.25037 ], [ 9.84752, 5.25684 ], [ 9.83266, 5.27547 ], [ 9.85383, 5.32229 ], [ 9.8492, 5.33308 ], [ 9.84059, 5.33476 ], [ 9.82408, 5.33003 ], [ 9.82956, 5.29077 ], [ 9.78397, 5.2844 ], [ 9.76858, 5.26329 ], [ 9.74093, 5.27512 ], [ 9.73642, 5.24546 ], [ 9.76641, 5.20969 ], [ 9.77555, 5.14604 ], [ 9.80135, 5.14028 ], [ 9.81594, 5.0797 ], [ 9.83119, 5.06032 ], [ 9.85444, 5.0514 ], [ 9.86617, 5.02946 ], [ 9.85606, 5.01838 ], [ 9.82841, 5.01446 ], [ 9.81113, 5.0254 ], [ 9.77573, 5.00555 ], [ 9.7669, 4.95626 ], [ 9.75442, 4.94105 ], [ 9.75632, 4.91992 ], [ 9.78607, 4.91645 ], [ 9.77955, 4.897 ], [ 9.76383, 4.88708 ], [ 9.76277, 4.87766 ], [ 9.77452, 4.87377 ], [ 9.74274, 4.8584 ], [ 9.74904, 4.84176 ], [ 9.70451, 4.80818 ], [ 9.69106, 4.72137 ], [ 9.63219, 4.6642 ], [ 9.64688, 4.65032 ], [ 9.64358, 4.63767 ], [ 9.63041, 4.62712 ], [ 9.57359, 4.61528 ], [ 9.54923, 4.58834 ], [ 9.54133, 4.58934 ], [ 9.53854, 4.56426 ], [ 9.52288, 4.54436 ], [ 9.51095, 4.54236 ], [ 9.51179, 4.51996 ], [ 9.50473, 4.52034 ], [ 9.51122, 4.52359 ], [ 9.50818, 4.53193 ], [ 9.493, 4.52629 ], [ 9.5033, 4.51173 ], [ 9.4928, 4.50388 ], [ 9.50366, 4.49086 ], [ 9.49126, 4.48301 ], [ 9.48753, 4.47019 ], [ 9.49515, 4.45994 ], [ 9.49723, 4.42145 ], [ 9.51048, 4.4179 ], [ 9.51486, 4.40238 ], [ 9.50246, 4.41101 ], [ 9.49816, 4.39129 ], [ 9.47974, 4.37962 ], [ 9.47849, 4.36277 ], [ 9.4659, 4.35541 ], [ 9.46475, 4.34641 ], [ 9.45578, 4.34833 ], [ 9.45872, 4.3174 ], [ 9.43773, 4.30171 ], [ 9.4402, 4.29443 ], [ 9.43362, 4.29482 ], [ 9.42474, 4.27175 ], [ 9.42921, 4.23939 ], [ 9.41375, 4.2235 ], [ 9.42079, 4.20397 ], [ 9.42967, 4.21172 ], [ 9.44883, 4.20807 ], [ 9.45683, 4.19303 ], [ 9.46675, 4.18977 ], [ 9.49966, 4.20373 ], [ 9.51053, 4.19683 ], [ 9.5194, 4.21233 ], [ 9.52999, 4.21041 ], [ 9.52977, 4.16589 ], [ 9.54892, 4.14884 ], [ 9.54786, 4.13323 ], [ 9.55786, 4.11829 ], [ 9.55013, 4.10527 ], [ 9.52954, 4.10557 ], [ 9.50988, 4.08548 ], [ 9.50653, 4.06002 ], [ 9.49899, 4.0514 ], [ 9.47869, 4.06214 ], [ 9.45704, 4.05957 ], [ 9.45178, 4.02386 ], [ 9.43452, 4.02387 ], [ 9.404, 3.99181 ], [ 9.40542, 3.97113 ], [ 9.38118, 3.92058 ], [ 9.3557, 3.90741 ], [ 9.3358, 3.91539 ], [ 9.3817, 3.88793 ], [ 9.41251, 3.883 ], [ 9.434, 3.88791 ], [ 9.47526, 3.90789 ], [ 9.46253, 3.91963 ], [ 9.4398, 3.9245 ], [ 9.45909, 3.96378 ], [ 9.44629, 3.98749 ], [ 9.4615, 3.99069 ], [ 9.49863, 3.96461 ], [ 9.52357, 3.96298 ], [ 9.5318, 3.97765 ], [ 9.52802, 4.00811 ], [ 9.51277, 4.01898 ], [ 9.51784, 4.02595 ], [ 9.53753, 4.02526 ], [ 9.58073, 4.00485 ], [ 9.61034, 4.01608 ], [ 9.63058, 4.00716 ], [ 9.63976, 3.99056 ], [ 9.63523, 3.96291 ], [ 9.62461, 3.96959 ], [ 9.62607, 3.94471 ], [ 9.63489, 3.93948 ], [ 9.67583, 3.94155 ], [ 9.67821, 3.90708 ], [ 9.7176, 3.86184 ], [ 9.69813, 3.85361 ], [ 9.68208, 3.83515 ], [ 9.66125, 3.83616 ], [ 9.65853, 3.84655 ], [ 9.62206, 3.86761 ], [ 9.61422, 3.86473 ], [ 9.60304, 3.84042 ], [ 9.6008, 3.80811 ], [ 9.59234, 3.79708 ], [ 9.57919, 3.79643 ], [ 9.55251, 3.81417 ], [ 9.63497, 3.68305 ], [ 9.65685, 3.63274 ], [ 9.65014, 3.62012 ], [ 9.63855, 3.61945 ], [ 9.63746, 3.58184 ], [ 9.6477, 3.56693 ], [ 9.63553, 3.55504 ], [ 9.63699, 3.56491 ], [ 9.63166, 3.55888 ], [ 9.63549, 3.55261 ], [ 9.6402, 3.55039 ], [ 9.66035, 3.56996 ], [ 9.67006, 3.56329 ], [ 9.68607, 3.56753 ], [ 9.68901, 3.56031 ], [ 9.67895, 3.55253 ], [ 9.6506, 3.53997 ], [ 9.64001, 3.54291 ], [ 9.68478, 3.5191 ], [ 9.78102, 3.43707 ], [ 9.87892, 3.32517 ], [ 9.90784, 3.26033 ], [ 9.91706, 3.26838 ], [ 9.93359, 3.26595 ], [ 9.96316, 3.2766 ], [ 9.98203, 3.30317 ], [ 10.03637, 3.33423 ], [ 10.05766, 3.37882 ], [ 10.05337, 3.39876 ], [ 10.07514, 3.41948 ], [ 10.0676, 3.48918 ], [ 10.08375, 3.49651 ], [ 10.10245, 3.54987 ], [ 10.11107, 3.54925 ], [ 10.11642, 3.57885 ], [ 10.15019, 3.57549 ], [ 10.15489, 3.56773 ], [ 10.1854, 3.59528 ] ] ] } },
{ "type": "Feature", "properties": { "GID_1": "CMR.7_1", "NAME_1": "Nord", "t2m_moyen_c": 26.66, "t2m_min_c": 21.08, "t2m_max_c": 32.96, "amplitude_c": 11.88 }, "geometry": { "type": "Polygon", "coordinates": [ [ [ 14.70769, 7.0213 ], [ 14.76533, 7.04041 ], [ 14.77324, 7.05498 ], [ 14.79064, 7.05886 ], [ 14.81587, 7.07855 ], [ 14.83417, 7.08565 ], [ 14.87119, 7.07985 ], [ 14.89325, 7.1051 ], [ 14.93311, 7.11268 ], [ 14.97823, 7.13676 ], [ 14.99167, 7.13649 ], [ 15.05479, 7.18775 ], [ 15.07937, 7.17943 ], [ 15.08719, 7.16571 ], [ 15.10255, 7.15912 ], [ 15.1032, 7.1436 ], [ 15.20192, 7.21224 ], [ 15.2207, 7.2306 ], [ 15.22271, 7.2444 ], [ 15.23764, 7.25275 ], [ 15.24512, 7.27338 ], [ 15.26123, 7.2791 ], [ 15.29395, 7.31345 ], [ 15.42622, 7.41695 ], [ 15.44072, 7.44943 ], [ 15.4571, 7.45577 ], [ 15.46238, 7.47993 ], [ 15.49284, 7.50681 ], [ 15.49673, 7.52579 ], [ 15.51272, 7.53198 ], [ 15.51764, 7.54481 ], [ 15.56902, 7.59065 ], [ 15.56476, 7.6097 ], [ 15.57903, 7.62597 ], [ 15.58327, 7.63984 ], [ 15.57686, 7.65565 ], [ 15.58822, 7.66668 ], [ 15.59357, 7.68758 ], [ 15.58864, 7.77248 ], [ 15.50473, 7.79364 ], [ 15.45236, 7.88115 ], [ 15.39568, 8.0444 ], [ 15.39674, 8.09128 ], [ 15.20023, 8.50902 ], [ 15.17776, 8.52502 ], [ 15.15416, 8.57232 ], [ 15.15149, 8.60216 ], [ 15.11097, 8.63705 ], [ 15.10834, 8.65602 ], [ 15.05905, 8.67981 ], [ 15.03685, 8.67573 ], [ 15.00539, 8.68978 ], [ 14.98199, 8.68954 ], [ 14.99118, 8.7157 ], [ 14.9874, 8.73225 ], [ 14.9469, 8.75772 ], [ 14.92192, 8.75544 ], [ 14.91291, 8.76692 ], [ 14.92571, 8.77856 ], [ 14.90776, 8.7957 ], [ 14.90145, 8.81349 ], [ 14.87298, 8.8248 ], [ 14.86455, 8.81735 ], [ 14.85412, 8.81966 ], [ 14.8537, 8.81316 ], [ 14.83601, 8.8152 ], [ 14.58608, 9.00204 ], [ 14.49708, 9.05372 ], [ 14.46781, 9.11687 ], [ 14.4337, 9.12953 ], [ 14.40378, 9.15104 ], [ 14.38937, 9.17055 ], [ 14.36416, 9.18292 ], [ 14.3581, 9.20247 ], [ 14.34853, 9.20685 ], [ 14.35693, 9.2293 ], [ 14.38139, 9.25698 ], [ 14.38021, 9.29211 ], [ 14.34755, 9.30483 ], [ 14.31141, 9.36873 ], [ 14.27445, 9.3584 ], [ 14.238, 9.40695 ], [ 14.23902, 9.41965 ], [ 14.21186, 9.44546 ], [ 14.19699, 9.44407 ], [ 14.18317, 9.47383 ], [ 14.1564, 9.50219 ], [ 14.135, 9.50421 ], [ 14.11091, 9.51781 ], [ 14.09973, 9.54988 ], [ 14.07427, 9.56642 ], [ 14.04666, 9.60076 ], [ 14.04381, 9.61401 ], [ 14.0079, 9.62269 ], [ 13.9825, 9.64186 ], [ 14.02625, 9.73158 ], [ 14.13507, 9.82386 ], [ 14.17327, 9.90118 ], [ 14.20822, 10.00163 ], [ 14.20977, 10.05366 ], [ 14.22985, 10.07566 ], [ 14.22114, 10.09019 ], [ 14.11003, 10.12865 ], [ 14.10347, 10.1155 ], [ 14.07617, 10.11134 ], [ 14.05088, 10.16218 ], [ 14.05183, 10.17257 ], [ 14.01352, 10.17392 ], [ 14.00385, 10.18639 ], [ 14.01404, 10.19582 ], [ 14.01193, 10.20167 ], [ 13.97998, 10.21719 ], [ 13.97386, 10.22994 ], [ 13.9168, 10.22813 ], [ 13.88222, 10.24099 ], [ 13.84235, 10.24018 ], [ 13.80096, 10.25305 ], [ 13.78331, 10.24568 ], [ 13.74199, 10.24552 ], [ 13.71434, 10.25862 ], [ 13.681, 10.25815 ], [ 13.6726, 10.23746 ], [ 13.65586, 10.22178 ], [ 13.64778, 10.18196 ], [ 13.65666, 10.16825 ], [ 13.69526, 10.14726 ], [ 13.69169, 10.14081 ], [ 13.63647, 10.12665 ], [ 13.61588, 10.13348 ], [ 13.58867, 10.12434 ], [ 13.55869, 10.0849 ], [ 13.55114, 10.10217 ], [ 13.43845, 10.08211 ], [ 13.42876, 10.08566 ], [ 13.42417, 10.10865 ], [ 13.40312, 10.12555 ], [ 13.35724, 10.11276 ], [ 13.34652, 10.11357 ], [ 13.34295, 10.12279 ], [ 13.29806, 10.09205 ], [ 13.28775, 10.06299 ], [ 13.24777, 10.03577 ], [ 13.24762, 10.00048 ], [ 13.2722, 9.99442 ], [ 13.28777, 9.9802 ], [ 13.27988, 9.94151 ], [ 13.23678, 9.91971 ], [ 13.24208, 9.86403 ], [ 13.24889, 9.85616 ], [ 13.27295, 9.8512 ], [ 13.29913, 9.82769 ], [ 13.28414, 9.8017 ], [ 13.25891, 9.77761 ], [ 13.2582, 9.74298 ], [ 13.2475, 9.70961 ], [ 13.25261, 9.70029 ], [ 13.22971, 9.6791 ], [ 13.23669, 9.66207 ], [ 13.2289, 9.65218 ], [ 13.23584, 9.61903 ], [ 13.22485, 9.60549 ], [ 13.22469, 9.58491 ], [ 13.21385, 9.56631 ], [ 13.20771, 9.55784 ], [ 13.19231, 9.56029 ], [ 13.17169, 9.54428 ], [ 13.12586, 9.52847 ], [ 13.09256, 9.52697 ], [ 13.07713, 9.51472 ], [ 13.06347, 9.51768 ], [ 13.04676, 9.50697 ], [ 13.0343, 9.51132 ], [ 13.00492, 9.48337 ], [ 12.98141, 9.46934 ], [ 12.97232, 9.47113 ], [ 12.96712, 9.45129 ], [ 12.94594, 9.43579 ], [ 12.93679, 9.41931 ], [ 12.87101, 9.39137 ], [ 12.86479, 9.36992 ], [ 12.84378, 9.37272 ], [ 12.85375, 9.359 ], [ 12.86572, 9.35879 ], [ 12.8774, 9.34738 ], [ 12.89244, 9.35499 ], [ 12.91404, 9.34149 ], [ 12.90869, 9.28465 ], [ 12.91602, 9.27683 ], [ 12.90997, 9.23184 ], [ 12.89793, 9.21814 ], [ 12.88356, 9.15862 ], [ 12.89786, 9.11478 ], [ 12.89025, 9.11044 ], [ 12.88764, 9.08774 ], [ 12.83854, 9.00733 ], [ 12.82091, 8.93574 ], [ 12.80399, 8.91649 ], [ 12.80649, 8.90243 ], [ 12.81281, 8.90548 ], [ 12.81877, 8.89902 ], [ 12.80753, 8.88629 ], [ 12.81582, 8.86285 ], [ 12.80451, 8.86178 ], [ 12.80086, 8.85332 ], [ 12.80938, 8.8361 ], [ 12.81984, 8.83107 ], [ 12.81018, 8.81514 ], [ 12.80962, 8.79565 ], [ 12.79795, 8.78775 ], [ 12.78583, 8.74308 ], [ 12.76548, 8.74718 ], [ 12.7588, 8.7604 ], [ 12.7377, 8.75592 ], [ 12.7203, 8.76077 ], [ 12.7094, 8.73808 ], [ 12.71057, 8.70159 ], [ 12.69854, 8.67587 ], [ 12.70142, 8.66792 ], [ 12.67336, 8.64673 ], [ 12.66073, 8.65341 ], [ 12.63608, 8.64596 ], [ 12.63231, 8.63596 ], [ 12.61534, 8.63907 ], [ 12.60576, 8.63212 ], [ 12.60689, 8.62395 ], [ 12.57533, 8.61398 ], [ 12.55992, 8.62614 ], [ 12.55053, 8.62172 ], [ 12.53769, 8.63087 ], [ 12.4858, 8.64345 ], [ 12.46428, 8.62215 ], [ 12.4322, 8.62134 ], [ 12.44572, 8.60089 ], [ 12.44631, 8.56407 ], [ 12.46574, 8.52437 ], [ 12.43691, 8.51124 ], [ 12.42129, 8.49468 ], [ 12.42441, 8.4886 ], [ 12.40315, 8.4904 ], [ 12.39471, 8.48566 ], [ 12.39465, 8.47469 ], [ 12.37653, 8.47959 ], [ 12.33716, 8.44606 ], [ 12.33558, 8.4305 ], [ 12.31343, 8.4258 ], [ 12.29953, 8.44378 ], [ 12.26376, 8.44339 ], [ 12.24736, 8.38593 ], [ 12.26468, 8.37012 ], [ 12.23875, 8.33908 ], [ 12.25728, 8.22547 ], [ 12.25637, 8.17582 ], [ 12.2779, 8.17557 ], [ 12.29143, 8.1876 ], [ 12.28849, 8.1685 ], [ 12.27607, 8.1515 ], [ 12.28766, 8.11374 ], [ 12.32445, 8.0863 ], [ 12.32713, 8.07347 ], [ 12.34921, 8.0537 ], [ 12.39911, 8.02318 ], [ 12.43033, 7.97304 ], [ 12.48609, 7.92441 ], [ 12.62676, 7.93152 ], [ 12.63592, 7.88405 ], [ 12.6489, 7.87754 ], [ 12.65293, 7.86709 ], [ 12.63129, 7.82542 ], [ 12.64328, 7.78233 ], [ 12.63358, 7.76894 ], [ 12.63678, 7.75047 ], [ 12.70433, 7.71998 ], [ 12.73125, 7.7315 ], [ 12.74013, 7.6955 ], [ 12.77769, 7.68705 ], [ 12.79983, 7.66746 ], [ 12.84105, 7.66241 ], [ 12.87568, 7.66889 ], [ 12.89511, 7.6582 ], [ 12.977, 7.64878 ], [ 13.01687, 7.62902 ], [ 13.03669, 7.6297 ], [ 13.08085, 7.60292 ], [ 13.12262, 7.59747 ], [ 13.12707, 7.6022 ], [ 13.14059, 7.59462 ], [ 13.18317, 7.60434 ], [ 13.22449, 7.60193 ], [ 13.22679, 7.61222 ], [ 13.24588, 7.60659 ], [ 13.2605, 7.62449 ], [ 13.25261, 7.6493 ], [ 13.25762, 7.69021 ], [ 13.28384, 7.70026 ], [ 13.29376, 7.72508 ], [ 13.28931, 7.73935 ], [ 13.29548, 7.74349 ], [ 13.28392, 7.75535 ], [ 13.30543, 7.78014 ], [ 13.29442, 7.81835 ], [ 13.30967, 7.82115 ], [ 13.34087, 7.85673 ], [ 13.34038, 7.8742 ], [ 13.32582, 7.90118 ], [ 13.35593, 7.93208 ], [ 13.32754, 7.97362 ], [ 13.35473, 7.96436 ], [ 13.36514, 7.96998 ], [ 13.41272, 7.9606 ], [ 13.42576, 7.94385 ], [ 13.42136, 7.91765 ], [ 13.4408, 7.90904 ], [ 13.50692, 7.92351 ], [ 13.57297, 7.90627 ], [ 13.58879, 7.92614 ], [ 13.63279, 7.92336 ], [ 13.66494, 7.93045 ], [ 13.69951, 7.95763 ], [ 13.7141, 7.94468 ], [ 13.71593, 7.92892 ], [ 13.74426, 7.91209 ], [ 13.7447, 7.88355 ], [ 13.73419, 7.85992 ], [ 13.7644, 7.81521 ], [ 13.76498, 7.79917 ], [ 13.7869, 7.75809 ], [ 13.80457, 7.74682 ], [ 13.82551, 7.7463 ], [ 13.86069, 7.71155 ], [ 13.88356, 7.70452 ], [ 13.88556, 7.69496 ], [ 13.87308, 7.67459 ], [ 13.89175, 7.65177 ], [ 13.87274, 7.62785 ], [ 13.87424, 7.61686 ], [ 13.91427, 7.58865 ], [ 13.93085, 7.59218 ], [ 13.95144, 7.57926 ], [ 13.98039, 7.57778 ], [ 14.00617, 7.5504 ], [ 14.03239, 7.56106 ], [ 14.08373, 7.55475 ], [ 14.11259, 7.57081 ], [ 14.12564, 7.56703 ], [ 14.13656, 7.55269 ], [ 14.13231, 7.50869 ], [ 14.14482, 7.48375 ], [ 14.17499, 7.47329 ], [ 14.18264, 7.45823 ], [ 14.21368, 7.457 ], [ 14.22028, 7.43385 ], [ 14.21598, 7.4012 ], [ 14.24194, 7.39164 ], [ 14.23573, 7.37522 ], [ 14.24414, 7.36759 ], [ 14.24587, 7.35269 ], [ 14.30488, 7.30376 ], [ 14.31356, 7.3109 ], [ 14.3409, 7.30533 ], [ 14.33284, 7.27826 ], [ 14.35386, 7.27153 ], [ 14.3527, 7.23789 ], [ 14.36238, 7.2169 ], [ 14.35401, 7.19498 ], [ 14.33268, 7.19161 ], [ 14.32337, 7.16283 ], [ 14.38488, 7.15029 ], [ 14.39182, 7.15555 ], [ 14.40441, 7.1472 ], [ 14.43183, 7.16594 ], [ 14.4433, 7.1516 ], [ 14.4574, 7.15687 ], [ 14.48604, 7.15005 ], [ 14.52024, 7.16145 ], [ 14.52088, 7.13514 ], [ 14.53349, 7.12899 ], [ 14.54122, 7.10517 ], [ 14.56935, 7.08015 ], [ 14.57281, 7.06686 ], [ 14.56353, 7.05668 ], [ 14.58779, 7.07468 ], [ 14.60877, 7.06681 ], [ 14.62722, 7.0702 ], [ 14.64614, 7.06483 ], [ 14.65554, 7.04594 ], [ 14.645, 7.02597 ], [ 14.65194, 7.01616 ], [ 14.70769, 7.0213 ] ] ] } },
{ "type": "Feature", "properties": { "GID_1": "CMR.6_1", "NAME_1": "Nord-Ouest", "t2m_moyen_c": 21.15, "t2m_min_c": 18.37, "t2m_max_c": 25.5, "amplitude_c": 7.13 }, "geometry": { "type": "Polygon", "coordinates": [ [ [ 10.32435, 5.80913 ], [ 10.34783, 5.8104 ], [ 10.38223, 5.79983 ], [ 10.39092, 5.80756 ], [ 10.43909, 5.80252 ], [ 10.44233, 5.8146 ], [ 10.45829, 5.82599 ], [ 10.46885, 5.82379 ], [ 10.47042, 5.81293 ], [ 10.52385, 5.8346 ], [ 10.53645, 5.8238 ], [ 10.55992, 5.82156 ], [ 10.56674, 5.79435 ], [ 10.57989, 5.77769 ], [ 10.60338, 5.78509 ], [ 10.61068, 5.79743 ], [ 10.60035, 5.81163 ], [ 10.60826, 5.81142 ], [ 10.61245, 5.82368 ], [ 10.62888, 5.83251 ], [ 10.61675, 5.87739 ], [ 10.62121, 5.88786 ], [ 10.62931, 5.88293 ], [ 10.63783, 5.89508 ], [ 10.64079, 5.94031 ], [ 10.66178, 5.95714 ], [ 10.6594, 5.98302 ], [ 10.68074, 5.99426 ], [ 10.68249, 6.0042 ], [ 10.69985, 6.0179 ], [ 10.70507, 6.03791 ], [ 10.71534, 6.03249 ], [ 10.7227, 6.03933 ], [ 10.74211, 6.02105 ], [ 10.78852, 6.01899 ], [ 10.84194, 5.97642 ], [ 10.8639, 6.02024 ], [ 10.89884, 6.01341 ], [ 10.92593, 6.01631 ], [ 10.96376, 6.03784 ], [ 10.9752, 6.05705 ], [ 10.9892, 6.06449 ], [ 10.99929, 6.08614 ], [ 10.99081, 6.10801 ], [ 11.01223, 6.1512 ], [ 10.99934, 6.23268 ], [ 11.02681, 6.23918 ], [ 11.06724, 6.21108 ], [ 11.13757, 6.22659 ], [ 11.14453, 6.24684 ], [ 11.16325, 6.26332 ], [ 11.19573, 6.25754 ], [ 11.18134, 6.27286 ], [ 11.18509, 6.30344 ], [ 11.20589, 6.32227 ], [ 11.20931, 6.34681 ], [ 11.19771, 6.36266 ], [ 11.20538, 6.39282 ], [ 11.19837, 6.39919 ], [ 11.20735, 6.43005 ], [ 11.19234, 6.44833 ], [ 11.20452, 6.49477 ], [ 11.19442, 6.52932 ], [ 11.17076, 6.52413 ], [ 11.14243, 6.53411 ], [ 11.11368, 6.51635 ], [ 11.09729, 6.52408 ], [ 11.09848, 6.67959 ], [ 11.05989, 6.71619 ], [ 11.05192, 6.70936 ], [ 11.02306, 6.71251 ], [ 10.99428, 6.68701 ], [ 10.94815, 6.69474 ], [ 10.94708, 6.68828 ], [ 10.91923, 6.70851 ], [ 10.91299, 6.76561 ], [ 10.90416, 6.77336 ], [ 10.89832, 6.76248 ], [ 10.88041, 6.7955 ], [ 10.8556, 6.81102 ], [ 10.85238, 6.80523 ], [ 10.84055, 6.81184 ], [ 10.82006, 6.8438 ], [ 10.81775, 6.85315 ], [ 10.8433, 6.92075 ], [ 10.84115, 6.93964 ], [ 10.78225, 6.96799 ], [ 10.76549, 6.95744 ], [ 10.73844, 6.99011 ], [ 10.72082, 6.98935 ], [ 10.70401, 7.01205 ], [ 10.68652, 7.01559 ], [ 10.67802, 7.04232 ], [ 10.65867, 7.05159 ], [ 10.65471, 7.04313 ], [ 10.62764, 7.04941 ], [ 10.61291, 7.06112 ], [ 10.5977, 7.07791 ], [ 10.60701, 7.10334 ], [ 10.60153, 7.13636 ], [ 10.57204, 7.16229 ], [ 10.55931, 7.08192 ], [ 10.56027, 7.03468 ], [ 10.55101, 6.97772 ], [ 10.54121, 6.96818 ], [ 10.54098, 6.93862 ], [ 10.53521, 6.93969 ], [ 10.52811, 6.92665 ], [ 10.4959, 6.91483 ], [ 10.49037, 6.89966 ], [ 10.46306, 6.91478 ], [ 10.2171, 6.88884 ], [ 10.17406, 6.9382 ], [ 10.18452, 6.96656 ], [ 10.18261, 6.98483 ], [ 10.16862, 7.00023 ], [ 10.1795, 7.01167 ], [ 10.16324, 7.0213 ], [ 10.16577, 7.03394 ], [ 10.15335, 7.03845 ], [ 10.02011, 6.92047 ], [ 10.01342, 6.90315 ], [ 9.98994, 6.89155 ], [ 9.86395, 6.77645 ], [ 9.77942, 6.79453 ], [ 9.76272, 6.75929 ], [ 9.76843, 6.74909 ], [ 9.75607, 6.69572 ], [ 9.76391, 6.69105 ], [ 9.76441, 6.68071 ], [ 9.75065, 6.67832 ], [ 9.75147, 6.65573 ], [ 9.71051, 6.54012 ], [ 9.70634, 6.50198 ], [ 9.74362, 6.48423 ], [ 9.7365, 6.43114 ], [ 9.7514, 6.41866 ], [ 9.75024, 6.40888 ], [ 9.76407, 6.39041 ], [ 9.75932, 6.36249 ], [ 9.77264, 6.30657 ], [ 9.78848, 6.28736 ], [ 9.78861, 6.2727 ], [ 9.8086, 6.25272 ], [ 9.81683, 6.22122 ], [ 9.80582, 6.20967 ], [ 9.77177, 6.19858 ], [ 9.79055, 6.18373 ], [ 9.78915, 6.16686 ], [ 9.767, 6.1585 ], [ 9.77246, 6.14673 ], [ 9.76303, 6.13412 ], [ 9.76544, 6.12546 ], [ 9.73677, 6.11619 ], [ 9.7264, 6.0847 ], [ 9.7104, 6.08385 ], [ 9.70224, 6.09062 ], [ 9.67388, 6.06224 ], [ 9.62974, 6.04393 ], [ 9.61146, 6.02141 ], [ 9.61204, 6.0074 ], [ 9.63927, 5.9824 ], [ 9.63887, 5.96756 ], [ 9.61962, 5.93532 ], [ 9.60394, 5.93591 ], [ 9.60593, 5.91753 ], [ 9.5932, 5.91036 ], [ 9.59097, 5.88221 ], [ 9.61086, 5.8865 ], [ 9.61726, 5.87922 ], [ 9.63371, 5.88753 ], [ 9.64994, 5.86042 ], [ 9.67992, 5.8353 ], [ 9.69066, 5.85587 ], [ 9.72793, 5.84778 ], [ 9.75427, 5.81673 ], [ 9.75472, 5.79452 ], [ 9.76846, 5.77679 ], [ 9.78394, 5.7715 ], [ 9.81185, 5.77472 ], [ 9.81412, 5.75509 ], [ 9.8533, 5.75254 ], [ 9.85528, 5.73416 ], [ 9.88368, 5.74063 ], [ 9.889, 5.71879 ], [ 9.92208, 5.72937 ], [ 9.95557, 5.75219 ], [ 9.97841, 5.7413 ], [ 9.99738, 5.71922 ], [ 10.05875, 5.71984 ], [ 10.07936, 5.70812 ], [ 10.08955, 5.71179 ], [ 10.11726, 5.75386 ], [ 10.15728, 5.77474 ], [ 10.16527, 5.76321 ], [ 10.18084, 5.77016 ], [ 10.20767, 5.74498 ], [ 10.21588, 5.74969 ], [ 10.21953, 5.73891 ], [ 10.24281, 5.73358 ], [ 10.25231, 5.72269 ], [ 10.27371, 5.72369 ], [ 10.28018, 5.70393 ], [ 10.30775, 5.72257 ], [ 10.27795, 5.76145 ], [ 10.32435, 5.80913 ] ] ] } },
{ "type": "Feature", "properties": { "GID_1": "CMR.8_1", "NAME_1": "Ouest", "t2m_moyen_c": 21.93, "t2m_min_c": 19.13, "t2m_max_c": 26.01, "amplitude_c": 6.88 }, "geometry": { "type": "Polygon", "coordinates": [ [ [ 10.1135, 4.92841 ], [ 10.12819, 4.92669 ], [ 10.12846, 4.92064 ], [ 10.15003, 4.91994 ], [ 10.1593, 4.94618 ], [ 10.14786, 4.97501 ], [ 10.16142, 4.97565 ], [ 10.17483, 4.99347 ], [ 10.1916, 4.99788 ], [ 10.19378, 5.00817 ], [ 10.22567, 5.03909 ], [ 10.22353, 5.0543 ], [ 10.19787, 5.0789 ], [ 10.23287, 5.10774 ], [ 10.24021, 5.10593 ], [ 10.26538, 5.06744 ], [ 10.28419, 5.0572 ], [ 10.3146, 5.10021 ], [ 10.36704, 5.08659 ], [ 10.37267, 5.07657 ], [ 10.36755, 5.01784 ], [ 10.3958, 5.01816 ], [ 10.4181, 5.00668 ], [ 10.42056, 4.97212 ], [ 10.41159, 4.96024 ], [ 10.4253, 4.93962 ], [ 10.42036, 4.91885 ], [ 10.43215, 4.93092 ], [ 10.44144, 4.96008 ], [ 10.45913, 4.95447 ], [ 10.45296, 4.93172 ], [ 10.43512, 4.90938 ], [ 10.51787, 4.90655 ], [ 10.52861, 4.89511 ], [ 10.59573, 4.88126 ], [ 10.64149, 4.91729 ], [ 10.68108, 4.93562 ], [ 10.69076, 4.95422 ], [ 10.69968, 4.94886 ], [ 10.72118, 4.95373 ], [ 10.74922, 5.00581 ], [ 10.7851, 5.01971 ], [ 10.81478, 5.00795 ], [ 10.81967, 4.99736 ], [ 10.8098, 4.98652 ], [ 10.81803, 4.98468 ], [ 10.82381, 4.97138 ], [ 10.83395, 4.97014 ], [ 10.83768, 4.97879 ], [ 10.85374, 4.97663 ], [ 10.85618, 4.95407 ], [ 10.85106, 4.95348 ], [ 10.86739, 4.94146 ], [ 10.94162, 4.92484 ], [ 10.94056, 4.94155 ], [ 10.96212, 4.97058 ], [ 10.9314, 5.00167 ], [ 10.94527, 5.00687 ], [ 10.9602, 5.03209 ], [ 10.96995, 5.03669 ], [ 10.97073, 5.06135 ], [ 10.98666, 5.08415 ], [ 10.99803, 5.1585 ], [ 11.01391, 5.16489 ], [ 11.01514, 5.17214 ], [ 11.04837, 5.17062 ], [ 11.06197, 5.18507 ], [ 11.08015, 5.18823 ], [ 11.081, 5.20353 ], [ 11.06649, 5.21748 ], [ 11.08259, 5.25779 ], [ 11.07228, 5.29877 ], [ 11.10501, 5.32514 ], [ 11.12751, 5.32727 ], [ 11.14087, 5.35883 ], [ 11.18293, 5.38404 ], [ 11.18623, 5.40708 ], [ 11.19429, 5.41379 ], [ 11.17063, 5.45223 ], [ 11.19519, 5.46814 ], [ 11.21519, 5.52725 ], [ 11.2077, 5.53915 ], [ 11.21259, 5.55704 ], [ 11.2033, 5.56957 ], [ 11.20585, 5.58082 ], [ 11.18655, 5.60405 ], [ 11.21333, 5.64723 ], [ 11.20197, 5.67031 ], [ 11.22522, 5.6828 ], [ 11.24454, 5.71553 ], [ 11.25728, 5.71105 ], [ 11.27133, 5.73042 ], [ 11.27896, 5.72969 ], [ 11.29261, 5.75157 ], [ 11.29258, 5.76878 ], [ 11.30665, 5.76993 ], [ 11.31686, 5.7863 ], [ 11.30295, 5.79903 ], [ 11.28847, 5.79577 ], [ 11.27444, 5.80629 ], [ 11.26949, 5.82434 ], [ 11.27621, 5.84534 ], [ 11.27063, 5.85834 ], [ 11.27803, 5.87381 ], [ 11.26409, 5.88232 ], [ 11.26872, 5.8937 ], [ 11.25323, 5.90411 ], [ 11.25618, 5.91254 ], [ 11.27559, 5.91548 ], [ 11.2709, 5.92557 ], [ 11.27774, 5.95069 ], [ 11.26033, 5.96949 ], [ 11.26485, 5.99424 ], [ 11.30796, 6.03975 ], [ 11.29907, 6.05186 ], [ 11.29656, 6.07703 ], [ 11.28527, 6.07114 ], [ 11.28924, 6.08129 ], [ 11.27943, 6.0919 ], [ 11.27793, 6.11767 ], [ 11.26253, 6.13685 ], [ 11.28092, 6.15821 ], [ 11.26269, 6.17459 ], [ 11.27117, 6.18311 ], [ 11.27187, 6.20635 ], [ 11.29573, 6.21199 ], [ 11.30122, 6.24789 ], [ 11.29089, 6.25508 ], [ 11.27869, 6.24718 ], [ 11.26496, 6.25841 ], [ 11.2585, 6.25401 ], [ 11.24034, 6.26466 ], [ 11.21949, 6.25649 ], [ 11.16325, 6.26332 ], [ 11.14453, 6.24684 ], [ 11.13757, 6.22659 ], [ 11.06724, 6.21108 ], [ 11.02681, 6.23918 ], [ 11.00672, 6.23676 ], [ 10.99895, 6.23048 ], [ 11.01223, 6.1512 ], [ 10.99081, 6.10801 ], [ 10.99929, 6.08614 ], [ 10.9892, 6.06449 ], [ 10.9752, 6.05705 ], [ 10.96376, 6.03784 ], [ 10.92593, 6.01631 ], [ 10.89884, 6.01341 ], [ 10.8639, 6.02024 ], [ 10.84194, 5.97642 ], [ 10.78852, 6.01899 ], [ 10.74211, 6.02105 ], [ 10.7227, 6.03933 ], [ 10.71534, 6.03249 ], [ 10.70507, 6.03791 ], [ 10.69985, 6.0179 ], [ 10.68249, 6.0042 ], [ 10.68074, 5.99426 ], [ 10.6594, 5.98302 ], [ 10.66178, 5.95714 ], [ 10.64079, 5.94031 ], [ 10.63783, 5.89508 ], [ 10.62931, 5.88293 ], [ 10.62121, 5.88786 ], [ 10.61675, 5.87739 ], [ 10.62888, 5.83251 ], [ 10.61245, 5.82368 ], [ 10.60826, 5.81142 ], [ 10.60035, 5.81163 ], [ 10.61068, 5.79743 ], [ 10.60338, 5.78509 ], [ 10.57989, 5.77769 ], [ 10.56674, 5.79435 ], [ 10.55992, 5.82156 ], [ 10.53645, 5.8238 ], [ 10.52385, 5.8346 ], [ 10.47042, 5.81293 ], [ 10.46885, 5.82379 ], [ 10.45829, 5.82599 ], [ 10.43664, 5.80215 ], [ 10.40469, 5.80818 ], [ 10.38223, 5.79983 ], [ 10.34783, 5.8104 ], [ 10.32435, 5.80913 ], [ 10.27834, 5.76797 ], [ 10.28705, 5.74273 ], [ 10.30775, 5.72257 ], [ 10.28018, 5.70393 ], [ 10.27371, 5.72369 ], [ 10.25231, 5.72269 ], [ 10.24281, 5.73358 ], [ 10.21953, 5.73891 ], [ 10.21588, 5.74969 ], [ 10.20767, 5.74498 ], [ 10.18084, 5.77016 ], [ 10.16527, 5.76321 ], [ 10.15916, 5.77389 ], [ 10.14879, 5.77363 ], [ 10.11357, 5.75065 ], [ 10.08955, 5.71179 ], [ 10.07936, 5.70812 ], [ 10.1006, 5.66955 ], [ 10.09103, 5.64473 ], [ 10.07904, 5.63399 ], [ 10.02463, 5.62955 ], [ 9.99805, 5.58039 ], [ 9.97873, 5.58004 ], [ 9.96225, 5.58961 ], [ 9.94873, 5.56876 ], [ 9.9653, 5.5556 ], [ 9.96651, 5.54682 ], [ 9.94969, 5.5221 ], [ 9.9587, 5.4928 ], [ 9.95228, 5.48894 ], [ 9.94637, 5.44702 ], [ 9.92332, 5.40823 ], [ 9.92327, 5.38046 ], [ 9.89336, 5.35113 ], [ 9.85282, 5.33835 ], [ 9.8508, 5.30897 ], [ 9.83967, 5.30021 ], [ 9.83266, 5.27547 ], [ 9.85054, 5.25485 ], [ 9.88021, 5.25009 ], [ 9.9072, 5.2765 ], [ 9.92453, 5.2726 ], [ 9.93499, 5.27768 ], [ 9.92336, 5.25107 ], [ 9.94334, 5.25311 ], [ 9.97046, 5.24448 ], [ 9.98608, 5.22726 ], [ 9.99371, 5.22753 ], [ 9.99237, 5.21611 ], [ 9.9983, 5.2144 ], [ 10.00834, 5.18388 ], [ 10.00115, 5.16679 ], [ 10.00545, 5.14534 ], [ 9.99148, 5.13073 ], [ 10.01043, 5.08007 ], [ 10.00646, 5.06931 ], [ 10.03941, 5.05821 ], [ 10.04919, 5.04809 ], [ 10.07292, 5.04465 ], [ 10.06581, 5.01548 ], [ 10.07442, 4.98732 ], [ 10.09209, 4.96415 ], [ 10.10649, 4.95808 ], [ 10.1135, 4.92841 ] ] ] } },
{ "type": "Feature", "properties": { "GID_1": "CMR.10_1", "NAME_1": "Sud", "t2m_moyen_c": 23.45, "t2m_min_c": 21.41, "t2m_max_c": 26.5, "amplitude_c": 5.09 }, "geometry": { "type": "Polygon", "coordinates": [ [ [ 11.65905, 2.3139 ], [ 11.70107, 2.31564 ], [ 11.71126, 2.29932 ], [ 11.72357, 2.29918 ], [ 11.73118, 2.29088 ], [ 11.74633, 2.29476 ], [ 11.74597, 2.27726 ], [ 11.75298, 2.2821 ], [ 11.75248, 2.27498 ], [ 11.74952, 2.27211 ], [ 11.75888, 2.26748 ], [ 11.78454, 2.26834 ], [ 11.79461, 2.27869 ], [ 11.82399, 2.27119 ], [ 11.82904, 2.2821 ], [ 11.84081, 2.27248 ], [ 11.85363, 2.27831 ], [ 11.85541, 2.27085 ], [ 11.86648, 2.26898 ], [ 11.87124, 2.28104 ], [ 11.9118, 2.27746 ], [ 11.92176, 2.28717 ], [ 11.93432, 2.2782 ], [ 11.9692, 2.28848 ], [ 11.98901, 2.28158 ], [ 12.00726, 2.28082 ], [ 12.01574, 2.28803 ], [ 12.10822, 2.27698 ], [ 12.12337, 2.28884 ], [ 12.15366, 2.27103 ], [ 12.16852, 2.28125 ], [ 12.20503, 2.27838 ], [ 12.2224, 2.25817 ], [ 12.2459, 2.24841 ], [ 12.25866, 2.25848 ], [ 12.28324, 2.26094 ], [ 12.29075, 2.27593 ], [ 12.30717, 2.2822 ], [ 12.45392, 2.25246 ], [ 12.49274, 2.26225 ], [ 12.53432, 2.25364 ], [ 12.57332, 2.26805 ], [ 12.5908, 2.25307 ], [ 12.6097, 2.25596 ], [ 12.62218, 2.24324 ], [ 12.65209, 2.23805 ], [ 12.68326, 2.24227 ], [ 12.70946, 2.22724 ], [ 12.7331, 2.22855 ], [ 12.74339, 2.21986 ], [ 12.77877, 2.2294 ], [ 12.79558, 2.23877 ], [ 12.7969, 2.24946 ], [ 12.80803, 2.24417 ], [ 12.81962, 2.25579 ], [ 12.82372, 2.24143 ], [ 12.85273, 2.23545 ], [ 12.86013, 2.2269 ], [ 12.8747, 2.22827 ], [ 12.87791, 2.24441 ], [ 12.88671, 2.24315 ], [ 12.88933, 2.23466 ], [ 12.90917, 2.23929 ], [ 12.92084, 2.24568 ], [ 12.9183, 2.25297 ], [ 12.93209, 2.25306 ], [ 12.94682, 2.24196 ], [ 13.01902, 2.24914 ], [ 13.03254, 2.24413 ], [ 13.03629, 2.2338 ], [ 13.07435, 2.24804 ], [ 13.08769, 2.23665 ], [ 13.10165, 2.25084 ], [ 13.11773, 2.25133 ], [ 13.11685, 2.26731 ], [ 13.16031, 2.28134 ], [ 13.1782, 2.27467 ], [ 13.19228, 2.27947 ], [ 13.1842, 2.27152 ], [ 13.19163, 2.26081 ], [ 13.20276, 2.26637 ], [ 13.20353, 2.25805 ], [ 13.22228, 2.2551 ], [ 13.24842, 2.27074 ], [ 13.26128, 2.26051 ], [ 13.25948, 2.25266 ], [ 13.27061, 2.24808 ], [ 13.27167, 2.23889 ], [ 13.28403, 2.24819 ], [ 13.3032, 2.20773 ], [ 13.28419, 2.19105 ], [ 13.28391, 2.18531 ], [ 13.29743, 2.17968 ], [ 13.29315, 2.17135 ], [ 13.68009, 2.17169 ], [ 13.63046, 2.90445 ], [ 13.58299, 2.8821 ], [ 13.57614, 2.8616 ], [ 13.55809, 2.84392 ], [ 13.55131, 2.84309 ], [ 13.54639, 2.85545 ], [ 13.53263, 2.85348 ], [ 13.53378, 2.82157 ], [ 13.51834, 2.82163 ], [ 13.51046, 2.8373 ], [ 13.504, 2.83488 ], [ 13.49782, 2.82384 ], [ 13.51068, 2.81241 ], [ 13.51106, 2.80007 ], [ 13.50139, 2.78724 ], [ 13.48255, 2.78465 ], [ 13.47087, 2.77449 ], [ 13.44879, 2.77999 ], [ 13.43173, 2.77166 ], [ 13.42343, 2.78924 ], [ 13.40565, 2.78686 ], [ 13.37584, 2.82048 ], [ 13.34718, 2.7958 ], [ 13.31772, 2.81102 ], [ 13.30396, 2.83724 ], [ 13.28547, 2.84561 ], [ 13.27297, 2.84033 ], [ 13.29182, 2.78696 ], [ 13.26747, 2.78226 ], [ 13.2683, 2.80875 ], [ 13.26063, 2.82229 ], [ 13.23314, 2.82771 ], [ 13.22894, 2.83784 ], [ 13.2367, 2.84653 ], [ 13.21063, 2.86472 ], [ 13.20079, 2.8656 ], [ 13.1929, 2.84818 ], [ 13.15394, 2.84588 ], [ 13.13446, 2.87244 ], [ 13.11865, 2.8592 ], [ 13.11244, 2.84145 ], [ 13.09435, 2.84141 ], [ 13.09798, 2.85183 ], [ 13.08318, 2.85507 ], [ 13.08132, 2.83763 ], [ 13.07002, 2.84703 ], [ 13.0388, 2.84767 ], [ 13.01968, 2.85849 ], [ 13.00208, 2.84929 ], [ 13.00278, 2.86781 ], [ 12.98766, 2.87329 ], [ 12.98676, 2.88649 ], [ 12.96689, 2.86453 ], [ 12.93967, 2.86281 ], [ 12.93717, 2.87219 ], [ 12.92497, 2.86669 ], [ 12.91496, 2.87822 ], [ 12.8743, 2.87528 ], [ 12.85996, 2.89374 ], [ 12.83326, 2.88808 ], [ 12.81324, 2.9154 ], [ 12.79478, 2.90429 ], [ 12.79253, 2.92793 ], [ 12.77088, 2.94578 ], [ 12.76473, 2.97316 ], [ 12.77059, 2.99597 ], [ 12.76521, 3.17032 ], [ 12.5425, 3.3928 ], [ 12.54922, 3.40545 ], [ 12.56361, 3.53343 ], [ 12.54362, 3.56779 ], [ 12.52614, 3.57378 ], [ 12.52777, 3.62701 ], [ 12.4985, 3.68188 ], [ 12.47762, 3.67155 ], [ 12.45462, 3.67536 ], [ 12.44611, 3.66593 ], [ 12.44892, 3.65331 ], [ 12.43921, 3.6522 ], [ 12.43278, 3.61093 ], [ 12.39705, 3.5974 ], [ 12.25803, 3.48081 ], [ 12.22323, 3.34356 ], [ 12.20515, 3.31131 ], [ 12.19127, 3.31374 ], [ 12.19265, 3.32913 ], [ 12.17998, 3.32219 ], [ 12.16077, 3.32541 ], [ 12.15, 3.31646 ], [ 12.15882, 3.3105 ], [ 12.14683, 3.307 ], [ 12.14574, 3.29305 ], [ 12.13974, 3.29144 ], [ 12.12959, 3.29969 ], [ 12.12897, 3.31404 ], [ 12.13851, 3.32481 ], [ 12.13368, 3.36154 ], [ 11.99397, 3.40673 ], [ 11.98231, 3.41881 ], [ 11.98055, 3.4345 ], [ 11.94987, 3.45257 ], [ 11.94174, 3.44141 ], [ 11.92567, 3.44423 ], [ 11.92171, 3.45543 ], [ 11.89236, 3.47378 ], [ 11.86124, 3.40818 ], [ 11.86011, 3.38132 ], [ 11.84902, 3.36404 ], [ 11.83925, 3.37277 ], [ 11.82, 3.36317 ], [ 11.77641, 3.32619 ], [ 11.77455, 3.30993 ], [ 11.77011, 3.31961 ], [ 11.75907, 3.31849 ], [ 11.73456, 3.33472 ], [ 11.74566, 3.28754 ], [ 11.73678, 3.27829 ], [ 11.70975, 3.27702 ], [ 11.70181, 3.2582 ], [ 11.69908, 3.19863 ], [ 11.68354, 3.18728 ], [ 11.64082, 3.18768 ], [ 11.61489, 3.16785 ], [ 11.58585, 3.16152 ], [ 11.56495, 3.13747 ], [ 11.55031, 3.14391 ], [ 11.54515, 3.1357 ], [ 11.50574, 3.13092 ], [ 11.50138, 3.13609 ], [ 11.41259, 3.13496 ], [ 11.40471, 3.14455 ], [ 11.35513, 3.14351 ], [ 11.33146, 3.11333 ], [ 11.31281, 3.11653 ], [ 11.29705, 3.13293 ], [ 11.2705, 3.13547 ], [ 11.22408, 3.10553 ], [ 11.21428, 3.10593 ], [ 11.18903, 3.13593 ], [ 11.1844, 3.15269 ], [ 11.17355, 3.15414 ], [ 11.179, 3.16686 ], [ 11.1712, 3.21663 ], [ 11.15914, 3.22957 ], [ 11.13935, 3.23363 ], [ 11.11159, 3.25168 ], [ 11.11858, 3.27118 ], [ 11.1132, 3.29358 ], [ 11.09867, 3.31122 ], [ 11.09967, 3.3316 ], [ 11.07969, 3.33891 ], [ 11.08781, 3.35 ], [ 11.08251, 3.36551 ], [ 11.06765, 3.36104 ], [ 11.06129, 3.3733 ], [ 11.06105, 3.39506 ], [ 11.03158, 3.41537 ], [ 11.01624, 3.41005 ], [ 10.99987, 3.41381 ], [ 10.9905, 3.39403 ], [ 10.98211, 3.39337 ], [ 10.96689, 3.39666 ], [ 10.95436, 3.41525 ], [ 10.89568, 3.40905 ], [ 10.86165, 3.38825 ], [ 10.82741, 3.4088 ], [ 10.83362, 3.41989 ], [ 10.82022, 3.4336 ], [ 10.81531, 3.45859 ], [ 10.76239, 3.47342 ], [ 10.55417, 3.40392 ], [ 10.29681, 3.33108 ], [ 10.25119, 3.41327 ], [ 10.25525, 3.45241 ], [ 10.23812, 3.46879 ], [ 10.24308, 3.48054 ], [ 10.23059, 3.50994 ], [ 10.23514, 3.54436 ], [ 10.20239, 3.55911 ], [ 10.20403, 3.59163 ], [ 10.1854, 3.59528 ], [ 10.15489, 3.56773 ], [ 10.15019, 3.57549 ], [ 10.11642, 3.57885 ], [ 10.11107, 3.54925 ], [ 10.10245, 3.54987 ], [ 10.08375, 3.49651 ], [ 10.0676, 3.48918 ], [ 10.07514, 3.41948 ], [ 10.05337, 3.39876 ], [ 10.05766, 3.37882 ], [ 10.03637, 3.33423 ], [ 9.98203, 3.30317 ], [ 9.96316, 3.2766 ], [ 9.90299, 3.26309 ], [ 9.97446, 3.08801 ], [ 9.96397, 3.07938 ], [ 9.96643, 3.06112 ], [ 9.95514, 3.02006 ], [ 9.94609, 3.007 ], [ 9.92956, 3.00086 ], [ 9.90518, 2.95001 ], [ 9.89663, 2.88035 ], [ 9.89008, 2.88004 ], [ 9.8811, 2.84075 ], [ 9.89224, 2.79903 ], [ 9.8762, 2.7684 ], [ 9.87374, 2.73358 ], [ 9.85675, 2.71601 ], [ 9.85985, 2.69971 ], [ 9.84646, 2.672 ], [ 9.83952, 2.61765 ], [ 9.8219, 2.56752 ], [ 9.82281, 2.51856 ], [ 9.81508, 2.50632 ], [ 9.82535, 2.43842 ], [ 9.81717, 2.41936 ], [ 9.81955, 2.35362 ], [ 9.83542, 2.32525 ], [ 9.83004, 2.29016 ], [ 9.84611, 2.24463 ], [ 9.87759, 2.23126 ], [ 9.87813, 2.21794 ], [ 9.88853, 2.21864 ], [ 9.90282, 2.19704 ], [ 9.91976, 2.19704 ], [ 9.93545, 2.18186 ], [ 9.93841, 2.19157 ], [ 9.95558, 2.18862 ], [ 9.9863, 2.17474 ], [ 9.98889, 2.1673 ], [ 10.01252, 2.1699 ], [ 10.04149, 2.15963 ], [ 10.04795, 2.16497 ], [ 10.1097, 2.16167 ], [ 10.12006, 2.14103 ], [ 10.13658, 2.1555 ], [ 10.16608, 2.15072 ], [ 10.1909, 2.17433 ], [ 11.35319, 2.17128 ], [ 11.3599, 2.17415 ], [ 11.35534, 2.18087 ], [ 11.36394, 2.19889 ], [ 11.35905, 2.21596 ], [ 11.36525, 2.21982 ], [ 11.35509, 2.22564 ], [ 11.36411, 2.24332 ], [ 11.37023, 2.23571 ], [ 11.38217, 2.24503 ], [ 11.37736, 2.25528 ], [ 11.38424, 2.2624 ], [ 11.37734, 2.26508 ], [ 11.38289, 2.27639 ], [ 11.3798, 2.28424 ], [ 11.36548, 2.28776 ], [ 11.37652, 2.2969 ], [ 11.39611, 2.30068 ], [ 11.42013, 2.29089 ], [ 11.43995, 2.29805 ], [ 11.45177, 2.28948 ], [ 11.4598, 2.29472 ], [ 11.45642, 2.30135 ], [ 11.47563, 2.30042 ], [ 11.48568, 2.29247 ], [ 11.52334, 2.30123 ], [ 11.54867, 2.29441 ], [ 11.56022, 2.30401 ], [ 11.58267, 2.30705 ], [ 11.61252, 2.29341 ], [ 11.6308, 2.30326 ], [ 11.6491, 2.30275 ], [ 11.65905, 2.3139 ] ] ] } },
{ "type": "Feature", "properties": { "GID_1": "CMR.9_1", "NAME_1": "Sud-Ouest", "t2m_moyen_c": 23.87, "t2m_min_c": 21.19, "t2m_max_c": 27.65, "amplitude_c": 6.46 }, "geometry": { "type": "Polygon", "coordinates": [ [ [ 9.30344, 4.00399 ], [ 9.32223, 3.99842 ], [ 9.3005, 3.98328 ], [ 9.29595, 3.95507 ], [ 9.33579, 3.91542 ], [ 9.35661, 3.90777 ], [ 9.38118, 3.92058 ], [ 9.40542, 3.97113 ], [ 9.404, 3.99181 ], [ 9.43452, 4.02387 ], [ 9.45178, 4.02386 ], [ 9.45704, 4.05957 ], [ 9.47869, 4.06214 ], [ 9.49899, 4.0514 ], [ 9.50653, 4.06002 ], [ 9.50988, 4.08548 ], [ 9.52954, 4.10557 ], [ 9.55013, 4.10527 ], [ 9.55786, 4.11829 ], [ 9.54786, 4.13323 ], [ 9.54892, 4.14884 ], [ 9.52977, 4.16589 ], [ 9.52999, 4.21041 ], [ 9.5194, 4.21233 ], [ 9.51053, 4.19683 ], [ 9.49966, 4.20373 ], [ 9.46675, 4.18977 ], [ 9.45683, 4.19303 ], [ 9.44883, 4.20807 ], [ 9.42967, 4.21172 ], [ 9.42079, 4.20397 ], [ 9.41375, 4.2235 ], [ 9.41919, 4.23499 ], [ 9.42863, 4.2369 ], [ 9.42474, 4.27175 ], [ 9.43362, 4.29482 ], [ 9.43935, 4.293 ], [ 9.43773, 4.30171 ], [ 9.45872, 4.3174 ], [ 9.45578, 4.34833 ], [ 9.46475, 4.34641 ], [ 9.4659, 4.35541 ], [ 9.47849, 4.36277 ], [ 9.47974, 4.37962 ], [ 9.49816, 4.39129 ], [ 9.50246, 4.41101 ], [ 9.51486, 4.40238 ], [ 9.51048, 4.4179 ], [ 9.49723, 4.42145 ], [ 9.49515, 4.45994 ], [ 9.48753, 4.47019 ], [ 9.49126, 4.48301 ], [ 9.50366, 4.49086 ], [ 9.4928, 4.50388 ], [ 9.5033, 4.51173 ], [ 9.493, 4.52629 ], [ 9.50818, 4.53193 ], [ 9.51122, 4.52359 ], [ 9.50473, 4.52034 ], [ 9.51179, 4.51996 ], [ 9.51095, 4.54236 ], [ 9.52288, 4.54436 ], [ 9.53854, 4.56426 ], [ 9.54133, 4.58934 ], [ 9.54923, 4.58834 ], [ 9.57359, 4.61528 ], [ 9.63041, 4.62712 ], [ 9.64358, 4.63767 ], [ 9.64688, 4.65032 ], [ 9.63219, 4.6642 ], [ 9.69106, 4.72137 ], [ 9.70451, 4.80818 ], [ 9.74904, 4.84176 ], [ 9.74274, 4.8584 ], [ 9.77452, 4.87377 ], [ 9.76277, 4.87766 ], [ 9.76383, 4.88708 ], [ 9.77955, 4.897 ], [ 9.78607, 4.91645 ], [ 9.75632, 4.91992 ], [ 9.75442, 4.94105 ], [ 9.7669, 4.95626 ], [ 9.77573, 5.00555 ], [ 9.81113, 5.0254 ], [ 9.82841, 5.01446 ], [ 9.85606, 5.01838 ], [ 9.86617, 5.02946 ], [ 9.85444, 5.0514 ], [ 9.83119, 5.06032 ], [ 9.81594, 5.0797 ], [ 9.80135, 5.14028 ], [ 9.77555, 5.14604 ], [ 9.76641, 5.20969 ], [ 9.73642, 5.24546 ], [ 9.73961, 5.2731 ], [ 9.76858, 5.26329 ], [ 9.78397, 5.2844 ], [ 9.82956, 5.29077 ], [ 9.82408, 5.33003 ], [ 9.8498, 5.3325 ], [ 9.87498, 5.34937 ], [ 9.89336, 5.35113 ], [ 9.92214, 5.37792 ], [ 9.92332, 5.40823 ], [ 9.94637, 5.44702 ], [ 9.95228, 5.48894 ], [ 9.9587, 5.4928 ], [ 9.95064, 5.52597 ], [ 9.96651, 5.54682 ], [ 9.9653, 5.5556 ], [ 9.94873, 5.56876 ], [ 9.96225, 5.58961 ], [ 9.97873, 5.58004 ], [ 9.99805, 5.58039 ], [ 10.02463, 5.62955 ], [ 10.07904, 5.63399 ], [ 10.10105, 5.66039 ], [ 10.09789, 5.68297 ], [ 10.07936, 5.70812 ], [ 10.06124, 5.71942 ], [ 9.99738, 5.71922 ], [ 9.97841, 5.7413 ], [ 9.95557, 5.75219 ], [ 9.92208, 5.72937 ], [ 9.889, 5.71879 ], [ 9.88368, 5.74063 ], [ 9.85528, 5.73416 ], [ 9.8533, 5.75254 ], [ 9.81412, 5.75509 ], [ 9.81185, 5.77472 ], [ 9.78394, 5.7715 ], [ 9.76846, 5.77679 ], [ 9.75472, 5.79452 ], [ 9.75427, 5.81673 ], [ 9.72793, 5.84778 ], [ 9.69066, 5.85587 ], [ 9.67992, 5.8353 ], [ 9.64994, 5.86042 ], [ 9.63371, 5.88753 ], [ 9.61726, 5.87922 ], [ 9.61086, 5.8865 ], [ 9.59097, 5.88221 ], [ 9.5932, 5.91036 ], [ 9.60593, 5.91753 ], [ 9.60394, 5.93591 ], [ 9.61962, 5.93532 ], [ 9.63887, 5.96756 ], [ 9.63927, 5.9824 ], [ 9.61204, 6.0074 ], [ 9.61146, 6.02141 ], [ 9.62974, 6.04393 ], [ 9.67388, 6.06224 ], [ 9.70224, 6.09062 ], [ 9.7104, 6.08385 ], [ 9.7264, 6.0847 ], [ 9.73677, 6.11619 ], [ 9.76544, 6.12546 ], [ 9.76303, 6.13412 ], [ 9.77246, 6.14673 ], [ 9.767, 6.1585 ], [ 9.78915, 6.16686 ], [ 9.79055, 6.18373 ], [ 9.77177, 6.19858 ], [ 9.80582, 6.20967 ], [ 9.81683, 6.22122 ], [ 9.8086, 6.25272 ], [ 9.78861, 6.2727 ], [ 9.78848, 6.28736 ], [ 9.77264, 6.30657 ], [ 9.75932, 6.36249 ], [ 9.76407, 6.39041 ], [ 9.75024, 6.40888 ], [ 9.7514, 6.41866 ], [ 9.7365, 6.43114 ], [ 9.74362, 6.48423 ], [ 9.7072, 6.50015 ], [ 9.70635, 6.51555 ], [ 9.66898, 6.51075 ], [ 9.65168, 6.52921 ], [ 9.63399, 6.52016 ], [ 9.59484, 6.52895 ], [ 9.58277, 6.49285 ], [ 9.58798, 6.47517 ], [ 9.52801, 6.44335 ], [ 9.46449, 6.45439 ], [ 9.43128, 6.31725 ], [ 9.35243, 6.35298 ], [ 9.34344, 6.35109 ], [ 9.33372, 6.29326 ], [ 9.32041, 6.28769 ], [ 9.32174, 6.27495 ], [ 9.30824, 6.26276 ], [ 9.26569, 6.18417 ], [ 9.2117, 6.16731 ], [ 9.1675, 6.13072 ], [ 9.15261, 6.09058 ], [ 9.13309, 6.07207 ], [ 8.94506, 5.91119 ], [ 8.91226, 5.90246 ], [ 8.90287, 5.86313 ], [ 8.88298, 5.86048 ], [ 8.85881, 5.84506 ], [ 8.856, 5.83071 ], [ 8.84, 5.82634 ], [ 8.84706, 5.7923 ], [ 8.86029, 5.80014 ], [ 8.86938, 5.79582 ], [ 8.87236, 5.80179 ], [ 8.88295, 5.79284 ], [ 8.88342, 5.77746 ], [ 8.86842, 5.75864 ], [ 8.875, 5.74698 ], [ 8.85416, 5.71949 ], [ 8.85413, 5.70868 ], [ 8.84221, 5.69941 ], [ 8.83218, 5.70585 ], [ 8.83665, 5.67955 ], [ 8.8986, 5.6242 ], [ 8.92068, 5.57221 ], [ 8.89179, 5.51749 ], [ 8.86673, 5.48942 ], [ 8.86527, 5.47349 ], [ 8.84388, 5.45905 ], [ 8.83105, 5.42998 ], [ 8.84023, 5.38776 ], [ 8.83419, 5.32847 ], [ 8.81516, 5.28385 ], [ 8.81275, 5.22023 ], [ 8.81873, 5.18562 ], [ 8.78162, 5.11331 ], [ 8.74836, 5.10124 ], [ 8.72527, 5.07483 ], [ 8.7156, 5.03194 ], [ 8.6808, 4.99851 ], [ 8.69408, 4.98816 ], [ 8.66623, 4.9649 ], [ 8.6632, 4.94774 ], [ 8.6509, 4.94273 ], [ 8.65194, 4.91496 ], [ 8.62203, 4.90496 ], [ 8.60807, 4.88514 ], [ 8.603, 4.86832 ], [ 8.62552, 4.84386 ], [ 8.62866, 4.82033 ], [ 8.59695, 4.8012 ], [ 8.54613, 4.80081 ], [ 8.5401, 4.7949 ], [ 8.52488, 4.74585 ], [ 8.5402, 4.70232 ], [ 8.50032, 4.6698 ], [ 8.51605, 4.66332 ], [ 8.51664, 4.65551 ], [ 8.50125, 4.62382 ], [ 8.50024, 4.60378 ], [ 8.52868, 4.56578 ], [ 8.51703, 4.55622 ], [ 8.49964, 4.5565 ], [ 8.50512, 4.50858 ], [ 8.51454, 4.49938 ], [ 8.54045, 4.49416 ], [ 8.56872, 4.52067 ], [ 8.57654, 4.51109 ], [ 8.55777, 4.48444 ], [ 8.64772, 4.48329 ], [ 8.68529, 4.47465 ], [ 8.70606, 4.48665 ], [ 8.71993, 4.51043 ], [ 8.78126, 4.53009 ], [ 8.80114, 4.54554 ], [ 8.8389, 4.55038 ], [ 8.84126, 4.53498 ], [ 8.86162, 4.52316 ], [ 8.87545, 4.52533 ], [ 8.90517, 4.5001 ], [ 8.90831, 4.49209 ], [ 8.89251, 4.47572 ], [ 8.89843, 4.45454 ], [ 8.8841, 4.43829 ], [ 8.89197, 4.37404 ], [ 8.91978, 4.34228 ], [ 8.92374, 4.32174 ], [ 8.91585, 4.28869 ], [ 8.93076, 4.27477 ], [ 8.93341, 4.25641 ], [ 8.96696, 4.24111 ], [ 8.99772, 4.19445 ], [ 8.99897, 4.17999 ], [ 8.98672, 4.15047 ], [ 8.98891, 4.11806 ], [ 8.97779, 4.0966 ], [ 9.01275, 4.07573 ], [ 9.01561, 4.06675 ], [ 9.02631, 4.06883 ], [ 9.08449, 4.03759 ], [ 9.11518, 4.01025 ], [ 9.12772, 4.00691 ], [ 9.13662, 4.01512 ], [ 9.1546, 4.00791 ], [ 9.19758, 4.01227 ], [ 9.20786, 4.00724 ], [ 9.2126, 4.00161 ], [ 9.20443, 3.99574 ], [ 9.21182, 3.97798 ], [ 9.20544, 3.9606 ], [ 9.2138, 3.95123 ], [ 9.21569, 3.96643 ], [ 9.23052, 3.96329 ], [ 9.23986, 3.94248 ], [ 9.25222, 3.94727 ], [ 9.25668, 3.96247 ], [ 9.26975, 3.96263 ], [ 9.26725, 3.97605 ], [ 9.28177, 3.97175 ], [ 9.29007, 3.9938 ], [ 9.30344, 4.00399 ] ] ] } }
]
}
