{
"type": "FeatureCollection",
"name": "cmr_regions_J05",
"crs": { "type": "name", "properties": { "name": "urn:ogc:def:crs:OGC:1.3:CRS84" } },
"features": [
{ "type": "Feature", "properties": { "NAME_1": "Adamaoua", "GID_1": "CMR.1_1", "cle_adm": "adamaoua", "n_individus": 801, "n_menages": 145, "tx_pauvrete_pond": 51.805032720717996, "tx_pauvrete_brut": 51.186017478152316, "taille_moy_menage": 7.2421362723216642, "tx_pauvrete_menage": 39.808540552247862, "tx_ins_publie": 45.1, "ecart_ins": 6.7, "avertissement": "extrait de formation - NON representatif a l'interieur des regions - ne pas citer", "n_grappes": 34, "tx_eau_amelioree": 63.169125279463742 }, "geometry": { "type": "Polygon", "coordinates": [ [ [ 13.283843994000108, 7.700258256000097 ], [ 13.283922195000116, 7.755345823000027 ], [ 13.306158067000126, 7.786244870000189 ], [ 13.294424057000015, 7.818347455000094 ], [ 13.340869903000169, 7.856726646000084 ], [ 13.325821876000077, 7.901179791000118 ], [ 13.355925559000127, 7.932083607000038 ], [ 13.327539444000081, 7.973622323000086 ], [ 13.412723540000172, 7.960598946000175 ], [ 13.421360015000062, 7.917646885000181 ], [ 13.440798759000074, 7.909039975000155 ], [ 13.506916999000111, 7.923505783000167 ], [ 13.572970389999966, 7.906274320000023 ], [ 13.588792801000068, 7.926142216000073 ], [ 13.664937974000054, 7.930447578000155 ], [ 13.699512482000102, 7.957634927000129 ], [ 13.744261741000116, 7.912088870000105 ], [ 13.734191894000105, 7.859915258000115 ], [ 13.786900521000064, 7.758087159000183 ], [ 13.883561134000161, 7.704518318000169 ], [ 13.873081206999984, 7.674587726000084 ], [ 13.891754150000054, 7.651766777000091 ], [ 13.874241829000141, 7.616858959000126 ], [ 13.914268495000101, 7.58864641200006 ], [ 13.980391503000135, 7.577781677000189 ], [ 14.006171226000049, 7.550397396000051 ], [ 14.125641821999977, 7.567032338000104 ], [ 14.144822121000061, 7.483747959000084 ], [ 14.182641983000053, 7.458225250000169 ], [ 14.213675499999965, 7.457001687000059 ], [ 14.215976715000068, 7.401195050000183 ], [ 14.241939544000161, 7.391641140000161 ], [ 14.245873451000136, 7.35269403500007 ], [ 14.304883004000033, 7.30375766700007 ], [ 14.340897561000133, 7.305333615000052 ], [ 14.332842826000103, 7.278259754000032 ], [ 14.35386180900008, 7.271528721000095 ], [ 14.361959458000115, 7.213664532000109 ], [ 14.321863174000043, 7.16427517000011 ], [ 14.404411315000118, 7.147200585000178 ], [ 14.431832312999973, 7.165940761000172 ], [ 14.443304062000152, 7.151602745000105 ], [ 14.520238875000132, 7.161454201000026 ], [ 14.520875930000159, 7.135142803000122 ], [ 14.569347381000114, 7.080145359000142 ], [ 14.563532829000053, 7.056676864000167 ], [ 14.587787628000058, 7.07468271200014 ], [ 14.646139145000063, 7.064829350000025 ], [ 14.651938439000105, 7.016164780000167 ], [ 14.725648880000051, 7.023557187000108 ], [ 14.834172248000016, 7.085653306000097 ], [ 14.871190071, 7.079852104999986 ], [ 14.893250464000175, 7.105097295000178 ], [ 14.995312692000027, 7.138255596000022 ], [ 15.054787636000185, 7.187749863000079 ], [ 15.102548599000158, 7.159123422 ], [ 15.103199005000135, 7.143596172000116 ], [ 15.21302413899997, 7.224803447000113 ], [ 15.232511519000127, 7.217891693000183 ], [ 15.208509445000175, 7.176489353000079 ], [ 15.223482131000026, 7.126717091000046 ], [ 15.194022178000068, 7.072960854000144 ], [ 15.16866493200007, 7.073523045000172 ], [ 15.144467354000085, 7.027078152 ], [ 15.138984679000032, 6.943491935000054 ], [ 15.060701371000164, 6.77840232900013 ], [ 15.045140267000136, 6.76192998900018 ], [ 15.016115189000061, 6.7693734180001 ], [ 14.961637496000151, 6.749874115000125 ], [ 14.801402093000149, 6.401122093000083 ], [ 14.812823295000101, 6.364129066000032 ], [ 14.739759444000185, 6.250890255000115 ], [ 14.563021660000118, 6.19110822600004 ], [ 14.470106126000189, 6.094119549000141 ], [ 14.423191070000087, 6.079328538000141 ], [ 14.417740822000155, 6.041794300000163 ], [ 14.386478425000121, 6.059511185000133 ], [ 14.382454871000107, 6.036062241000081 ], [ 14.404576303000113, 6.014406204000124 ], [ 14.380188942000132, 6.0141348840001 ], [ 14.379947661000131, 5.999982358000068 ], [ 12.531721115000039, 6.000868322000031 ], [ 12.502731324000081, 6.001859666000144 ], [ 12.496072769000079, 6.037069321000104 ], [ 12.476875305000135, 6.043996810000124 ], [ 12.458616257000131, 6.087411404000136 ], [ 12.295088769000131, 6.198024273000044 ], [ 12.204489708000096, 6.185057163000067 ], [ 12.184430123000084, 6.153446674000179 ], [ 12.093912124000155, 6.154244424000126 ], [ 11.993112564000171, 6.212900162000153 ], [ 12.003513336000083, 6.255451204000053 ], [ 11.992591859000129, 6.261259556000141 ], [ 11.944993019000151, 6.249152184000081 ], [ 11.938466073000143, 6.219306945000085 ], [ 11.814119339000115, 6.194697380000036 ], [ 11.706493378000062, 6.139638424000054 ], [ 11.705076218000045, 6.121341705000077 ], [ 11.661623, 6.088222027000143 ], [ 11.664733886000079, 6.074146271000075 ], [ 11.603406907000078, 6.070112229000074 ], [ 11.593612671000074, 6.054241180000076 ], [ 11.456246376000081, 6.017204762000063 ], [ 11.31126880700009, 5.996432781000124 ], [ 11.304044724, 5.980364801000064 ], [ 11.264048577000153, 5.972384452000142 ], [ 11.266064644000096, 5.996749879000049 ], [ 11.30796146299997, 6.039747716000079 ], [ 11.262527466000165, 6.136853219000102 ], [ 11.28091812100007, 6.158210755000084 ], [ 11.262686729000109, 6.17459154200003 ], [ 11.271872521000034, 6.20635414100019 ], [ 11.295729637000079, 6.211987019000162 ], [ 11.303706168000076, 6.242344380000077 ], [ 11.182425500000079, 6.268223284999976 ], [ 11.209311485, 6.346811772000024 ], [ 11.197710037000036, 6.36266231500008 ], [ 11.207354546000033, 6.430050372999972 ], [ 11.192886353000063, 6.458091259000184 ], [ 11.205587387999969, 6.486718656000164 ], [ 11.19173526700007, 6.538615228000083 ], [ 11.242860795000183, 6.523063659000059 ], [ 11.280172348000121, 6.538589954000145 ], [ 11.350896835000128, 6.500007153000183 ], [ 11.356500625000137, 6.52567625100005 ], [ 11.425989151000124, 6.531850816000144 ], [ 11.418871879999983, 6.597208976000104 ], [ 11.463951110000039, 6.611292838000168 ], [ 11.496593475000054, 6.600743294000154 ], [ 11.556046485000138, 6.66769170800012 ], [ 11.551466941000115, 6.715818881000189 ], [ 11.585802077000096, 6.740593434000061 ], [ 11.571569442999987, 6.785134792000179 ], [ 11.597304344000122, 6.801832198999989 ], [ 11.553371430000027, 6.859166623000135 ], [ 11.583251000000132, 6.908844949000013 ], [ 11.606627465000088, 6.911232471000062 ], [ 11.619240761000128, 6.976115226000047 ], [ 11.717101097000125, 7.031593323000152 ], [ 11.709923744000037, 7.05534887400006 ], [ 11.777203561000135, 7.048419477000039 ], [ 11.806859971000051, 7.081400872000188 ], [ 11.871127129, 7.07943630300008 ], [ 11.873270035000019, 7.108400345000064 ], [ 11.835765838000157, 7.176637649999975 ], [ 11.854255677000083, 7.226770402000056 ], [ 11.811295509000047, 7.233618737000086 ], [ 11.880680085000108, 7.307284354999979 ], [ 11.892290116000027, 7.348518372000115 ], [ 11.935762406000151, 7.379846097000041 ], [ 11.974037170000145, 7.487347126999964 ], [ 12.034343720000152, 7.521106719000102 ], [ 12.020506859000022, 7.539728164000167 ], [ 12.007757187000095, 7.661879540000029 ], [ 12.026992798000151, 7.665258884000082 ], [ 12.031875610000043, 7.730210782000029 ], [ 12.088475227000174, 7.836421967000092 ], [ 12.153691293000122, 7.895299911000166 ], [ 12.221256256, 8.002602577 ], [ 12.209528922000118, 8.097104072000036 ], [ 12.243575097000075, 8.166950225 ], [ 12.291425705000108, 8.187595368000132 ], [ 12.276069640000117, 8.151495934000025 ], [ 12.287655830000062, 8.113743782000142 ], [ 12.399109841000097, 8.023183823000124 ], [ 12.486094474000083, 7.924410343000034 ], [ 12.626756668000155, 7.93152141600018 ], [ 12.652927399000077, 7.867086411000059 ], [ 12.631294250999986, 7.825424672000111 ], [ 12.63526248900007, 7.752393247000157 ], [ 12.704331398000022, 7.719982623000078 ], [ 12.731250762000172, 7.73149919500014 ], [ 12.740128518000176, 7.695499898000037 ], [ 12.79982853000007, 7.667461872000104 ], [ 12.976998330000185, 7.648783207000122 ], [ 13.08084964699998, 7.602924348000158 ], [ 13.224490165000134, 7.601929664000068 ], [ 13.260501862000012, 7.624491691000173 ], [ 13.257615089000183, 7.690208434999988 ], [ 13.283843994000108, 7.700258256000097 ] ] ] } },
{ "type": "Feature", "properties": { "NAME_1": "Centre", "GID_1": "CMR.2_1", "cle_adm": "centre", "n_individus": 524, "n_menages": 114, "tx_pauvrete_pond": 57.959306169636641, "tx_pauvrete_brut": 57.251908396946561, "taille_moy_menage": 6.7138279394542009, "tx_pauvrete_menage": 20.500022324432425, "tx_ins_publie": null, "ecart_ins": null, "avertissement": "extrait de formation - NON representatif a l'interieur des regions - ne pas citer", "n_grappes": 82, "tx_eau_amelioree": 85.46289793044447 }, "geometry": { "type": "Polygon", "coordinates": [ [ [ 11.780414581000059, 3.330765963000147 ], [ 11.774552345000131, 3.309933901000136 ], [ 11.734559059999981, 3.334720373000152 ], [ 11.745657920000099, 3.287539960000061 ], [ 11.709754943000178, 3.277022362000082 ], [ 11.699080468000091, 3.198625326000183 ], [ 11.640817643000162, 3.187682628000175 ], [ 11.564949035000041, 3.137466907000146 ], [ 11.355126380000058, 3.143511533000037 ], [ 11.33145618400016, 3.11333346400005 ], [ 11.270498275000023, 3.135472059000108 ], [ 11.218846322000161, 3.104488612000068 ], [ 11.173545837000177, 3.154141426000024 ], [ 11.171204567000075, 3.216628314000104 ], [ 11.111591339000029, 3.251678466999977 ], [ 11.113203049, 3.293583870000077 ], [ 11.099668502000043, 3.331598997000185 ], [ 11.079690933999984, 3.338913679000029 ], [ 11.082508088000054, 3.365507841000067 ], [ 11.067646027000023, 3.361042499000064 ], [ 11.064379691000113, 3.392242909000174 ], [ 11.031579017000126, 3.415373325000189 ], [ 10.999867438000024, 3.413813352000147 ], [ 10.982114791000129, 3.393372536000129 ], [ 10.954355240000041, 3.415247202000103 ], [ 10.895684241000083, 3.409049273000051 ], [ 10.861648559000059, 3.388253927 ], [ 10.827405929000065, 3.408799172000045 ], [ 10.815310478000185, 3.458585740000046 ], [ 10.762387275000094, 3.473424197000043 ], [ 10.300520897000069, 3.330496073000063 ], [ 10.251194001000101, 3.413266421000117 ], [ 10.25458431200002, 3.456050634000064 ], [ 10.230589868000152, 3.509938479000027 ], [ 10.273191452000049, 3.51760721300019 ], [ 10.323265076000155, 3.564159632000042 ], [ 10.340128898000103, 3.651236772000118 ], [ 10.352454186000102, 3.649304867000012 ], [ 10.37326431300005, 3.691061258000047 ], [ 10.363993644000118, 3.724002600000176 ], [ 10.376821518000099, 3.786815168000032 ], [ 10.406028749000086, 3.809826851000025 ], [ 10.488337516000058, 3.816132069 ], [ 10.508737564000057, 3.787903786000015 ], [ 10.524088859000074, 3.796838045000015 ], [ 10.605650902999969, 3.726815701000135 ], [ 10.619681358000093, 3.780453682000029 ], [ 10.654581071000166, 3.79136180900008 ], [ 10.644118307999975, 3.82349896400018 ], [ 10.666294097000105, 3.836040974000184 ], [ 10.641498565000063, 3.920459985000093 ], [ 10.645000457000094, 3.967772960000161 ], [ 10.691859245000103, 3.989021778000051 ], [ 10.702256202000171, 4.023230553000133 ], [ 10.682770729000026, 4.054582595000056 ], [ 10.692424774000074, 4.068355083000029 ], [ 10.724880218000123, 4.054895878000139 ], [ 10.77939033399997, 4.0874967580001 ], [ 10.834147453000128, 4.095024110000168 ], [ 10.850334168000131, 4.114818573000036 ], [ 10.947714807000125, 4.128578185000094 ], [ 11.076099395000085, 4.191665173999979 ], [ 11.077399254000113, 4.228199483000139 ], [ 11.045157433000043, 4.244189263000067 ], [ 11.013426781000078, 4.302856446000078 ], [ 10.977302551000037, 4.331639768000059 ], [ 10.97259998300018, 4.374131679000186 ], [ 10.942451478000123, 4.388303281000162 ], [ 10.944026947000168, 4.4158806800001 ], [ 10.894118308000145, 4.469463826000151 ], [ 10.920256615000028, 4.606400013000098 ], [ 10.890063285000053, 4.607387067000047 ], [ 10.877053261000071, 4.580945968000151 ], [ 10.83118534100015, 4.611769199999969 ], [ 10.784626007000043, 4.608263493000095 ], [ 10.776428223000153, 4.497443677000035 ], [ 10.737393379000139, 4.492001056999982 ], [ 10.725928307000117, 4.52223062600018 ], [ 10.697035790000029, 4.521695136000119 ], [ 10.693642616000147, 4.48606300400013 ], [ 10.680017470000053, 4.493846894000058 ], [ 10.639415740000118, 4.460715294000181 ], [ 10.599822999000082, 4.474998000000141 ], [ 10.574899674000164, 4.454412461000118 ], [ 10.517215729000156, 4.453728676000139 ], [ 10.507612001000098, 4.466836999000179 ], [ 10.478279114000031, 4.447263241000144 ], [ 10.469722000000104, 4.482722 ], [ 10.394866943000068, 4.476324558000101 ], [ 10.378479019000054, 4.511597790000053 ], [ 10.417196274000105, 4.60828590400007 ], [ 10.466540001000169, 4.645238999000014 ], [ 10.492592812000055, 4.722007753000184 ], [ 10.465141000000131, 4.744117000000131 ], [ 10.416789000000165, 4.705654001000141 ], [ 10.377654, 4.708450999000092 ], [ 10.357099702000085, 4.666301386000043 ], [ 10.337878228000079, 4.691309929000056 ], [ 10.360702515000014, 4.764670372000069 ], [ 10.378411293000113, 4.786283492000052 ], [ 10.417158128000153, 4.788218023000184 ], [ 10.49264431000006, 4.884111881000024 ], [ 10.520885468000131, 4.899352551000163 ], [ 10.598439217000134, 4.882256985000026 ], [ 10.690763474000107, 4.954215526000155 ], [ 10.72117710100008, 4.953734399000041 ], [ 10.765510559000063, 5.015933514000039 ], [ 10.81127357500003, 5.011076927000147 ], [ 10.809800149000182, 4.986517430000106 ], [ 10.823811531000047, 4.971378326000035 ], [ 10.853738785000189, 4.976630211000156 ], [ 10.851064683000061, 4.953484534999973 ], [ 10.86739158600011, 4.941459179000105 ], [ 10.941616058000079, 4.924838067000167 ], [ 10.96212387200012, 4.970578671000055 ], [ 10.931401252000114, 5.001673223000125 ], [ 10.969949721000091, 5.036688806000143 ], [ 10.998030662000133, 5.158500194000169 ], [ 11.080149650000124, 5.188231469000186 ], [ 11.066493988, 5.217475415000081 ], [ 11.082587241999988, 5.257785797000111 ], [ 11.072281837000105, 5.29877472000004 ], [ 11.12750625700005, 5.327272415000095 ], [ 11.194289208000043, 5.413793564000059 ], [ 11.170625687000154, 5.45222568500003 ], [ 11.19518947600011, 5.468138696000096 ], [ 11.215190888, 5.527248861000146 ], [ 11.186551094000038, 5.60404777500014 ], [ 11.213330268000107, 5.647228718000065 ], [ 11.201968193000141, 5.670307159000117 ], [ 11.2789573660001, 5.729687692000141 ], [ 11.292577743999971, 5.768781186000183 ], [ 11.316862107000134, 5.786304475000122 ], [ 11.272746085, 5.809720040000116 ], [ 11.278029442000104, 5.87380504500004 ], [ 11.253228188000094, 5.904110433000028 ], [ 11.2755861280001, 5.915479183000059 ], [ 11.27833175700016, 5.947876931000167 ], [ 11.262046813999973, 5.971892357000172 ], [ 11.304044724, 5.980364801000064 ], [ 11.31126880700009, 5.996432781000124 ], [ 11.456246376000081, 6.017204762000063 ], [ 11.593612671000074, 6.054241180000076 ], [ 11.603406907000078, 6.070112229000074 ], [ 11.664733886000079, 6.074146271000075 ], [ 11.661623, 6.088222027000143 ], [ 11.705076218000045, 6.121341705000077 ], [ 11.706493378000062, 6.139638424000054 ], [ 11.814119339000115, 6.194697380000036 ], [ 11.938466073000143, 6.219306945000085 ], [ 11.944993019000151, 6.249152184000081 ], [ 11.998510361000115, 6.261225700000182 ], [ 11.993112564000171, 6.212900162000153 ], [ 12.093912124000155, 6.154244424000126 ], [ 12.184430123000084, 6.153446674000179 ], [ 12.204489708000096, 6.185057163000067 ], [ 12.295088769000131, 6.198024273000044 ], [ 12.458616257000131, 6.087411404000136 ], [ 12.476875305000135, 6.043996810000124 ], [ 12.496072769000079, 6.037069321000104 ], [ 12.502731324000081, 6.001859666000144 ], [ 12.887908935000155, 6.000365258000159 ], [ 12.87189197500004, 5.901926040000035 ], [ 12.954018593000114, 5.790768624000066 ], [ 12.964232444000118, 5.715984822 ], [ 13.000603675999969, 5.705728532000137 ], [ 13.009089469000173, 5.642241954000099 ], [ 13.055564881000123, 5.588711261000014 ], [ 13.076844216000154, 5.532377721000159 ], [ 12.955447198000115, 5.320875168000043 ], [ 12.935111045000156, 5.312277795 ], [ 12.886670112000047, 5.325783730000069 ], [ 12.809184074000029, 5.279750823000086 ], [ 12.904874803000041, 5.214336395000032 ], [ 13.057286262000162, 5.075347900000168 ], [ 13.058416367000177, 5.035328388000039 ], [ 13.014435769000045, 4.958126066999966 ], [ 13.065726280000035, 4.930037498000047 ], [ 13.187860488000126, 4.916403770000102 ], [ 13.20681953400009, 4.860744954000097 ], [ 13.198141098000065, 4.846754551000117 ], [ 13.240072250000026, 4.818298340000069 ], [ 13.232731819000151, 4.780361652000181 ], [ 13.244125367000095, 4.787631988000101 ], [ 13.246796608000068, 4.773784637000176 ], [ 13.223793984, 4.758180143000118 ], [ 13.23526096400002, 4.708211421000158 ], [ 13.219310760000155, 4.700967312000046 ], [ 13.228878975000043, 4.652073861000133 ], [ 13.209187508000127, 4.603569030000074 ], [ 13.212160110000013, 4.549927234000108 ], [ 13.12922191600012, 4.545726777000141 ], [ 13.058453560000146, 4.594974995000143 ], [ 13.011425971000051, 4.605671406000113 ], [ 12.976869584000156, 4.590008260000161 ], [ 12.979486466000139, 4.564663887000052 ], [ 12.877203941000062, 4.517858506000096 ], [ 12.842839241000149, 4.374660492000146 ], [ 12.783078193000165, 4.342391492000047 ], [ 12.770352364000189, 4.299660682000138 ], [ 12.795480729000133, 4.29879045600012 ], [ 12.804400445000113, 4.258401394000146 ], [ 12.783565521000185, 4.204107284000088 ], [ 12.783752442000093, 4.13235712 ], [ 12.751995087000125, 4.120265961000143 ], [ 12.750422478000132, 4.101324081000143 ], [ 12.802740097000026, 4.067437650000102 ], [ 12.797707558000127, 4.034035683000127 ], [ 12.726468086000011, 4.010413170000049 ], [ 12.654680252000048, 3.934613706000164 ], [ 12.556974411000112, 3.918959618000031 ], [ 12.520323753000071, 3.875669479000123 ], [ 12.494408608000185, 3.890153170000133 ], [ 12.501583100000119, 3.829958439000052 ], [ 12.618118286000026, 3.710115909000024 ], [ 12.60173511500011, 3.615313769000124 ], [ 12.563605309000081, 3.533432484000173 ], [ 12.526140213000133, 3.573781968 ], [ 12.527771950000044, 3.627005817000111 ], [ 12.500776292000182, 3.680725335999966 ], [ 12.457288742000173, 3.677359581000132 ], [ 12.432778358000064, 3.610934019000069 ], [ 12.397054672000138, 3.597401142000081 ], [ 12.254878997000105, 3.476519108000048 ], [ 12.205150604000039, 3.311305761000085 ], [ 12.192651749, 3.329127789000154 ], [ 12.160774230000072, 3.325407029000132 ], [ 12.139739037000027, 3.291439533000016 ], [ 12.133683205000068, 3.361536742000169 ], [ 11.993970871000045, 3.406726122000123 ], [ 11.980545996999979, 3.434497356 ], [ 11.949867249000022, 3.452569723000067 ], [ 11.925671578000106, 3.444230080000068 ], [ 11.892360752000172, 3.473784643000045 ], [ 11.850262642000018, 3.365183114999979 ], [ 11.836198808000063, 3.371822834000056 ], [ 11.780414581000059, 3.330765963000147 ] ] ] } },
{ "type": "Feature", "properties": { "NAME_1": "Centre", "GID_1": "CMR.2_1", "cle_adm": "centre", "n_individus": 946, "n_menages": 224, "tx_pauvrete_pond": 8.6858508083770776, "tx_pauvrete_brut": 8.8794926004228341, "taille_moy_menage": 5.5900914000300403, "tx_pauvrete_menage": 20.500022324432425, "tx_ins_publie": null, "ecart_ins": null, "avertissement": "extrait de formation - NON representatif a l'interieur des regions - ne pas citer", "n_grappes": 82, "tx_eau_amelioree": 85.46289793044447 }, "geometry": { "type": "Polygon", "coordinates": [ [ [ 11.780414581000059, 3.330765963000147 ], [ 11.774552345000131, 3.309933901000136 ], [ 11.734559059999981, 3.334720373000152 ], [ 11.745657920000099, 3.287539960000061 ], [ 11.709754943000178, 3.277022362000082 ], [ 11.699080468000091, 3.198625326000183 ], [ 11.640817643000162, 3.187682628000175 ], [ 11.564949035000041, 3.137466907000146 ], [ 11.355126380000058, 3.143511533000037 ], [ 11.33145618400016, 3.11333346400005 ], [ 11.270498275000023, 3.135472059000108 ], [ 11.218846322000161, 3.104488612000068 ], [ 11.173545837000177, 3.154141426000024 ], [ 11.171204567000075, 3.216628314000104 ], [ 11.111591339000029, 3.251678466999977 ], [ 11.113203049, 3.293583870000077 ], [ 11.099668502000043, 3.331598997000185 ], [ 11.079690933999984, 3.338913679000029 ], [ 11.082508088000054, 3.365507841000067 ], [ 11.067646027000023, 3.361042499000064 ], [ 11.064379691000113, 3.392242909000174 ], [ 11.031579017000126, 3.415373325000189 ], [ 10.999867438000024, 3.413813352000147 ], [ 10.982114791000129, 3.393372536000129 ], [ 10.954355240000041, 3.415247202000103 ], [ 10.895684241000083, 3.409049273000051 ], [ 10.861648559000059, 3.388253927 ], [ 10.827405929000065, 3.408799172000045 ], [ 10.815310478000185, 3.458585740000046 ], [ 10.762387275000094, 3.473424197000043 ], [ 10.300520897000069, 3.330496073000063 ], [ 10.251194001000101, 3.413266421000117 ], [ 10.25458431200002, 3.456050634000064 ], [ 10.230589868000152, 3.509938479000027 ], [ 10.273191452000049, 3.51760721300019 ], [ 10.323265076000155, 3.564159632000042 ], [ 10.340128898000103, 3.651236772000118 ], [ 10.352454186000102, 3.649304867000012 ], [ 10.37326431300005, 3.691061258000047 ], [ 10.363993644000118, 3.724002600000176 ], [ 10.376821518000099, 3.786815168000032 ], [ 10.406028749000086, 3.809826851000025 ], [ 10.488337516000058, 3.816132069 ], [ 10.508737564000057, 3.787903786000015 ], [ 10.524088859000074, 3.796838045000015 ], [ 10.605650902999969, 3.726815701000135 ], [ 10.619681358000093, 3.780453682000029 ], [ 10.654581071000166, 3.79136180900008 ], [ 10.644118307999975, 3.82349896400018 ], [ 10.666294097000105, 3.836040974000184 ], [ 10.641498565000063, 3.920459985000093 ], [ 10.645000457000094, 3.967772960000161 ], [ 10.691859245000103, 3.989021778000051 ], [ 10.702256202000171, 4.023230553000133 ], [ 10.682770729000026, 4.054582595000056 ], [ 10.692424774000074, 4.068355083000029 ], [ 10.724880218000123, 4.054895878000139 ], [ 10.77939033399997, 4.0874967580001 ], [ 10.834147453000128, 4.095024110000168 ], [ 10.850334168000131, 4.114818573000036 ], [ 10.947714807000125, 4.128578185000094 ], [ 11.076099395000085, 4.191665173999979 ], [ 11.077399254000113, 4.228199483000139 ], [ 11.045157433000043, 4.244189263000067 ], [ 11.013426781000078, 4.302856446000078 ], [ 10.977302551000037, 4.331639768000059 ], [ 10.97259998300018, 4.374131679000186 ], [ 10.942451478000123, 4.388303281000162 ], [ 10.944026947000168, 4.4158806800001 ], [ 10.894118308000145, 4.469463826000151 ], [ 10.920256615000028, 4.606400013000098 ], [ 10.890063285000053, 4.607387067000047 ], [ 10.877053261000071, 4.580945968000151 ], [ 10.83118534100015, 4.611769199999969 ], [ 10.784626007000043, 4.608263493000095 ], [ 10.776428223000153, 4.497443677000035 ], [ 10.737393379000139, 4.492001056999982 ], [ 10.725928307000117, 4.52223062600018 ], [ 10.697035790000029, 4.521695136000119 ], [ 10.693642616000147, 4.48606300400013 ], [ 10.680017470000053, 4.493846894000058 ], [ 10.639415740000118, 4.460715294000181 ], [ 10.599822999000082, 4.474998000000141 ], [ 10.574899674000164, 4.454412461000118 ], [ 10.517215729000156, 4.453728676000139 ], [ 10.507612001000098, 4.466836999000179 ], [ 10.478279114000031, 4.447263241000144 ], [ 10.469722000000104, 4.482722 ], [ 10.394866943000068, 4.476324558000101 ], [ 10.378479019000054, 4.511597790000053 ], [ 10.417196274000105, 4.60828590400007 ], [ 10.466540001000169, 4.645238999000014 ], [ 10.492592812000055, 4.722007753000184 ], [ 10.465141000000131, 4.744117000000131 ], [ 10.416789000000165, 4.705654001000141 ], [ 10.377654, 4.708450999000092 ], [ 10.357099702000085, 4.666301386000043 ], [ 10.337878228000079, 4.691309929000056 ], [ 10.360702515000014, 4.764670372000069 ], [ 10.378411293000113, 4.786283492000052 ], [ 10.417158128000153, 4.788218023000184 ], [ 10.49264431000006, 4.884111881000024 ], [ 10.520885468000131, 4.899352551000163 ], [ 10.598439217000134, 4.882256985000026 ], [ 10.690763474000107, 4.954215526000155 ], [ 10.72117710100008, 4.953734399000041 ], [ 10.765510559000063, 5.015933514000039 ], [ 10.81127357500003, 5.011076927000147 ], [ 10.809800149000182, 4.986517430000106 ], [ 10.823811531000047, 4.971378326000035 ], [ 10.853738785000189, 4.976630211000156 ], [ 10.851064683000061, 4.953484534999973 ], [ 10.86739158600011, 4.941459179000105 ], [ 10.941616058000079, 4.924838067000167 ], [ 10.96212387200012, 4.970578671000055 ], [ 10.931401252000114, 5.001673223000125 ], [ 10.969949721000091, 5.036688806000143 ], [ 10.998030662000133, 5.158500194000169 ], [ 11.080149650000124, 5.188231469000186 ], [ 11.066493988, 5.217475415000081 ], [ 11.082587241999988, 5.257785797000111 ], [ 11.072281837000105, 5.29877472000004 ], [ 11.12750625700005, 5.327272415000095 ], [ 11.194289208000043, 5.413793564000059 ], [ 11.170625687000154, 5.45222568500003 ], [ 11.19518947600011, 5.468138696000096 ], [ 11.215190888, 5.527248861000146 ], [ 11.186551094000038, 5.60404777500014 ], [ 11.213330268000107, 5.647228718000065 ], [ 11.201968193000141, 5.670307159000117 ], [ 11.2789573660001, 5.729687692000141 ], [ 11.292577743999971, 5.768781186000183 ], [ 11.316862107000134, 5.786304475000122 ], [ 11.272746085, 5.809720040000116 ], [ 11.278029442000104, 5.87380504500004 ], [ 11.253228188000094, 5.904110433000028 ], [ 11.2755861280001, 5.915479183000059 ], [ 11.27833175700016, 5.947876931000167 ], [ 11.262046813999973, 5.971892357000172 ], [ 11.304044724, 5.980364801000064 ], [ 11.31126880700009, 5.996432781000124 ], [ 11.456246376000081, 6.017204762000063 ], [ 11.593612671000074, 6.054241180000076 ], [ 11.603406907000078, 6.070112229000074 ], [ 11.664733886000079, 6.074146271000075 ], [ 11.661623, 6.088222027000143 ], [ 11.705076218000045, 6.121341705000077 ], [ 11.706493378000062, 6.139638424000054 ], [ 11.814119339000115, 6.194697380000036 ], [ 11.938466073000143, 6.219306945000085 ], [ 11.944993019000151, 6.249152184000081 ], [ 11.998510361000115, 6.261225700000182 ], [ 11.993112564000171, 6.212900162000153 ], [ 12.093912124000155, 6.154244424000126 ], [ 12.184430123000084, 6.153446674000179 ], [ 12.204489708000096, 6.185057163000067 ], [ 12.295088769000131, 6.198024273000044 ], [ 12.458616257000131, 6.087411404000136 ], [ 12.476875305000135, 6.043996810000124 ], [ 12.496072769000079, 6.037069321000104 ], [ 12.502731324000081, 6.001859666000144 ], [ 12.887908935000155, 6.000365258000159 ], [ 12.87189197500004, 5.901926040000035 ], [ 12.954018593000114, 5.790768624000066 ], [ 12.964232444000118, 5.715984822 ], [ 13.000603675999969, 5.705728532000137 ], [ 13.009089469000173, 5.642241954000099 ], [ 13.055564881000123, 5.588711261000014 ], [ 13.076844216000154, 5.532377721000159 ], [ 12.955447198000115, 5.320875168000043 ], [ 12.935111045000156, 5.312277795 ], [ 12.886670112000047, 5.325783730000069 ], [ 12.809184074000029, 5.279750823000086 ], [ 12.904874803000041, 5.214336395000032 ], [ 13.057286262000162, 5.075347900000168 ], [ 13.058416367000177, 5.035328388000039 ], [ 13.014435769000045, 4.958126066999966 ], [ 13.065726280000035, 4.930037498000047 ], [ 13.187860488000126, 4.916403770000102 ], [ 13.20681953400009, 4.860744954000097 ], [ 13.198141098000065, 4.846754551000117 ], [ 13.240072250000026, 4.818298340000069 ], [ 13.232731819000151, 4.780361652000181 ], [ 13.244125367000095, 4.787631988000101 ], [ 13.246796608000068, 4.773784637000176 ], [ 13.223793984, 4.758180143000118 ], [ 13.23526096400002, 4.708211421000158 ], [ 13.219310760000155, 4.700967312000046 ], [ 13.228878975000043, 4.652073861000133 ], [ 13.209187508000127, 4.603569030000074 ], [ 13.212160110000013, 4.549927234000108 ], [ 13.12922191600012, 4.545726777000141 ], [ 13.058453560000146, 4.594974995000143 ], [ 13.011425971000051, 4.605671406000113 ], [ 12.976869584000156, 4.590008260000161 ], [ 12.979486466000139, 4.564663887000052 ], [ 12.877203941000062, 4.517858506000096 ], [ 12.842839241000149, 4.374660492000146 ], [ 12.783078193000165, 4.342391492000047 ], [ 12.770352364000189, 4.299660682000138 ], [ 12.795480729000133, 4.29879045600012 ], [ 12.804400445000113, 4.258401394000146 ], [ 12.783565521000185, 4.204107284000088 ], [ 12.783752442000093, 4.13235712 ], [ 12.751995087000125, 4.120265961000143 ], [ 12.750422478000132, 4.101324081000143 ], [ 12.802740097000026, 4.067437650000102 ], [ 12.797707558000127, 4.034035683000127 ], [ 12.726468086000011, 4.010413170000049 ], [ 12.654680252000048, 3.934613706000164 ], [ 12.556974411000112, 3.918959618000031 ], [ 12.520323753000071, 3.875669479000123 ], [ 12.494408608000185, 3.890153170000133 ], [ 12.501583100000119, 3.829958439000052 ], [ 12.618118286000026, 3.710115909000024 ], [ 12.60173511500011, 3.615313769000124 ], [ 12.563605309000081, 3.533432484000173 ], [ 12.526140213000133, 3.573781968 ], [ 12.527771950000044, 3.627005817000111 ], [ 12.500776292000182, 3.680725335999966 ], [ 12.457288742000173, 3.677359581000132 ], [ 12.432778358000064, 3.610934019000069 ], [ 12.397054672000138, 3.597401142000081 ], [ 12.254878997000105, 3.476519108000048 ], [ 12.205150604000039, 3.311305761000085 ], [ 12.192651749, 3.329127789000154 ], [ 12.160774230000072, 3.325407029000132 ], [ 12.139739037000027, 3.291439533000016 ], [ 12.133683205000068, 3.361536742000169 ], [ 11.993970871000045, 3.406726122000123 ], [ 11.980545996999979, 3.434497356 ], [ 11.949867249000022, 3.452569723000067 ], [ 11.925671578000106, 3.444230080000068 ], [ 11.892360752000172, 3.473784643000045 ], [ 11.850262642000018, 3.365183114999979 ], [ 11.836198808000063, 3.371822834000056 ], [ 11.780414581000059, 3.330765963000147 ] ] ] } },
{ "type": "Feature", "properties": { "NAME_1": "Est", "GID_1": "CMR.3_1", "cle_adm": "est", "n_individus": 709, "n_menages": 159, "tx_pauvrete_pond": 7.4968952279143943, "tx_pauvrete_brut": 7.4753173483779971, "taille_moy_menage": 6.8762537921440448, "tx_pauvrete_menage": 5.034848068998568, "tx_ins_publie": 41.5, "ecart_ins": -34.0, "avertissement": "extrait de formation - NON representatif a l'interieur des regions - ne pas citer", "n_grappes": 34, "tx_eau_amelioree": 69.498269296213806 }, "geometry": { "type": "Polygon", "coordinates": [ [ [ 14.595404625000128, 2.203477859000145 ], [ 14.580183982000108, 2.17484545700006 ], [ 14.497766495000064, 2.162851810000063 ], [ 14.464461326000105, 2.146659374000023 ], [ 14.458949088, 2.125210524000067 ], [ 14.412199020000116, 2.181299687000092 ], [ 14.362896920000026, 2.187694312000133 ], [ 14.303901673000098, 2.16258335200007 ], [ 13.680087040000046, 2.171692134000182 ], [ 13.630461727000181, 2.904450764000046 ], [ 13.58298791600015, 2.882100856000022 ], [ 13.558086395000089, 2.843915702000174 ], [ 13.532633, 2.853482000000156 ], [ 13.533777238000027, 2.821571590000076 ], [ 13.504000871000073, 2.834876695000048 ], [ 13.50138569000012, 2.787238598000101 ], [ 13.431725503000052, 2.77165579800004 ], [ 13.3758401770001, 2.820478904000083 ], [ 13.347184182000092, 2.795800446999976 ], [ 13.285474000000136, 2.845606 ], [ 13.272969246000059, 2.840333224000062 ], [ 13.291819572000065, 2.786962748000178 ], [ 13.26746749900019, 2.782264232999978 ], [ 13.260629653000024, 2.822292566000044 ], [ 13.233138085000178, 2.827713252000024 ], [ 13.236698000000104, 2.846532001000185 ], [ 13.210627589000126, 2.864716024000074 ], [ 13.192895889000113, 2.848182917000031 ], [ 13.153944015999969, 2.845877648000169 ], [ 13.134461166, 2.87244358200013 ], [ 13.112442970000018, 2.841451646000053 ], [ 13.083175984000036, 2.85507098700009 ], [ 13.081315041000153, 2.837625504000187 ], [ 13.019682885000066, 2.858489037000083 ], [ 13.002079963000028, 2.849291801000106 ], [ 12.986755372000118, 2.886488913999983 ], [ 12.966885566000087, 2.864527465000037 ], [ 12.939674378000177, 2.862812757000086 ], [ 12.914956093000171, 2.878224850000151 ], [ 12.874295235000091, 2.875277759000085 ], [ 12.85995960300005, 2.893741609000131 ], [ 12.833261490000041, 2.888084651000156 ], [ 12.813237191000098, 2.915403844000025 ], [ 12.796678543000155, 2.903005123000071 ], [ 12.76472663800007, 2.973160983000014 ], [ 12.765206337999984, 3.170316459000105 ], [ 12.542496682000149, 3.392803907000086 ], [ 12.567253112000174, 3.550498247000064 ], [ 12.60173511500011, 3.615313769000124 ], [ 12.618118286000026, 3.710115909000024 ], [ 12.501583100000119, 3.829958439000052 ], [ 12.494408608000185, 3.890153170000133 ], [ 12.520323753000071, 3.875669479000123 ], [ 12.556974411000112, 3.918959618000031 ], [ 12.654680252000048, 3.934613706000164 ], [ 12.726468086000011, 4.010413170000049 ], [ 12.797707558000127, 4.034035683000127 ], [ 12.802740097000026, 4.067437650000102 ], [ 12.750422478000132, 4.101324081000143 ], [ 12.751995087000125, 4.120265961000143 ], [ 12.783752442000093, 4.13235712 ], [ 12.783565521000185, 4.204107284000088 ], [ 12.804400445000113, 4.258401394000146 ], [ 12.795480729000133, 4.29879045600012 ], [ 12.770352364000189, 4.299660682000138 ], [ 12.783078193000165, 4.342391492000047 ], [ 12.842839241000149, 4.374660492000146 ], [ 12.877203941000062, 4.517858506000096 ], [ 12.979486466000139, 4.564663887000052 ], [ 12.976869584000156, 4.590008260000161 ], [ 13.011425971000051, 4.605671406000113 ], [ 13.058453560000146, 4.594974995000143 ], [ 13.12922191600012, 4.545726777000141 ], [ 13.212160110000013, 4.549927234000108 ], [ 13.209187508000127, 4.603569030000074 ], [ 13.228878975000043, 4.652073861000133 ], [ 13.219310760000155, 4.700967312000046 ], [ 13.23526096400002, 4.708211421000158 ], [ 13.223793984, 4.758180143000118 ], [ 13.246796608000068, 4.773784637000176 ], [ 13.244125367000095, 4.787631988000101 ], [ 13.232731819000151, 4.780361652000181 ], [ 13.240072250000026, 4.818298340000069 ], [ 13.198141098000065, 4.846754551000117 ], [ 13.20681953400009, 4.860744954000097 ], [ 13.187860488000126, 4.916403770000102 ], [ 13.065726280000035, 4.930037498000047 ], [ 13.014435769000045, 4.958126066999966 ], [ 13.058416367000177, 5.035328388000039 ], [ 13.057286262000162, 5.075347900000168 ], [ 12.904874803000041, 5.214336395000032 ], [ 12.809184074000029, 5.279750823000086 ], [ 12.886670112000047, 5.325783730000069 ], [ 12.935111045000156, 5.312277795 ], [ 12.955447198000115, 5.320875168000043 ], [ 13.076844216000154, 5.532377721000159 ], [ 13.055564881000123, 5.588711261000014 ], [ 13.009089469000173, 5.642241954000099 ], [ 13.000603675999969, 5.705728532000137 ], [ 12.964232444000118, 5.715984822 ], [ 12.954018593000114, 5.790768624000066 ], [ 12.87189197500004, 5.901926040000035 ], [ 12.887908935000155, 6.000365258000159 ], [ 14.379947661000131, 5.999982358000068 ], [ 14.380188942000132, 6.0141348840001 ], [ 14.404576303000113, 6.014406204000124 ], [ 14.381659509000031, 6.038531781000131 ], [ 14.394089699000176, 6.062409401000082 ], [ 14.513466835000031, 5.894170762000158 ], [ 14.602393150000069, 5.920847417000175 ], [ 14.620351791000132, 5.889361859000076 ], [ 14.628096580000147, 5.713111400000116 ], [ 14.591518403000123, 5.59077978300013 ], [ 14.630498887000044, 5.510987281000098 ], [ 14.599987984000052, 5.458249570000078 ], [ 14.600597381000114, 5.416606426000101 ], [ 14.573058128000127, 5.399967194000055 ], [ 14.549457549000067, 5.30310964500012 ], [ 14.527144431000011, 5.28379488000013 ], [ 14.569226266000157, 5.236789703000113 ], [ 14.649661065000146, 5.216399192000097 ], [ 14.6641950610001, 5.197608471000137 ], [ 14.693488121000144, 5.099825382000176 ], [ 14.674379348000116, 5.085474015000159 ], [ 14.688712120000105, 5.023286820000067 ], [ 14.676098, 4.989436 ], [ 14.695491790000119, 4.959755421000125 ], [ 14.68321, 4.929189000000179 ], [ 14.714641572000062, 4.868751049000025 ], [ 14.706249, 4.842105 ], [ 14.720688820000191, 4.787659169000108 ], [ 14.702059849000079, 4.763392985000166 ], [ 14.718635559, 4.74335813600004 ], [ 14.730443, 4.613343000000157 ], [ 14.889295000000118, 4.470697 ], [ 15.013101578000033, 4.424728870000024 ], [ 15.030862000000127, 4.369905000000131 ], [ 15.039884538000024, 4.375121747000037 ], [ 15.090678999000033, 4.300800001000027 ], [ 15.112291907000042, 4.178416215000027 ], [ 15.105946000000131, 4.135992 ], [ 15.136378, 4.106296 ], [ 15.147318, 4.069097 ], [ 15.169144630000176, 4.074789525000085 ], [ 15.184758848000115, 4.058298912000112 ], [ 15.077032, 4.018120000000181 ], [ 15.24889694899997, 3.710672085000056 ], [ 15.494337083000119, 3.457700253000041 ], [ 15.800041198000031, 3.100826978000157 ], [ 15.853850365000085, 3.11211061400013 ], [ 15.884774209000057, 3.100290298000175 ], [ 15.958218575000103, 3.000910759000135 ], [ 16.006147384000144, 3.004084110000065 ], [ 16.032058715000062, 2.983955861000084 ], [ 16.071649551000064, 2.910472631000118 ], [ 16.093032837000067, 2.829769849000115 ], [ 16.050340652000102, 2.785916091000161 ], [ 16.064639963000047, 2.752463862000184 ], [ 16.058206558000052, 2.712932349000027 ], [ 16.086786, 2.701515 ], [ 16.065141678000089, 2.641021490000071 ], [ 16.083484650000059, 2.583375216000093 ], [ 16.064580917000171, 2.527904749000129 ], [ 16.083141001000172, 2.492105001000141 ], [ 16.072324752000043, 2.462494136000146 ], [ 16.148113, 2.346837001000154 ], [ 16.170307, 2.27773 ], [ 16.161491393000063, 2.248386860999972 ], [ 16.191045761000112, 2.219883441999968 ], [ 16.145715714000175, 2.176563263000105 ], [ 16.133939742000166, 2.196541549000187 ], [ 16.085512160000178, 2.196979999000064 ], [ 16.089435577000131, 2.093040466000048 ], [ 16.063442231000067, 2.06920170900014 ], [ 16.083608628000036, 2.045666694000033 ], [ 16.053077698000038, 2.005948068000123 ], [ 16.051191330000108, 1.972643614000162 ], [ 16.073766708000164, 1.951138259000061 ], [ 16.088115692000088, 1.89101863000019 ], [ 16.110294000000181, 1.891004 ], [ 16.1115322120001, 1.847579717000031 ], [ 16.137805999000022, 1.797371 ], [ 16.14146804700016, 1.684521318000066 ], [ 16.115173340000126, 1.699480295000058 ], [ 16.083934784, 1.687905074000071 ], [ 16.060140633000117, 1.652267129000052 ], [ 16.029644012000063, 1.658582448000061 ], [ 16.014492035000046, 1.717630148000183 ], [ 16.02710533100003, 1.766342640000119 ], [ 15.961438084000122, 1.766042990000187 ], [ 15.914361000000156, 1.782418999000015 ], [ 15.911371122000048, 1.797096980000106 ], [ 15.883460045000049, 1.787259340000048 ], [ 15.86789703300019, 1.831699133000029 ], [ 15.805901999000127, 1.859005 ], [ 15.748046874000181, 1.919481636000114 ], [ 15.531909001000031, 1.955486999000186 ], [ 15.486153662999982, 1.982577771000081 ], [ 15.346182000000113, 1.911769001000152 ], [ 15.335729599000103, 1.941596865 ], [ 15.304887001000054, 1.938117999000156 ], [ 15.309087753000028, 1.966065646000175 ], [ 15.29230499300013, 1.989326001000165 ], [ 15.240081987, 2.011050183000123 ], [ 15.247078895000016, 2.029279948000067 ], [ 15.207175999000185, 2.038937000999965 ], [ 15.177328001000035, 2.014678000000174 ], [ 15.152749062, 2.040618658000142 ], [ 15.14708300000018, 2.011933 ], [ 15.121235847000037, 2.010728597000139 ], [ 15.108510001000127, 1.980836000000124 ], [ 15.0774, 1.982514001000141 ], [ 15.069340706000105, 2.000811815000134 ], [ 15.043292, 1.978359000000182 ], [ 14.983546000000104, 2.03531499900015 ], [ 14.971649999000022, 2.010132999000064 ], [ 14.917976001000056, 2.001514001000146 ], [ 14.891899, 2.021714999000039 ], [ 14.913595, 2.062696999000025 ], [ 14.881902890999982, 2.071504154000138 ], [ 14.874761581000087, 2.110760927000115 ], [ 14.859438999000076, 2.106833995999978 ], [ 14.86239120800002, 2.081173218000117 ], [ 14.84373760200009, 2.085384608000027 ], [ 14.809098000000176, 2.059816000000126 ], [ 14.792917252, 2.074367524000081 ], [ 14.770172999000124, 2.063641001000121 ], [ 14.770928999000148, 2.096769999000117 ], [ 14.741237, 2.089393001000133 ], [ 14.752464, 2.108448001000056 ], [ 14.72448, 2.126443999000116 ], [ 14.726767770000095, 2.105572 ], [ 14.683172999000021, 2.135245 ], [ 14.648054000000116, 2.131503 ], [ 14.64509868600004, 2.155631067000115 ], [ 14.595404625000128, 2.203477859000145 ] ] ] } },
{ "type": "Feature", "properties": { "NAME_1": "Extrême-Nord", "GID_1": "CMR.4_1", "cle_adm": "extremenord", "n_individus": 1587, "n_menages": 279, "tx_pauvrete_pond": 75.520904509954462, "tx_pauvrete_brut": 74.228103339634529, "taille_moy_menage": 7.7958487470427951, "tx_pauvrete_menage": 64.478351209765364, "tx_ins_publie": 69.2, "ecart_ins": 6.3, "avertissement": "extrait de formation - NON representatif a l'interieur des regions - ne pas citer", "n_grappes": 48, "tx_eau_amelioree": 76.692968534339101 }, "geometry": { "type": "Polygon", "coordinates": [ [ [ 15.356204986000023, 10.292746544000124 ], [ 15.512508392000029, 10.093596459000139 ], [ 15.536723137000138, 10.098784447000014 ], [ 15.563985824000156, 10.067851067000163 ], [ 15.68952465000018, 9.996432304000052 ], [ 15.41331958700016, 9.934937477000062 ], [ 15.248415, 9.991463001000056 ], [ 15.152478000000144, 9.997031 ], [ 15.061924933000171, 9.948745729 ], [ 15.036314963, 9.968873977000101 ], [ 14.961483002000136, 9.98492526900003 ], [ 14.802422523000189, 9.93567562100003 ], [ 14.466057776000071, 10.006619453000155 ], [ 14.220541001000072, 10.003659249000179 ], [ 14.207435608000083, 10.009277343000178 ], [ 14.209771157000148, 10.05366325500006 ], [ 14.229847908000124, 10.075656891000108 ], [ 14.221135139000182, 10.090191842000081 ], [ 14.110027313000103, 10.128650666000169 ], [ 14.076165199000172, 10.111342429999979 ], [ 14.051829338, 10.172573090000071 ], [ 14.013521193000031, 10.173916818000066 ], [ 14.011928559000069, 10.201670646000139 ], [ 13.973860740000077, 10.229939461000072 ], [ 13.800955773000169, 10.253051758000083 ], [ 13.739100456000187, 10.245756149000101 ], [ 13.700790406000124, 10.260816575000092 ], [ 13.676233291000131, 10.254969598000116 ], [ 13.647780418000082, 10.181957244999978 ], [ 13.691693305000172, 10.140810014000124 ], [ 13.58867073000016, 10.124335289000044 ], [ 13.558687210000187, 10.084899902000075 ], [ 13.551143646000071, 10.102165223000156 ], [ 13.435178757000131, 10.082725525 ], [ 13.403126715999974, 10.125348092000138 ], [ 13.467485428999964, 10.163991928000087 ], [ 13.469137191000016, 10.194316864000086 ], [ 13.4828481670001, 10.199433326000076 ], [ 13.46564293, 10.246206283000049 ], [ 13.487435341000037, 10.29540062000018 ], [ 13.482142448000047, 10.335396767000191 ], [ 13.498349190000056, 10.339501382000094 ], [ 13.494111061000126, 10.391013145999977 ], [ 13.536246301000119, 10.423672676000081 ], [ 13.527542113000095, 10.479068757000107 ], [ 13.573973656000021, 10.535323143000028 ], [ 13.545849800999974, 10.61833000200005 ], [ 13.570919036000078, 10.634735109000189 ], [ 13.586972236000122, 10.70483970600003 ], [ 13.621281623000186, 10.718982697000058 ], [ 13.655187607000187, 10.784294129000102 ], [ 13.636975289000191, 10.792360305000102 ], [ 13.651891708000051, 10.820580482000139 ], [ 13.671244622000131, 10.818273544000022 ], [ 13.713875770000129, 10.859918595000067 ], [ 13.727931975999979, 10.923343658000078 ], [ 13.708013535000134, 10.97204494500005 ], [ 13.734724044000131, 11.011379243000135 ], [ 13.792529104999971, 11.009667397999976 ], [ 13.812273025000081, 11.069156648000046 ], [ 13.910208702000034, 11.173741340999982 ], [ 13.980623244000014, 11.318759919000115 ], [ 14.1249732980001, 11.258124353000085 ], [ 14.198806763000107, 11.252754211000024 ], [ 14.235692979000135, 11.288714408999965 ], [ 14.357070922000105, 11.35559272800009 ], [ 14.428277016000095, 11.419939995 ], [ 14.466142655000056, 11.424970626000118 ], [ 14.516143798000144, 11.472787857000185 ], [ 14.613100052000107, 11.511377335000077 ], [ 14.642617225000151, 11.576020242000141 ], [ 14.639752387999977, 11.653015137000068 ], [ 14.599097253000139, 11.700576782999974 ], [ 14.548465728000167, 11.722993851000126 ], [ 14.612629890000107, 11.780608178000023 ], [ 14.602794646000063, 11.864961624000159 ], [ 14.642041205000112, 11.910140991000048 ], [ 14.633703232000073, 11.931569100000104 ], [ 14.653692246000162, 11.957004547000111 ], [ 14.619688035000138, 12.040309906000118 ], [ 14.653055191000135, 12.062335968000014 ], [ 14.63398838, 12.091799735999984 ], [ 14.675124168000139, 12.16862392500002 ], [ 14.659425735000184, 12.19711113000011 ], [ 14.613546372000087, 12.18295669500003 ], [ 14.597469329000091, 12.190304757000149 ], [ 14.607315063000101, 12.19702720700019 ], [ 14.59113598, 12.226490975000161 ], [ 14.548656464000089, 12.23532295300015 ], [ 14.559705734000033, 12.259269716000063 ], [ 14.511007310000025, 12.296224595000183 ], [ 14.520476341000062, 12.324731826000118 ], [ 14.48532772100009, 12.340074540000046 ], [ 14.487196922000123, 12.351500510000051 ], [ 14.4634618770001, 12.3593482980001 ], [ 14.447964668000111, 12.346841812000036 ], [ 14.433463000000188, 12.369172 ], [ 14.378778396000143, 12.356987017000051 ], [ 14.328887000000179, 12.374664999000061 ], [ 14.309041023000077, 12.358560563000026 ], [ 14.291404758000056, 12.372511861000078 ], [ 14.292967796000028, 12.355639459000088 ], [ 14.273164750000035, 12.373459817000025 ], [ 14.220512390000067, 12.362357139000096 ], [ 14.170649529000059, 12.410420418000058 ], [ 14.194379806000029, 12.448144914000181 ], [ 14.178705216000026, 12.448230743000067 ], [ 14.174064636000139, 12.479626656000107 ], [ 14.197015761999978, 12.503890038000065 ], [ 14.085494041, 13.077390670000057 ], [ 14.459829330000048, 13.073822022 ], [ 14.563277244000119, 12.910667420000152 ], [ 14.564766884000107, 12.82670879300008 ], [ 14.547410966000086, 12.795970918000137 ], [ 14.556861877000188, 12.772707940000032 ], [ 14.574420929000155, 12.778399467000099 ], [ 14.595191002000149, 12.743941307000114 ], [ 14.621764183000153, 12.77036380800007 ], [ 14.617618561000143, 12.737411499000189 ], [ 14.663000107000187, 12.718554497000127 ], [ 14.717529297000169, 12.719004631000075 ], [ 14.725935936000042, 12.703183175000163 ], [ 14.705131531, 12.671372414000075 ], [ 14.714586257000178, 12.654909135000082 ], [ 14.747318268000129, 12.685443878000115 ], [ 14.772661209000091, 12.63192749100017 ], [ 14.830974579000042, 12.629526138000188 ], [ 14.858956998999986, 12.496465999000122 ], [ 14.84614658400011, 12.456689834000031 ], [ 14.855187416000149, 12.446012497000027 ], [ 14.877047999000126, 12.460438000000181 ], [ 14.909553528000117, 12.376150130000099 ], [ 14.893053055000109, 12.200386047000109 ], [ 14.911847134000027, 12.182059460000119 ], [ 14.884995459999971, 12.160739899000191 ], [ 14.959839822000106, 12.092856408000046 ], [ 14.988554955000041, 12.083846093000147 ], [ 15.00205898300004, 12.116843223999979 ], [ 15.034888268000032, 12.102710724000019 ], [ 15.059246062999989, 12.046792984000092 ], [ 15.039300918000094, 12.023958207000135 ], [ 15.059391022, 11.999664306000113 ], [ 15.089258194000138, 11.993621825000105 ], [ 15.048911096000097, 11.962162018000072 ], [ 15.064728737000166, 11.932368280000162 ], [ 15.03990459400012, 11.905103684999972 ], [ 15.048599244000059, 11.858347894000019 ], [ 15.063853264000102, 11.83979034400005 ], [ 15.080606461000059, 11.857048988000031 ], [ 15.095490456000107, 11.845968246000155 ], [ 15.099354744000095, 11.810372353000048 ], [ 15.124695777000113, 11.786376954 ], [ 15.081741334000128, 11.759886742000049 ], [ 15.106454850000148, 11.724283219000029 ], [ 15.078476906, 11.730174065000028 ], [ 15.064520835000167, 11.709476471000073 ], [ 15.102843285, 11.580359460000125 ], [ 15.146821976000069, 11.554306031000181 ], [ 15.133399962999988, 11.506418227999973 ], [ 15.109542847000114, 11.496421814000144 ], [ 15.074612618, 11.443561555000144 ], [ 15.058415414000137, 11.395255089000045 ], [ 15.070708275000186, 11.365068437000104 ], [ 15.050637244000143, 11.342952728000171 ], [ 15.075876237000045, 11.322505952000029 ], [ 15.050302506000151, 11.277474403999975 ], [ 15.070182800000111, 11.198096275000012 ], [ 15.096858978000057, 11.165987968000024 ], [ 15.112029076000056, 11.084611892 ], [ 15.098112106000144, 11.045408250000094 ], [ 15.047347068000022, 11.013559342000121 ], [ 15.083778382000048, 10.949987411000052 ], [ 15.097167969000111, 10.876996041000154 ], [ 15.069767953, 10.813439370000083 ], [ 15.156746864000013, 10.645950317000143 ], [ 15.147974968000085, 10.53391647400008 ], [ 15.241271972000163, 10.47235107500012 ], [ 15.282974244000059, 10.408973695000043 ], [ 15.283142088999966, 10.367005348000077 ], [ 15.312205314000096, 10.306989671000053 ], [ 15.356204986000023, 10.292746544000124 ] ] ] } },
{ "type": "Feature", "properties": { "NAME_1": "Littoral", "GID_1": "CMR.5_1", "cle_adm": "littoral", "n_individus": 596, "n_menages": 148, "tx_pauvrete_pond": 20.683886131243014, "tx_pauvrete_brut": 25.838926174496645, "taille_moy_menage": 5.9359804523235393, "tx_pauvrete_menage": 8.8650735241122547, "tx_ins_publie": null, "ecart_ins": null, "avertissement": "extrait de formation - NON representatif a l'interieur des regions - ne pas citer", "n_grappes": 76, "tx_eau_amelioree": 96.431063763657761 }, "geometry": { "type": "Polygon", "coordinates": [ [ [ 10.20403289799998, 3.591630459000044 ], [ 10.154891013000167, 3.567727089000073 ], [ 10.116417885000089, 3.578851938000128 ], [ 10.083747864000145, 3.496514797000088 ], [ 10.067604065000126, 3.48918175600005 ], [ 10.075142861000018, 3.419484855000178 ], [ 10.053374291000125, 3.398763657000075 ], [ 10.03637027700006, 3.334228993000181 ], [ 9.963164329, 3.276597262000053 ], [ 9.907837869000105, 3.260334015000126 ], [ 9.87892436900006, 3.32516789500005 ], [ 9.781023979000111, 3.437070132000088 ], [ 9.640007973000024, 3.54290914600017 ], [ 9.686072350000131, 3.567534685000112 ], [ 9.660345077000159, 3.569958686000064 ], [ 9.640201568000123, 3.550393582000027 ], [ 9.635492325000143, 3.552606345000072 ], [ 9.631661415000053, 3.558875322000119 ], [ 9.647696494000115, 3.566929341000105 ], [ 9.637457847000064, 3.581835985000168 ], [ 9.638545035000107, 3.619452 ], [ 9.656845093000129, 3.632742406000034 ], [ 9.552510261000123, 3.814174890000174 ], [ 9.592340470000124, 3.797084569000162 ], [ 9.62206459000015, 3.867614269000171 ], [ 9.661251069000173, 3.836161853000135 ], [ 9.717600822000065, 3.86184453900006 ], [ 9.678214074000095, 3.907080889000156 ], [ 9.675826072, 3.941545726000129 ], [ 9.626072883000063, 3.944710016999977 ], [ 9.63975715700002, 3.99056387000013 ], [ 9.630584717000147, 4.00715828 ], [ 9.580733299000144, 4.004848957000149 ], [ 9.517842292000068, 4.025951863000046 ], [ 9.523567200000173, 3.962977170000045 ], [ 9.446289063000052, 3.987488031000055 ], [ 9.459094048000054, 3.963784695000129 ], [ 9.439801217000081, 3.924500942000066 ], [ 9.47525596600002, 3.907885791000126 ], [ 9.433998107999969, 3.887911082000073 ], [ 9.381695747000094, 3.887933969000073 ], [ 9.33580112400017, 3.915394545000026 ], [ 9.355697631, 3.907411814000113 ], [ 9.381181718000107, 3.920584679000115 ], [ 9.403999329000044, 3.991807699000105 ], [ 9.451781273000108, 4.02385664000019 ], [ 9.45704460200011, 4.05956602100008 ], [ 9.498991013000023, 4.051403046000132 ], [ 9.509881973, 4.085480213000153 ], [ 9.557864189000099, 4.118287563000024 ], [ 9.529767036000123, 4.165890694000097 ], [ 9.529988288000141, 4.210410595000155 ], [ 9.466750145000162, 4.189770698000075 ], [ 9.448833465000064, 4.208067895000113 ], [ 9.42079448700008, 4.203966618000152 ], [ 9.424741744000073, 4.271750451 ], [ 9.45872020600001, 4.317399978000083 ], [ 9.455781936000108, 4.348326683000039 ], [ 9.502464294000106, 4.411007882000149 ], [ 9.514859199000057, 4.402382373000137 ], [ 9.48752784800007, 4.470186233000163 ], [ 9.503664017000176, 4.490855216000114 ], [ 9.493002892000106, 4.526287079000156 ], [ 9.50817585100009, 4.531925201000035 ], [ 9.511793136000165, 4.519955158000187 ], [ 9.541331292000052, 4.589340686000185 ], [ 9.573591232000069, 4.615284444000054 ], [ 9.64357566800004, 4.637671948 ], [ 9.632194520000041, 4.664201259000095 ], [ 9.691056251000134, 4.72137498800015 ], [ 9.704512595999972, 4.808179378000034 ], [ 9.749038695000024, 4.841758729000105 ], [ 9.742738723000116, 4.858402729000034 ], [ 9.774524689000032, 4.873771667000142 ], [ 9.763833046000116, 4.887075900000013 ], [ 9.786070823000045, 4.916450502000089 ], [ 9.756322861000172, 4.919918061000033 ], [ 9.754415512000037, 4.941046714000038 ], [ 9.775730133000138, 5.005545139 ], [ 9.811128617000122, 5.025396347000083 ], [ 9.828407287000175, 5.014459610000131 ], [ 9.866170884000041, 5.029462337000098 ], [ 9.81593704200003, 5.079701901000078 ], [ 9.801351547000138, 5.140281200000175 ], [ 9.775547027000073, 5.146035195000081 ], [ 9.76640510600015, 5.209688663000065 ], [ 9.736417771000106, 5.245463372000074 ], [ 9.740931510000053, 5.275122644000021 ], [ 9.768578529000081, 5.263293744000066 ], [ 9.783971787000098, 5.284400464000157 ], [ 9.829555511000137, 5.290767192000033 ], [ 9.824075699000048, 5.330033302000174 ], [ 9.840591430000131, 5.334764004000078 ], [ 9.853832246000024, 5.322288036000032 ], [ 9.832661629000086, 5.275467873000082 ], [ 9.847523690000116, 5.256840707000038 ], [ 9.88218879700014, 5.250369549000027 ], [ 9.907195091000062, 5.276496888000054 ], [ 9.934992791000013, 5.277683736000029 ], [ 9.923363686000187, 5.25106573100004 ], [ 9.993707658000062, 5.227534294000066 ], [ 10.008336068000176, 5.183875561000036 ], [ 9.991484641000056, 5.130727292000131 ], [ 10.006460190000041, 5.06931162 ], [ 10.072917939000149, 5.044648171000119 ], [ 10.074424743000122, 4.98731613200016 ], [ 10.106490135000058, 4.958078862000093 ], [ 10.113503456000103, 4.928411007000022 ], [ 10.150026320000052, 4.919942856000034 ], [ 10.159299849999968, 4.946182728000053 ], [ 10.147860526000102, 4.975008488000185 ], [ 10.191597937999973, 4.997880935000012 ], [ 10.225671768000041, 5.03908920300006 ], [ 10.197867394000014, 5.07890176900014 ], [ 10.23286533400011, 5.107735158000082 ], [ 10.284192085000086, 5.057203292000054 ], [ 10.314604760000179, 5.100206852000156 ], [ 10.367035866000094, 5.086592674000087 ], [ 10.367551803000083, 5.017841340000189 ], [ 10.418096542000171, 5.006684780000057 ], [ 10.420356750000167, 4.918854714000076 ], [ 10.444268226000077, 4.960638046999975 ], [ 10.45911788900014, 4.948140144000035 ], [ 10.433709144000034, 4.910326957000109 ], [ 10.524454116000186, 4.903232575000061 ], [ 10.488422395000043, 4.881301880000137 ], [ 10.417158128000153, 4.788218023000184 ], [ 10.378411293000113, 4.786283492000052 ], [ 10.338284492000128, 4.693524361000186 ], [ 10.357099702000085, 4.666301386000043 ], [ 10.377654, 4.708450999000092 ], [ 10.416789000000165, 4.705654001000141 ], [ 10.465141000000131, 4.744117000000131 ], [ 10.492592812000055, 4.722007753000184 ], [ 10.466540001000169, 4.645238999000014 ], [ 10.417196274000105, 4.60828590400007 ], [ 10.385972024000125, 4.547530100000017 ], [ 10.378762246000122, 4.502333687000146 ], [ 10.392561913000122, 4.478040696000164 ], [ 10.453180000999964, 4.48879700100008 ], [ 10.471625000000131, 4.481006999000044 ], [ 10.478279114000031, 4.447263241000144 ], [ 10.507612001000098, 4.466836999000179 ], [ 10.517215729000156, 4.453728676000139 ], [ 10.574899674000164, 4.454412461000118 ], [ 10.599822999000082, 4.474998000000141 ], [ 10.639415740000118, 4.460715294000181 ], [ 10.680017470000053, 4.493846894000058 ], [ 10.693642616000147, 4.48606300400013 ], [ 10.697035790000029, 4.521695136000119 ], [ 10.725928307000117, 4.52223062600018 ], [ 10.737393379000139, 4.492001056999982 ], [ 10.776428223000153, 4.497443677000035 ], [ 10.784626007000043, 4.608263493000095 ], [ 10.83118534100015, 4.611769199999969 ], [ 10.877053261000071, 4.580945968000151 ], [ 10.890063285000053, 4.607387067000047 ], [ 10.920256615000028, 4.606400013000098 ], [ 10.894118308000145, 4.469463826000151 ], [ 10.944026947000168, 4.4158806800001 ], [ 10.942451478000123, 4.388303281000162 ], [ 10.97259998300018, 4.374131679000186 ], [ 10.977302551000037, 4.331639768000059 ], [ 11.013426781000078, 4.302856446000078 ], [ 11.045157433000043, 4.244189263000067 ], [ 11.077399254000113, 4.228199483000139 ], [ 11.073381423000114, 4.187444686000049 ], [ 10.974006654000107, 4.13898182000014 ], [ 10.850334168000131, 4.114818573000036 ], [ 10.834147453000128, 4.095024110000168 ], [ 10.77939033399997, 4.0874967580001 ], [ 10.724880218000123, 4.054895878000139 ], [ 10.692424774000074, 4.068355083000029 ], [ 10.682770729000026, 4.054582595000056 ], [ 10.702256202000171, 4.023230553000133 ], [ 10.691859245000103, 3.989021778000051 ], [ 10.645000457000094, 3.967772960000161 ], [ 10.641498565000063, 3.920459985000093 ], [ 10.666294097000105, 3.836040974000184 ], [ 10.644118307999975, 3.82349896400018 ], [ 10.654581071000166, 3.79136180900008 ], [ 10.619681358000093, 3.780453682000029 ], [ 10.605650902999969, 3.726815701000135 ], [ 10.524088859000074, 3.796838045000015 ], [ 10.508737564000057, 3.787903786000015 ], [ 10.488337516000058, 3.816132069 ], [ 10.41465663800011, 3.813941001999979 ], [ 10.376821518000099, 3.786815168000032 ], [ 10.363993644000118, 3.724002600000176 ], [ 10.372760772000049, 3.689048052000089 ], [ 10.352454186000102, 3.649304867000012 ], [ 10.340128898000103, 3.651236772000118 ], [ 10.325877190000085, 3.568888664000156 ], [ 10.283422471, 3.524037839000073 ], [ 10.232497215000137, 3.516671657000074 ], [ 10.235139846000038, 3.544360639000104 ], [ 10.202386856000032, 3.559106350000093 ], [ 10.20403289799998, 3.591630459000044 ] ] ] } },
{ "type": "Feature", "properties": { "NAME_1": "Littoral", "GID_1": "CMR.5_1", "cle_adm": "littoral", "n_individus": 918, "n_menages": 221, "tx_pauvrete_pond": 10.454826495477979, "tx_pauvrete_brut": 10.675381263616558, "taille_moy_menage": 5.5994555656080456, "tx_pauvrete_menage": 8.8650735241122547, "tx_ins_publie": null, "ecart_ins": null, "avertissement": "extrait de formation - NON representatif a l'interieur des regions - ne pas citer", "n_grappes": 76, "tx_eau_amelioree": 96.431063763657761 }, "geometry": { "type": "Polygon", "coordinates": [ [ [ 10.20403289799998, 3.591630459000044 ], [ 10.154891013000167, 3.567727089000073 ], [ 10.116417885000089, 3.578851938000128 ], [ 10.083747864000145, 3.496514797000088 ], [ 10.067604065000126, 3.48918175600005 ], [ 10.075142861000018, 3.419484855000178 ], [ 10.053374291000125, 3.398763657000075 ], [ 10.03637027700006, 3.334228993000181 ], [ 9.963164329, 3.276597262000053 ], [ 9.907837869000105, 3.260334015000126 ], [ 9.87892436900006, 3.32516789500005 ], [ 9.781023979000111, 3.437070132000088 ], [ 9.640007973000024, 3.54290914600017 ], [ 9.686072350000131, 3.567534685000112 ], [ 9.660345077000159, 3.569958686000064 ], [ 9.640201568000123, 3.550393582000027 ], [ 9.635492325000143, 3.552606345000072 ], [ 9.631661415000053, 3.558875322000119 ], [ 9.647696494000115, 3.566929341000105 ], [ 9.637457847000064, 3.581835985000168 ], [ 9.638545035000107, 3.619452 ], [ 9.656845093000129, 3.632742406000034 ], [ 9.552510261000123, 3.814174890000174 ], [ 9.592340470000124, 3.797084569000162 ], [ 9.62206459000015, 3.867614269000171 ], [ 9.661251069000173, 3.836161853000135 ], [ 9.717600822000065, 3.86184453900006 ], [ 9.678214074000095, 3.907080889000156 ], [ 9.675826072, 3.941545726000129 ], [ 9.626072883000063, 3.944710016999977 ], [ 9.63975715700002, 3.99056387000013 ], [ 9.630584717000147, 4.00715828 ], [ 9.580733299000144, 4.004848957000149 ], [ 9.517842292000068, 4.025951863000046 ], [ 9.523567200000173, 3.962977170000045 ], [ 9.446289063000052, 3.987488031000055 ], [ 9.459094048000054, 3.963784695000129 ], [ 9.439801217000081, 3.924500942000066 ], [ 9.47525596600002, 3.907885791000126 ], [ 9.433998107999969, 3.887911082000073 ], [ 9.381695747000094, 3.887933969000073 ], [ 9.33580112400017, 3.915394545000026 ], [ 9.355697631, 3.907411814000113 ], [ 9.381181718000107, 3.920584679000115 ], [ 9.403999329000044, 3.991807699000105 ], [ 9.451781273000108, 4.02385664000019 ], [ 9.45704460200011, 4.05956602100008 ], [ 9.498991013000023, 4.051403046000132 ], [ 9.509881973, 4.085480213000153 ], [ 9.557864189000099, 4.118287563000024 ], [ 9.529767036000123, 4.165890694000097 ], [ 9.529988288000141, 4.210410595000155 ], [ 9.466750145000162, 4.189770698000075 ], [ 9.448833465000064, 4.208067895000113 ], [ 9.42079448700008, 4.203966618000152 ], [ 9.424741744000073, 4.271750451 ], [ 9.45872020600001, 4.317399978000083 ], [ 9.455781936000108, 4.348326683000039 ], [ 9.502464294000106, 4.411007882000149 ], [ 9.514859199000057, 4.402382373000137 ], [ 9.48752784800007, 4.470186233000163 ], [ 9.503664017000176, 4.490855216000114 ], [ 9.493002892000106, 4.526287079000156 ], [ 9.50817585100009, 4.531925201000035 ], [ 9.511793136000165, 4.519955158000187 ], [ 9.541331292000052, 4.589340686000185 ], [ 9.573591232000069, 4.615284444000054 ], [ 9.64357566800004, 4.637671948 ], [ 9.632194520000041, 4.664201259000095 ], [ 9.691056251000134, 4.72137498800015 ], [ 9.704512595999972, 4.808179378000034 ], [ 9.749038695000024, 4.841758729000105 ], [ 9.742738723000116, 4.858402729000034 ], [ 9.774524689000032, 4.873771667000142 ], [ 9.763833046000116, 4.887075900000013 ], [ 9.786070823000045, 4.916450502000089 ], [ 9.756322861000172, 4.919918061000033 ], [ 9.754415512000037, 4.941046714000038 ], [ 9.775730133000138, 5.005545139 ], [ 9.811128617000122, 5.025396347000083 ], [ 9.828407287000175, 5.014459610000131 ], [ 9.866170884000041, 5.029462337000098 ], [ 9.81593704200003, 5.079701901000078 ], [ 9.801351547000138, 5.140281200000175 ], [ 9.775547027000073, 5.146035195000081 ], [ 9.76640510600015, 5.209688663000065 ], [ 9.736417771000106, 5.245463372000074 ], [ 9.740931510000053, 5.275122644000021 ], [ 9.768578529000081, 5.263293744000066 ], [ 9.783971787000098, 5.284400464000157 ], [ 9.829555511000137, 5.290767192000033 ], [ 9.824075699000048, 5.330033302000174 ], [ 9.840591430000131, 5.334764004000078 ], [ 9.853832246000024, 5.322288036000032 ], [ 9.832661629000086, 5.275467873000082 ], [ 9.847523690000116, 5.256840707000038 ], [ 9.88218879700014, 5.250369549000027 ], [ 9.907195091000062, 5.276496888000054 ], [ 9.934992791000013, 5.277683736000029 ], [ 9.923363686000187, 5.25106573100004 ], [ 9.993707658000062, 5.227534294000066 ], [ 10.008336068000176, 5.183875561000036 ], [ 9.991484641000056, 5.130727292000131 ], [ 10.006460190000041, 5.06931162 ], [ 10.072917939000149, 5.044648171000119 ], [ 10.074424743000122, 4.98731613200016 ], [ 10.106490135000058, 4.958078862000093 ], [ 10.113503456000103, 4.928411007000022 ], [ 10.150026320000052, 4.919942856000034 ], [ 10.159299849999968, 4.946182728000053 ], [ 10.147860526000102, 4.975008488000185 ], [ 10.191597937999973, 4.997880935000012 ], [ 10.225671768000041, 5.03908920300006 ], [ 10.197867394000014, 5.07890176900014 ], [ 10.23286533400011, 5.107735158000082 ], [ 10.284192085000086, 5.057203292000054 ], [ 10.314604760000179, 5.100206852000156 ], [ 10.367035866000094, 5.086592674000087 ], [ 10.367551803000083, 5.017841340000189 ], [ 10.418096542000171, 5.006684780000057 ], [ 10.420356750000167, 4.918854714000076 ], [ 10.444268226000077, 4.960638046999975 ], [ 10.45911788900014, 4.948140144000035 ], [ 10.433709144000034, 4.910326957000109 ], [ 10.524454116000186, 4.903232575000061 ], [ 10.488422395000043, 4.881301880000137 ], [ 10.417158128000153, 4.788218023000184 ], [ 10.378411293000113, 4.786283492000052 ], [ 10.338284492000128, 4.693524361000186 ], [ 10.357099702000085, 4.666301386000043 ], [ 10.377654, 4.708450999000092 ], [ 10.416789000000165, 4.705654001000141 ], [ 10.465141000000131, 4.744117000000131 ], [ 10.492592812000055, 4.722007753000184 ], [ 10.466540001000169, 4.645238999000014 ], [ 10.417196274000105, 4.60828590400007 ], [ 10.385972024000125, 4.547530100000017 ], [ 10.378762246000122, 4.502333687000146 ], [ 10.392561913000122, 4.478040696000164 ], [ 10.453180000999964, 4.48879700100008 ], [ 10.471625000000131, 4.481006999000044 ], [ 10.478279114000031, 4.447263241000144 ], [ 10.507612001000098, 4.466836999000179 ], [ 10.517215729000156, 4.453728676000139 ], [ 10.574899674000164, 4.454412461000118 ], [ 10.599822999000082, 4.474998000000141 ], [ 10.639415740000118, 4.460715294000181 ], [ 10.680017470000053, 4.493846894000058 ], [ 10.693642616000147, 4.48606300400013 ], [ 10.697035790000029, 4.521695136000119 ], [ 10.725928307000117, 4.52223062600018 ], [ 10.737393379000139, 4.492001056999982 ], [ 10.776428223000153, 4.497443677000035 ], [ 10.784626007000043, 4.608263493000095 ], [ 10.83118534100015, 4.611769199999969 ], [ 10.877053261000071, 4.580945968000151 ], [ 10.890063285000053, 4.607387067000047 ], [ 10.920256615000028, 4.606400013000098 ], [ 10.894118308000145, 4.469463826000151 ], [ 10.944026947000168, 4.4158806800001 ], [ 10.942451478000123, 4.388303281000162 ], [ 10.97259998300018, 4.374131679000186 ], [ 10.977302551000037, 4.331639768000059 ], [ 11.013426781000078, 4.302856446000078 ], [ 11.045157433000043, 4.244189263000067 ], [ 11.077399254000113, 4.228199483000139 ], [ 11.073381423000114, 4.187444686000049 ], [ 10.974006654000107, 4.13898182000014 ], [ 10.850334168000131, 4.114818573000036 ], [ 10.834147453000128, 4.095024110000168 ], [ 10.77939033399997, 4.0874967580001 ], [ 10.724880218000123, 4.054895878000139 ], [ 10.692424774000074, 4.068355083000029 ], [ 10.682770729000026, 4.054582595000056 ], [ 10.702256202000171, 4.023230553000133 ], [ 10.691859245000103, 3.989021778000051 ], [ 10.645000457000094, 3.967772960000161 ], [ 10.641498565000063, 3.920459985000093 ], [ 10.666294097000105, 3.836040974000184 ], [ 10.644118307999975, 3.82349896400018 ], [ 10.654581071000166, 3.79136180900008 ], [ 10.619681358000093, 3.780453682000029 ], [ 10.605650902999969, 3.726815701000135 ], [ 10.524088859000074, 3.796838045000015 ], [ 10.508737564000057, 3.787903786000015 ], [ 10.488337516000058, 3.816132069 ], [ 10.41465663800011, 3.813941001999979 ], [ 10.376821518000099, 3.786815168000032 ], [ 10.363993644000118, 3.724002600000176 ], [ 10.372760772000049, 3.689048052000089 ], [ 10.352454186000102, 3.649304867000012 ], [ 10.340128898000103, 3.651236772000118 ], [ 10.325877190000085, 3.568888664000156 ], [ 10.283422471, 3.524037839000073 ], [ 10.232497215000137, 3.516671657000074 ], [ 10.235139846000038, 3.544360639000104 ], [ 10.202386856000032, 3.559106350000093 ], [ 10.20403289799998, 3.591630459000044 ] ] ] } },
{ "type": "Feature", "properties": { "NAME_1": "Nord", "GID_1": "CMR.7_1", "cle_adm": "nord", "n_individus": 1136, "n_menages": 215, "tx_pauvrete_pond": 63.68887377684117, "tx_pauvrete_brut": 64.612676056338032, "taille_moy_menage": 6.3051474558201317, "tx_pauvrete_menage": 58.912037125005135, "tx_ins_publie": 61.1, "ecart_ins": 2.6, "avertissement": "extrait de formation - NON representatif a l'interieur des regions - ne pas citer", "n_grappes": 40, "tx_eau_amelioree": 45.424757881056365 }, "geometry": { "type": "Polygon", "coordinates": [ [ [ 14.765334130000042, 7.040407659000039 ], [ 14.651938439000105, 7.016164780000167 ], [ 14.65554237300006, 7.045944691000102 ], [ 14.627223968000067, 7.070204258000103 ], [ 14.587787628000058, 7.07468271200014 ], [ 14.563532829000053, 7.056676864000167 ], [ 14.569347381000114, 7.080145359000142 ], [ 14.520875930000159, 7.135142803000122 ], [ 14.520238875000132, 7.161454201000026 ], [ 14.443304062000152, 7.151602745000105 ], [ 14.431832312999973, 7.165940761000172 ], [ 14.404411315000118, 7.147200585000178 ], [ 14.323373795000066, 7.162827493000179 ], [ 14.362379073000113, 7.216900826000028 ], [ 14.35386180900008, 7.271528721000095 ], [ 14.332842826000103, 7.278259754000032 ], [ 14.340897561000133, 7.305333615000052 ], [ 14.304883004000033, 7.30375766700007 ], [ 14.245873451000136, 7.35269403500007 ], [ 14.241939544000161, 7.391641140000161 ], [ 14.215976715000068, 7.401195050000183 ], [ 14.213675499999965, 7.457001687000059 ], [ 14.182641983000053, 7.458225250000169 ], [ 14.144822121000061, 7.483747959000084 ], [ 14.125641821999977, 7.567032338000104 ], [ 14.006171226000049, 7.550397396000051 ], [ 13.980391503000135, 7.577781677000189 ], [ 13.914268495000101, 7.58864641200006 ], [ 13.874241829000141, 7.616858959000126 ], [ 13.891754150000054, 7.651766777000091 ], [ 13.873081206999984, 7.674587726000084 ], [ 13.883561134000161, 7.704518318000169 ], [ 13.786900521000064, 7.758087159000183 ], [ 13.734191894000105, 7.859915258000115 ], [ 13.744261741000116, 7.912088870000105 ], [ 13.699512482000102, 7.957634927000129 ], [ 13.664937974000054, 7.930447578000155 ], [ 13.588792801000068, 7.926142216000073 ], [ 13.572970389999966, 7.906274320000023 ], [ 13.506916999000111, 7.923505783000167 ], [ 13.440798759000074, 7.909039975000155 ], [ 13.421360015000062, 7.917646885000181 ], [ 13.412723540000172, 7.960598946000175 ], [ 13.327539444000081, 7.973622323000086 ], [ 13.355925559000127, 7.932083607000038 ], [ 13.325821876000077, 7.901179791000118 ], [ 13.340869903000169, 7.856726646000084 ], [ 13.294424057000015, 7.818347455000094 ], [ 13.305425645000071, 7.780142307000176 ], [ 13.283922195000116, 7.755345823000027 ], [ 13.295479774000057, 7.743485927000165 ], [ 13.283843994000108, 7.700258256000097 ], [ 13.257615089000183, 7.690208434999988 ], [ 13.260501862000012, 7.624491691000173 ], [ 13.224490165000134, 7.601929664000068 ], [ 13.08084964699998, 7.602924348000158 ], [ 12.976998330000185, 7.648783207000122 ], [ 12.79982853000007, 7.667461872000104 ], [ 12.740128518000176, 7.695499898000037 ], [ 12.731250762000172, 7.73149919500014 ], [ 12.704331398000022, 7.719982623000078 ], [ 12.636777878000146, 7.75046920900013 ], [ 12.631294250999986, 7.825424672000111 ], [ 12.652927399000077, 7.867086411000059 ], [ 12.626756668000155, 7.93152141600018 ], [ 12.486094474000083, 7.924410343000034 ], [ 12.399109841000097, 8.023183823000124 ], [ 12.287655830000062, 8.113743782000142 ], [ 12.276069640000117, 8.151495934000025 ], [ 12.291425705000108, 8.187595368000132 ], [ 12.256371497000146, 8.175818443000139 ], [ 12.238751411000123, 8.339077949000171 ], [ 12.264679909000165, 8.370116233000033 ], [ 12.247361182000077, 8.385927201000129 ], [ 12.263762473000099, 8.443392754000172 ], [ 12.335584641000082, 8.430500030000132 ], [ 12.376531600000078, 8.479591370000151 ], [ 12.424414634000129, 8.488599777000047 ], [ 12.465737343000114, 8.524367333000043 ], [ 12.432199479000019, 8.621337890000063 ], [ 12.464281082000184, 8.622154236000142 ], [ 12.485801698000159, 8.643450736000034 ], [ 12.575332641000159, 8.61398124800013 ], [ 12.615338325000153, 8.639071466000075 ], [ 12.67335510200013, 8.646726609000098 ], [ 12.701418877000037, 8.667921066000019 ], [ 12.720302582000045, 8.760772706000068 ], [ 12.785830497000177, 8.743083000000127 ], [ 12.819844246000116, 8.831068992999974 ], [ 12.80086135900001, 8.853323936000095 ], [ 12.81581974, 8.862853050000183 ], [ 12.807533264000028, 8.886294366000129 ], [ 12.818768501000022, 8.899023057000022 ], [ 12.803986550000047, 8.916487693000136 ], [ 12.897856712000134, 9.114781380000181 ], [ 12.883557319000147, 9.158617019000076 ], [ 12.916018485000166, 9.276828766000108 ], [ 12.914043427000138, 9.341486931000134 ], [ 12.843784333000031, 9.372720719000029 ], [ 12.864787102000093, 9.369921685000065 ], [ 12.871006966000095, 9.391368866000107 ], [ 12.936788558000103, 9.419313430000159 ], [ 12.97232437100007, 9.471127510000031 ], [ 13.034303665000095, 9.511322022000058 ], [ 13.125862121000011, 9.528474808000169 ], [ 13.213854788999981, 9.566312791000144 ], [ 13.23583698200008, 9.619032861000051 ], [ 13.229708672000186, 9.679098129000124 ], [ 13.25260925300006, 9.700293541000065 ], [ 13.258910180000157, 9.777610779000099 ], [ 13.299126625000099, 9.82768726400019 ], [ 13.242075919, 9.864030839000179 ], [ 13.236782073000029, 9.919707298000162 ], [ 13.27987671000011, 9.941511155000057 ], [ 13.287774085000137, 9.98019504500013 ], [ 13.247620583000128, 10.000475883000036 ], [ 13.247768403000123, 10.035773277000089 ], [ 13.342946053, 10.122792244000038 ], [ 13.357240678000153, 10.112760544000082 ], [ 13.403121948000148, 10.125546456 ], [ 13.438445091000062, 10.082109451 ], [ 13.551143646000071, 10.102165223000156 ], [ 13.558687210000187, 10.084899902000075 ], [ 13.58867073000016, 10.124335289000044 ], [ 13.691693305000172, 10.140810014000124 ], [ 13.647780418000082, 10.181957244999978 ], [ 13.681000709000102, 10.25814533200014 ], [ 13.973860740000077, 10.229939461000072 ], [ 14.011928559000069, 10.201670646000139 ], [ 14.013521193000031, 10.173916818000066 ], [ 14.051829338, 10.172573090000071 ], [ 14.076165199000172, 10.111342429999979 ], [ 14.110027313000103, 10.128650666000169 ], [ 14.221135139000182, 10.090191842000081 ], [ 14.229847908000124, 10.075656891000108 ], [ 14.209771157000148, 10.05366325500006 ], [ 14.208221436000088, 10.001634597000191 ], [ 14.135066031, 9.823863029000051 ], [ 14.026252747000058, 9.731581688000063 ], [ 13.982501030000151, 9.641862869000022 ], [ 14.043807983000079, 9.614011766000147 ], [ 14.11091423, 9.517808915000046 ], [ 14.156396866000023, 9.502190591000101 ], [ 14.196987153, 9.444072722999977 ], [ 14.239017487000069, 9.419650078000132 ], [ 14.274445535000041, 9.358395576000021 ], [ 14.311408042000096, 9.368730545000119 ], [ 14.347546578000049, 9.304832458000021 ], [ 14.380206108000095, 9.292113304000168 ], [ 14.381392479000112, 9.256978036000021 ], [ 14.348530769000035, 9.206849099000067 ], [ 14.403778076000037, 9.15104198400013 ], [ 14.467811584, 9.116867065000179 ], [ 14.497076035000134, 9.0537185660001 ], [ 14.836006164000082, 8.815203667 ], [ 14.872982979000028, 8.824801444 ], [ 14.901445388000184, 8.813485146 ], [ 14.925708770000142, 8.778560640000137 ], [ 14.912905693000141, 8.766919137000116 ], [ 14.92191887000007, 8.755438804000164 ], [ 14.946895600000062, 8.757723808000037 ], [ 14.987403869000161, 8.732252122000148 ], [ 14.981992721999973, 8.689544678000061 ], [ 15.059051513999975, 8.679807663000076 ], [ 15.108338356000047, 8.656015397000033 ], [ 15.151494980000166, 8.602159501000131 ], [ 15.177763939000045, 8.525024414000143 ], [ 15.200230599000122, 8.50901794400005 ], [ 15.396739007000178, 8.091275214 ], [ 15.39567566, 8.044395447000113 ], [ 15.452363969000032, 7.881149293000135 ], [ 15.504727363000086, 7.793642522000141 ], [ 15.588642120000031, 7.772483826000041 ], [ 15.593574523000029, 7.687584877000177 ], [ 15.56902408600007, 7.590646745000072 ], [ 15.496734618000175, 7.525787353000169 ], [ 15.426222801, 7.416947366000045 ], [ 15.245120048000047, 7.273379326000168 ], [ 15.201920508000057, 7.212238788000093 ], [ 15.103199005000135, 7.143596172000116 ], [ 15.102548599000158, 7.159123422 ], [ 15.054787636000185, 7.187749863000079 ], [ 14.991666793000093, 7.136493684000072 ], [ 14.893250464000175, 7.105097295000178 ], [ 14.871190071, 7.079852104999986 ], [ 14.815870286000063, 7.078548909000176 ], [ 14.765334130000042, 7.040407659000039 ] ] ] } },
{ "type": "Feature", "properties": { "NAME_1": "Nord-Ouest", "GID_1": "CMR.6_1", "cle_adm": "nordouest", "n_individus": 532, "n_menages": 115, "tx_pauvrete_pond": 55.523074187477306, "tx_pauvrete_brut": 65.413533834586474, "taille_moy_menage": 6.2033341575690022, "tx_pauvrete_menage": 47.977819611465527, "tx_ins_publie": 66.8, "ecart_ins": -11.3, "avertissement": "extrait de formation - NON representatif a l'interieur des regions - ne pas citer", "n_grappes": 28, "tx_eau_amelioree": 81.768666015296844 }, "geometry": { "type": "Polygon", "coordinates": [ [ [ 10.324352264000026, 5.809131622000109 ], [ 10.277945519000184, 5.761452198000029 ], [ 10.307746888000111, 5.72257089600015 ], [ 10.280175209000106, 5.703934193000123 ], [ 10.27371311100012, 5.723686218000068 ], [ 10.157279968000182, 5.774743558000182 ], [ 10.117258072000084, 5.753856659000121 ], [ 10.079360009000084, 5.7081236840001 ], [ 9.997377395, 5.719217777000097 ], [ 9.955568313000185, 5.752189636000139 ], [ 9.888996124000187, 5.718791961000022 ], [ 9.88367748200011, 5.740626812000187 ], [ 9.855281829000148, 5.73415994700008 ], [ 9.853302956000107, 5.752543450000132 ], [ 9.814119340000047, 5.755089760000089 ], [ 9.811853409000094, 5.774717807000115 ], [ 9.768461228000092, 5.776788712000155 ], [ 9.727929116000041, 5.84778022800009 ], [ 9.690656662000038, 5.855869292000079 ], [ 9.679924964000065, 5.83529949300015 ], [ 9.633714676000068, 5.887528896 ], [ 9.590973854000026, 5.882214547000046 ], [ 9.603939056, 5.935908318000088 ], [ 9.619618416000094, 5.935316563000072 ], [ 9.638874053000166, 5.967557431000159 ], [ 9.611458778000156, 6.021414280000045 ], [ 9.702235222000013, 6.09062147200018 ], [ 9.726397514000098, 6.084697247000179 ], [ 9.736765862000027, 6.116185188000031 ], [ 9.765442849000181, 6.125457765000135 ], [ 9.767003059000103, 6.158495903000073 ], [ 9.789146422000044, 6.166862488000163 ], [ 9.771765708000089, 6.198583126000187 ], [ 9.81682777400016, 6.22122430800016 ], [ 9.772644996000054, 6.306565284000101 ], [ 9.764066696999976, 6.390412808000121 ], [ 9.736499785000149, 6.431143284000086 ], [ 9.743618011000024, 6.484232427000052 ], [ 9.70634079000007, 6.50197506100011 ], [ 9.710506440000131, 6.54012107799997 ], [ 9.75065231300016, 6.67832231400007 ], [ 9.764412881000055, 6.680712701 ], [ 9.762715339000124, 6.759293079000145 ], [ 9.779424667000114, 6.794529915000112 ], [ 9.863946915000156, 6.776453495000169 ], [ 10.153351784000051, 7.038451672000122 ], [ 10.17949771900004, 7.011674882000079 ], [ 10.168615341000077, 7.000228881000112 ], [ 10.184515954000062, 6.966560841000103 ], [ 10.17406368200011, 6.93820476500008 ], [ 10.217097283000101, 6.888836861000129 ], [ 10.463063239000064, 6.914776802000119 ], [ 10.490369795999982, 6.899660111000173 ], [ 10.540978432000145, 6.938623905000156 ], [ 10.572036743000126, 7.162285805000124 ], [ 10.601531030000046, 7.136364938000099 ], [ 10.59770202600015, 7.077906609000138 ], [ 10.61291122300014, 7.061124802000109 ], [ 10.678020477000132, 7.042315006000024 ], [ 10.686524390000045, 7.015585423000061 ], [ 10.738444328000128, 6.990109444000097 ], [ 10.765485763000129, 6.957441331000155 ], [ 10.78224754300004, 6.967989445000171 ], [ 10.841154098000118, 6.939635754000108 ], [ 10.820063590000188, 6.843799591000163 ], [ 10.898317337000037, 6.762480260000189 ], [ 10.912993432000064, 6.765612125000018 ], [ 10.919232368999985, 6.708508014000074 ], [ 10.947082520000151, 6.688282491 ], [ 10.994278909000116, 6.687008381000112 ], [ 11.023064613000145, 6.712512494000123 ], [ 11.059892654000066, 6.716192246000105 ], [ 11.098476409000114, 6.679588796000189 ], [ 11.097289085999989, 6.524076939000054 ], [ 11.194415091999986, 6.529320717000132 ], [ 11.204515458000117, 6.494774818000053 ], [ 11.192341805000126, 6.448331356999972 ], [ 11.207354546000033, 6.430050372999972 ], [ 11.197710037000036, 6.36266231500008 ], [ 11.209311485, 6.346811772000024 ], [ 11.181338309000068, 6.272857189000092 ], [ 11.195728301000031, 6.25753641200015 ], [ 11.163245201000166, 6.263316155000041 ], [ 11.137568473000044, 6.226586819000033 ], [ 11.067235947000029, 6.211080075000098 ], [ 11.026805878000175, 6.239175321000175 ], [ 10.999340058000087, 6.232678414000191 ], [ 11.012226105000025, 6.151204109000162 ], [ 10.989204406000113, 6.06448698000014 ], [ 10.925932884000076, 6.016311645000144 ], [ 10.863903045000086, 6.020241737000106 ], [ 10.841936112000155, 5.976416111 ], [ 10.788515092000011, 6.018988133000107 ], [ 10.705065726999976, 6.037910937999982 ], [ 10.640792847000114, 5.940305234000107 ], [ 10.637830734000033, 5.895084857000029 ], [ 10.616750718000105, 5.877394676000108 ], [ 10.628879547000111, 5.832508565000126 ], [ 10.600345612000069, 5.811627864000059 ], [ 10.60338211100003, 5.785085678000087 ], [ 10.579885483000112, 5.777691841000149 ], [ 10.55992412500018, 5.821561337000105 ], [ 10.523847580000108, 5.834596635000082 ], [ 10.470420836000187, 5.812925340000106 ], [ 10.458291053000096, 5.825988292000034 ], [ 10.439090728000167, 5.80252409000019 ], [ 10.324352264000026, 5.809131622000109 ] ] ] } },
{ "type": "Feature", "properties": { "NAME_1": "Ouest", "GID_1": "CMR.8_1", "cle_adm": "ouest", "n_individus": 743, "n_menages": 172, "tx_pauvrete_pond": 28.840337598026959, "tx_pauvrete_brut": 31.628532974427991, "taille_moy_menage": 5.9310465238583454, "tx_pauvrete_menage": 21.678747724636786, "tx_ins_publie": null, "ecart_ins": null, "avertissement": "extrait de formation - NON representatif a l'interieur des regions - ne pas citer", "n_grappes": 42, "tx_eau_amelioree": 76.533332750616779 }, "geometry": { "type": "Polygon", "coordinates": [ [ [ 10.108439446000148, 4.940886497000179 ], [ 10.074424743000122, 4.98731613200016 ], [ 10.072917939000149, 5.044648171000119 ], [ 10.006460190000041, 5.06931162 ], [ 9.991484641000056, 5.130727292000131 ], [ 10.008336068000176, 5.183875561000036 ], [ 9.993707658000062, 5.227534294000066 ], [ 9.923363686000187, 5.25106573100004 ], [ 9.934992791000013, 5.277683736000029 ], [ 9.907195091000062, 5.276496888000054 ], [ 9.88020896900008, 5.250089168000159 ], [ 9.832661629000086, 5.275467873000082 ], [ 9.852817536000089, 5.338346481000087 ], [ 9.923274040000024, 5.380464077000056 ], [ 9.95869636499998, 5.492804527000033 ], [ 9.949694633000036, 5.522098542000094 ], [ 9.966513634000137, 5.546816825000064 ], [ 9.948732375000134, 5.568758011000057 ], [ 9.962246896000067, 5.589609146000157 ], [ 9.998053551000169, 5.580388069000094 ], [ 10.024628639000071, 5.629549504000124 ], [ 10.091026306000174, 5.644729138 ], [ 10.100595474000045, 5.66954994200006 ], [ 10.079360009000084, 5.7081236840001 ], [ 10.148791313000117, 5.773627281000131 ], [ 10.27371311100012, 5.723686218000068 ], [ 10.280175209000106, 5.703934193000123 ], [ 10.307746888000111, 5.72257089600015 ], [ 10.278337478000026, 5.767967701000089 ], [ 10.324352264000026, 5.809131622000109 ], [ 10.436637878000056, 5.802152635000084 ], [ 10.458291053000096, 5.825988292000034 ], [ 10.470420836000187, 5.812925340000106 ], [ 10.523847580000108, 5.834596635000082 ], [ 10.55992412500018, 5.821561337000105 ], [ 10.579885483000112, 5.777691841000149 ], [ 10.60338211100003, 5.785085678000087 ], [ 10.600345612000069, 5.811627864000059 ], [ 10.628879547000111, 5.832508565000126 ], [ 10.616750718000105, 5.877394676000108 ], [ 10.637830734000033, 5.895084857000029 ], [ 10.640792847000114, 5.940305234000107 ], [ 10.705065726999976, 6.037910937999982 ], [ 10.788515092000011, 6.018988133000107 ], [ 10.841936112000155, 5.976416111 ], [ 10.863903045000086, 6.020241737000106 ], [ 10.925932884000076, 6.016311645000144 ], [ 10.989204406000113, 6.06448698000014 ], [ 11.012226105000025, 6.151204109000162 ], [ 11.006717681999987, 6.236764431000154 ], [ 11.026805878000175, 6.239175321000175 ], [ 11.067235947000029, 6.211080075000098 ], [ 11.137568473000044, 6.226586819000033 ], [ 11.163245201000166, 6.263316155000041 ], [ 11.301216126000099, 6.247889997000186 ], [ 11.295729637000079, 6.211987019000162 ], [ 11.271872521000034, 6.20635414100019 ], [ 11.262686729000109, 6.17459154200003 ], [ 11.28091812100007, 6.158210755000084 ], [ 11.262527466000165, 6.136853219000102 ], [ 11.30796146299997, 6.039747716000079 ], [ 11.264847755, 5.994238854 ], [ 11.2755861280001, 5.915479183000059 ], [ 11.253228188000094, 5.904110433000028 ], [ 11.278029442000104, 5.87380504500004 ], [ 11.274440765000065, 5.806291581000039 ], [ 11.316862107000134, 5.786304475000122 ], [ 11.292577743999971, 5.768781186000183 ], [ 11.2789573660001, 5.729687692000141 ], [ 11.201968193000141, 5.670307159000117 ], [ 11.213330268000107, 5.647228718000065 ], [ 11.186551094000038, 5.60404777500014 ], [ 11.215190888, 5.527248861000146 ], [ 11.19518947600011, 5.468138696000096 ], [ 11.170625687000154, 5.45222568500003 ], [ 11.194289208000043, 5.413793564000059 ], [ 11.12750625700005, 5.327272415000095 ], [ 11.072281837000105, 5.29877472000004 ], [ 11.082587241999988, 5.257785797000111 ], [ 11.066493988, 5.217475415000081 ], [ 11.080149650000124, 5.188231469000186 ], [ 10.998030662000133, 5.158500194000169 ], [ 10.969949721000091, 5.036688806000143 ], [ 10.931401252000114, 5.001673223000125 ], [ 10.96212387200012, 4.970578671000055 ], [ 10.941616058000079, 4.924838067000167 ], [ 10.86739158600011, 4.941459179000105 ], [ 10.851064683000061, 4.953484534999973 ], [ 10.853738785000189, 4.976630211000156 ], [ 10.823811531000047, 4.971378326000035 ], [ 10.814778328000045, 5.007946491000098 ], [ 10.785096169000042, 5.019705772000066 ], [ 10.74922084800005, 5.00580930700005 ], [ 10.72117710100008, 4.953734399000041 ], [ 10.690763474000107, 4.954215526000155 ], [ 10.595726013, 4.881257058000131 ], [ 10.517871857000102, 4.906552315000113 ], [ 10.435118675000012, 4.909379483000066 ], [ 10.459132195000052, 4.954466820000164 ], [ 10.441442491000146, 4.960077286000057 ], [ 10.420356750000167, 4.918854714000076 ], [ 10.418096542000171, 5.006684780000057 ], [ 10.367551803000083, 5.017841340000189 ], [ 10.367035866000094, 5.086592674000087 ], [ 10.314604760000179, 5.100206852000156 ], [ 10.284192085000086, 5.057203292000054 ], [ 10.23286533400011, 5.107735158000082 ], [ 10.197867394000014, 5.07890176900014 ], [ 10.225671768000041, 5.03908920300006 ], [ 10.191597937999973, 4.997880935000012 ], [ 10.147860526000102, 4.975008488000185 ], [ 10.159299849999968, 4.946182728000053 ], [ 10.150026320000052, 4.919942856000034 ], [ 10.108439446000148, 4.940886497000179 ] ] ] } },
{ "type": "Feature", "properties": { "NAME_1": "Sud", "GID_1": "CMR.10_1", "cle_adm": "sud", "n_individus": 486, "n_menages": 139, "tx_pauvrete_pond": 18.733958594585662, "tx_pauvrete_brut": 23.456790123456788, "taille_moy_menage": 5.1813193611920747, "tx_pauvrete_menage": 12.012605288281135, "tx_ins_publie": null, "ecart_ins": null, "avertissement": "extrait de formation - NON representatif a l'interieur des regions - ne pas citer", "n_grappes": 32, "tx_eau_amelioree": 83.143934008253225 }, "geometry": { "type": "Polygon", "coordinates": [ [ [ 11.701069831000098, 2.315644502000055 ], [ 11.612522124000122, 2.29341244800014 ], [ 11.582673073000024, 2.307046890000095 ], [ 11.548668862000113, 2.294405700000084 ], [ 11.456418037, 2.301346065000132 ], [ 11.45177364400007, 2.289479494000147 ], [ 11.376516343000162, 2.296901227000035 ], [ 11.365482331000067, 2.287756681000133 ], [ 11.382894516000022, 2.276391268000111 ], [ 11.382174493000093, 2.245027303000029 ], [ 11.355093001000057, 2.225638390000086 ], [ 11.36525249500005, 2.219815492000066 ], [ 11.353187562000016, 2.171280860000081 ], [ 10.190899848000129, 2.174328088000152 ], [ 10.166080475000115, 2.150718689000087 ], [ 10.136584283000161, 2.155503273000022 ], [ 10.120064736000131, 2.141032458000041 ], [ 10.109699248000084, 2.161665917000107 ], [ 9.988885879000122, 2.167297601000087 ], [ 9.902820587000122, 2.197039127000153 ], [ 9.846112251000136, 2.244625330000076 ], [ 9.830044746000056, 2.290157556000111 ], [ 9.815080642, 2.506319762000032 ], [ 9.856749535000063, 2.716006278000066 ], [ 9.892242431000113, 2.799032689000114 ], [ 9.881104469000093, 2.840754031000131 ], [ 9.905180932000121, 2.950011731000131 ], [ 9.955137253000032, 3.020056963000116 ], [ 9.974459648000163, 3.088009835000037 ], [ 9.902985572000034, 3.26309084900015 ], [ 9.963164329, 3.276597262000053 ], [ 10.03637027700006, 3.334228993000181 ], [ 10.053374291000125, 3.398763657000075 ], [ 10.075142861000018, 3.419484855000178 ], [ 10.067604065000126, 3.48918175600005 ], [ 10.083747864000145, 3.496514797000088 ], [ 10.116417885000089, 3.578851938000128 ], [ 10.154891013000167, 3.567727089000073 ], [ 10.185395240000162, 3.595280170000137 ], [ 10.20403289799998, 3.591630459000044 ], [ 10.202386856000032, 3.559106350000093 ], [ 10.235139846000038, 3.544360639000104 ], [ 10.251194001000101, 3.413266421000117 ], [ 10.296807288000025, 3.331075192000071 ], [ 10.762387275000094, 3.473424197000043 ], [ 10.815310478000185, 3.458585740000046 ], [ 10.827405929000065, 3.408799172000045 ], [ 10.861648559000059, 3.388253927 ], [ 10.895684241000083, 3.409049273000051 ], [ 10.954355240000041, 3.415247202000103 ], [ 10.982114791000129, 3.393372536000129 ], [ 10.999867438000024, 3.413813352000147 ], [ 11.031579017000126, 3.415373325000189 ], [ 11.061048508000113, 3.395056725000131 ], [ 11.113203049, 3.293583870000077 ], [ 11.111591339000029, 3.251678466999977 ], [ 11.171204567000075, 3.216628314000104 ], [ 11.173545837000177, 3.154141426000024 ], [ 11.214281083000174, 3.105933427000139 ], [ 11.270498275000023, 3.135472059000108 ], [ 11.33145618400016, 3.11333346400005 ], [ 11.355126380000058, 3.143511533000037 ], [ 11.564949035000041, 3.137466907000146 ], [ 11.640817643000162, 3.187682628000175 ], [ 11.699080468000091, 3.198625326000183 ], [ 11.709754943000178, 3.277022362000082 ], [ 11.745657920000099, 3.287539960000061 ], [ 11.734559059999981, 3.334720373000152 ], [ 11.774552345000131, 3.309933901000136 ], [ 11.819997787000148, 3.363167524000119 ], [ 11.849022866000155, 3.364039182000113 ], [ 11.892360752000172, 3.473784643000045 ], [ 11.925671578000106, 3.444230080000068 ], [ 11.949867249000022, 3.452569723000067 ], [ 11.980545996999979, 3.434497356 ], [ 11.993970871000045, 3.406726122000123 ], [ 12.133683205000068, 3.361536742000169 ], [ 12.139739037000027, 3.291439533000016 ], [ 12.160774230000072, 3.325407029000132 ], [ 12.192651749, 3.329127789000154 ], [ 12.205150604000039, 3.311305761000085 ], [ 12.258033752000131, 3.480809926000177 ], [ 12.397054672000138, 3.597401142000081 ], [ 12.432778358000064, 3.610934019000069 ], [ 12.454617499000051, 3.675362825000093 ], [ 12.498497963000034, 3.68188119000007 ], [ 12.527771950000044, 3.627005817000111 ], [ 12.526140213000133, 3.573781968 ], [ 12.563605309000081, 3.533432484000173 ], [ 12.542496682000149, 3.392803907000086 ], [ 12.765206337999984, 3.170316459000105 ], [ 12.76472663800007, 2.973160983000014 ], [ 12.794776916000103, 2.904289008000035 ], [ 12.813237191000098, 2.915403844000025 ], [ 12.833261490000041, 2.888084651000156 ], [ 12.85995960300005, 2.893741609000131 ], [ 12.874295235000091, 2.875277759000085 ], [ 12.914956093000171, 2.878224850000151 ], [ 12.939674378000177, 2.862812757000086 ], [ 12.966885566000087, 2.864527465000037 ], [ 12.986755372000118, 2.886488913999983 ], [ 13.002079963000028, 2.849291801000106 ], [ 13.019682885000066, 2.858489037000083 ], [ 13.081315041000153, 2.837625504000187 ], [ 13.083175984000036, 2.85507098700009 ], [ 13.112442970000018, 2.841451646000053 ], [ 13.134461166, 2.87244358200013 ], [ 13.153944015999969, 2.845877648000169 ], [ 13.192895889000113, 2.848182917000031 ], [ 13.210627589000126, 2.864716024000074 ], [ 13.236698000000104, 2.846532001000185 ], [ 13.233138085000178, 2.827713252000024 ], [ 13.260629653000024, 2.822292566000044 ], [ 13.26746749900019, 2.782264232999978 ], [ 13.291819572000065, 2.786962748000178 ], [ 13.272969246000059, 2.840333224000062 ], [ 13.285474000000136, 2.845606 ], [ 13.347184182000092, 2.795800446999976 ], [ 13.3758401770001, 2.820478904000083 ], [ 13.431725503000052, 2.77165579800004 ], [ 13.50138569000012, 2.787238598000101 ], [ 13.504000871000073, 2.834876695000048 ], [ 13.533777238000027, 2.821571590000076 ], [ 13.532633, 2.853482000000156 ], [ 13.558086395000089, 2.843915702000174 ], [ 13.58298791600015, 2.882100856000022 ], [ 13.630461727000181, 2.904450764000046 ], [ 13.680087040000046, 2.171692134000182 ], [ 13.29315498200009, 2.1713498740001 ], [ 13.284190177000085, 2.191054822000183 ], [ 13.303197701000158, 2.20772972900005 ], [ 13.284029007000072, 2.248191357000167 ], [ 13.271671296000136, 2.238893271000165 ], [ 13.24841976099998, 2.270735025000079 ], [ 13.222275734000164, 2.255103350000184 ], [ 13.191634178000072, 2.260807515000067 ], [ 13.192276955000068, 2.279470205000052 ], [ 13.11685085300013, 2.267314910000152 ], [ 13.117727280000111, 2.251334666999981 ], [ 13.087685584000099, 2.236653806000049 ], [ 13.074348449000126, 2.248036147000107 ], [ 13.0362854010001, 2.233801127 ], [ 13.019021034000104, 2.249142409000171 ], [ 12.918295859000125, 2.252966405000166 ], [ 12.86012935600013, 2.226898671000185 ], [ 12.819620133000114, 2.255794525000056 ], [ 12.743388176000053, 2.219856739000022 ], [ 12.683256150000091, 2.242274047000137 ], [ 12.622175216000187, 2.243237257000033 ], [ 12.573323249000168, 2.268049002000168 ], [ 12.45392227200017, 2.252460242000154 ], [ 12.307167052000068, 2.282197715000109 ], [ 12.245902061000038, 2.248409749000132 ], [ 12.205025673000137, 2.278378726000028 ], [ 12.153656959000159, 2.271031619000098 ], [ 12.123369217, 2.28884387100004 ], [ 12.108219147000057, 2.276978970000073 ], [ 11.969201088000034, 2.288480759000038 ], [ 11.758881570000028, 2.267483950000099 ], [ 11.74633312200001, 2.294757366000056 ], [ 11.711256981000133, 2.299322367000173 ], [ 11.701069831000098, 2.315644502000055 ] ] ] } },
{ "type": "Feature", "properties": { "NAME_1": "Sud-Ouest", "GID_1": "CMR.9_1", "cle_adm": "sudouest", "n_individus": 494, "n_menages": 134, "tx_pauvrete_pond": 28.915496828107845, "tx_pauvrete_brut": 31.781376518218625, "taille_moy_menage": 4.9985801175823612, "tx_pauvrete_menage": 21.499850538096393, "tx_ins_publie": null, "ecart_ins": null, "avertissement": "extrait de formation - NON representatif a l'interieur des regions - ne pas citer", "n_grappes": 14, "tx_eau_amelioree": 98.861300375065753 }, "geometry": { "type": "Polygon", "coordinates": [ [ [ 9.303444862000163, 4.003985882000052 ], [ 9.239857673000074, 3.942475319000039 ], [ 9.230515480000065, 3.963289262000103 ], [ 9.215690613000106, 3.966433049000045 ], [ 9.213804245000176, 3.951225756999975 ], [ 9.205439568000031, 3.960597516000121 ], [ 9.207862853999984, 4.007244109999988 ], [ 9.115175248000071, 4.010245800000064 ], [ 8.977789879999989, 4.096603394000056 ], [ 8.997721672000182, 4.194452762000083 ], [ 8.915849685000126, 4.288691521000032 ], [ 8.919784547000063, 4.342278481000051 ], [ 8.891974449000145, 4.374041557000169 ], [ 8.88409710000002, 4.438286781000102 ], [ 8.905167580000125, 4.500102997000113 ], [ 8.841261863000113, 4.534982204000073 ], [ 8.838901519000046, 4.550383568000029 ], [ 8.719926834000148, 4.510425091000116 ], [ 8.685285568000097, 4.474649429000124 ], [ 8.557772636000095, 4.484436988000027 ], [ 8.576537133000045, 4.511092187000088 ], [ 8.568716049000045, 4.520670413000119 ], [ 8.540452957000127, 4.494158746000096 ], [ 8.514539718000037, 4.499379158000181 ], [ 8.499637603999986, 4.556495190000021 ], [ 8.528678895000098, 4.565784455000085 ], [ 8.500236512000185, 4.603778840000189 ], [ 8.516640663000032, 4.655507088999968 ], [ 8.500316621000138, 4.669796944000097 ], [ 8.540198325, 4.702318668000146 ], [ 8.524884225, 4.745845795000093 ], [ 8.540104866000036, 4.794904709000093 ], [ 8.628655435000042, 4.82033062 ], [ 8.608072280000101, 4.88513612700001 ], [ 8.651936531000047, 4.914961815000083 ], [ 8.650899887000094, 4.94272518300005 ], [ 8.694080353000061, 4.988158227000099 ], [ 8.68079567000018, 4.998505592000129 ], [ 8.715596199000061, 5.031938553000145 ], [ 8.725268364000158, 5.074828626000169 ], [ 8.781618118000154, 5.1133089060001 ], [ 8.818734169000095, 5.185620784999969 ], [ 8.81515693700004, 5.283845902000053 ], [ 8.840230942000176, 5.387761592000174 ], [ 8.831048011, 5.429977895000036 ], [ 8.920679092000114, 5.572205067000141 ], [ 8.89859676400016, 5.624197006000088 ], [ 8.836645126000121, 5.679552555000157 ], [ 8.832182884000019, 5.705854893000037 ], [ 8.854125023, 5.708680153000046 ], [ 8.883420943000147, 5.777463913000133 ], [ 8.872360230000083, 5.801792146000025 ], [ 8.847064019000015, 5.792301178000059 ], [ 8.840001106000159, 5.826342583000155 ], [ 8.902874947000043, 5.863131523000106 ], [ 8.912257194000119, 5.90246009800012 ], [ 8.945055961000094, 5.91119432500011 ], [ 9.133093835000011, 6.072074891000113 ], [ 9.167497635000188, 6.130717279000066 ], [ 9.211695671000143, 6.167308808000143 ], [ 9.265694619000158, 6.184167861 ], [ 9.333715439000173, 6.293262005000145 ], [ 9.343441964000021, 6.351086140000177 ], [ 9.431278228000167, 6.31724500700011 ], [ 9.464488984000013, 6.454388141000038 ], [ 9.528005600000085, 6.443352223000147 ], [ 9.587982178000118, 6.475166322000177 ], [ 9.594839096999976, 6.528948307000064 ], [ 9.65167999300013, 6.529213429000151 ], [ 9.668975831000182, 6.510748864000107 ], [ 9.70634555700002, 6.515554429000133 ], [ 9.707198142000152, 6.500148773000149 ], [ 9.743618011000024, 6.484232427000052 ], [ 9.736499785000149, 6.431143284000086 ], [ 9.764066696999976, 6.390412808000121 ], [ 9.772644996000054, 6.306565284000101 ], [ 9.81682777400016, 6.22122430800016 ], [ 9.771765708000089, 6.198583126000187 ], [ 9.789146422000044, 6.166862488000163 ], [ 9.767003059000103, 6.158495903000073 ], [ 9.765442849000181, 6.125457765000135 ], [ 9.736765862000027, 6.116185188000031 ], [ 9.726397514000098, 6.084697247000179 ], [ 9.702235222000013, 6.09062147200018 ], [ 9.611458778000156, 6.021414280000045 ], [ 9.638874053000166, 5.967557431000159 ], [ 9.619618416000094, 5.935316563000072 ], [ 9.603939056, 5.935908318000088 ], [ 9.590973854000026, 5.882214547000046 ], [ 9.633714676000068, 5.887528896 ], [ 9.679924964000065, 5.83529949300015 ], [ 9.690656662000038, 5.855869292000079 ], [ 9.727929116000041, 5.84778022800009 ], [ 9.768461228000092, 5.776788712000155 ], [ 9.811853409000094, 5.774717807000115 ], [ 9.814119340000047, 5.755089760000089 ], [ 9.853302956000107, 5.752543450000132 ], [ 9.855281829000148, 5.73415994700008 ], [ 9.88367748200011, 5.740626812000187 ], [ 9.888996124000187, 5.718791961000022 ], [ 9.955568313000185, 5.752189636000139 ], [ 9.997377395, 5.719217777000097 ], [ 10.061239242000113, 5.719415188000141 ], [ 10.097887039, 5.682966233000172 ], [ 10.101049423, 5.660387992000153 ], [ 10.079040527000132, 5.633992673000137 ], [ 10.024628639000071, 5.629549504000124 ], [ 9.998053551000169, 5.580388069000094 ], [ 9.962246896000067, 5.589609146000157 ], [ 9.948732375000134, 5.568758011000057 ], [ 9.966513634000137, 5.546816825000064 ], [ 9.950643540000101, 5.52596902800002 ], [ 9.95869636499998, 5.492804527000033 ], [ 9.922139167000182, 5.377915383000072 ], [ 9.893357278000053, 5.351134301000172 ], [ 9.824075699000048, 5.330033302000174 ], [ 9.829555511000137, 5.290767192000033 ], [ 9.783971787000098, 5.284400464000157 ], [ 9.768578529000081, 5.263293744000066 ], [ 9.739611626000112, 5.273099422000143 ], [ 9.736417771000106, 5.245463372000074 ], [ 9.76640510600015, 5.209688663000065 ], [ 9.775547027000073, 5.146035195000081 ], [ 9.801351547000138, 5.140281200000175 ], [ 9.81593704200003, 5.079701901000078 ], [ 9.866170884000041, 5.029462337000098 ], [ 9.828407287000175, 5.014459610000131 ], [ 9.811128617000122, 5.025396347000083 ], [ 9.775730133000138, 5.005545139 ], [ 9.754415512000037, 4.941046714000038 ], [ 9.756322861000172, 4.919918061000033 ], [ 9.786070823000045, 4.916450502000089 ], [ 9.763833046000116, 4.887075900000013 ], [ 9.774524689000032, 4.873771667000142 ], [ 9.742738723000116, 4.858402729000034 ], [ 9.749038695000024, 4.841758729000105 ], [ 9.704512595999972, 4.808179378000034 ], [ 9.691056251000134, 4.72137498800015 ], [ 9.632194520000041, 4.664201259000095 ], [ 9.64357566800004, 4.637671948 ], [ 9.573591232000069, 4.615284444000054 ], [ 9.541331292000052, 4.589340686000185 ], [ 9.511793136000165, 4.519955158000187 ], [ 9.50817585100009, 4.531925201000035 ], [ 9.493002892000106, 4.526287079000156 ], [ 9.503664017000176, 4.490855216000114 ], [ 9.48752784800007, 4.470186233000163 ], [ 9.514859199000057, 4.402382373000137 ], [ 9.502464294000106, 4.411007882000149 ], [ 9.455781936000108, 4.348326683000039 ], [ 9.45872020600001, 4.317399978000083 ], [ 9.433624268000131, 4.294819355000072 ], [ 9.428632736000111, 4.23689794600017 ], [ 9.413747787000034, 4.223502158000031 ], [ 9.42079448700008, 4.203966618000152 ], [ 9.448833465000064, 4.208067895000113 ], [ 9.466750145000162, 4.189770698000075 ], [ 9.529988288000141, 4.210410595000155 ], [ 9.529767036000123, 4.165890694000097 ], [ 9.557864189000099, 4.118287563000024 ], [ 9.509881973, 4.085480213000153 ], [ 9.498991013000023, 4.051403046000132 ], [ 9.45704460200011, 4.05956602100008 ], [ 9.451781273000108, 4.02385664000019 ], [ 9.403999329000044, 3.991807699000105 ], [ 9.381181718000107, 3.920584679000115 ], [ 9.356609344000049, 3.907768966000162 ], [ 9.29594993600017, 3.95506572700009 ], [ 9.300504684999964, 3.983278274000043 ], [ 9.322232246000169, 3.998418571000116 ], [ 9.303444862000163, 4.003985882000052 ] ] ] } }
]
}
